<?xml version="1.0" encoding="UTF-8"?>
<osm version="0.6" generator="flagstop" upload="true">
  <relation id="-1" version="0">
    <member type="node" ref="11503929855" role="platform"/>
    <member type="node" ref="11503929854" role="platform"/>
    <member type="node" ref="11503929853" role="platform"/>
    <member type="node" ref="11503929852" role="platform"/>
    <member type="node" ref="11503929848" role="platform"/>
    <member type="node" ref="11503929846" role="platform"/>
    <member type="node" ref="11503929843" role="platform"/>
    <member type="node" ref="11503929841" role="platform"/>
    <member type="node" ref="11503983285" role="platform"/>
    <member type="node" ref="11503983295" role="platform"/>
    <member type="node" ref="11503983326" role="platform"/>
    <member type="node" ref="11503983328" role="platform"/>
    <member type="node" ref="11503752109" role="platform"/>
    <member type="node" ref="11503752114" role="platform"/>
    <member type="node" ref="11503752128" role="platform"/>
    <member type="node" ref="11504801908" role="platform"/>
    <member type="node" ref="11582265883" role="platform"/>
    <member type="way" ref="10083808" role=""/>
    <member type="way" ref="943713001" role=""/>
    <member type="way" ref="1239919669" role=""/>
    <member type="way" ref="1239919670" role=""/>
    <member type="way" ref="36886182" role=""/>
    <member type="way" ref="36886181" role=""/>
    <member type="way" ref="36886970" role=""/>
    <member type="way" ref="10083761" role=""/>
    <member type="way" ref="1484970604" role=""/>
    <member type="way" ref="328045561" role=""/>
    <member type="way" ref="943712993" role=""/>
    <member type="way" ref="10083352" role=""/>
    <member type="way" ref="1018295735" role=""/>
    <member type="way" ref="1018295734" role=""/>
    <member type="way" ref="1017470653" role=""/>
    <member type="way" ref="10084917" role=""/>
    <member type="way" ref="1306430468" role=""/>
    <member type="way" ref="1207032109" role=""/>
    <member type="way" ref="351716598" role=""/>
    <member type="way" ref="351716599" role=""/>
    <member type="way" ref="943712984" role=""/>
    <member type="way" ref="10084595" role=""/>
    <member type="way" ref="1319964800" role=""/>
    <member type="way" ref="1012810854" role=""/>
    <member type="way" ref="1085936748" role=""/>
    <member type="way" ref="10085582" role=""/>
    <member type="way" ref="454043213" role=""/>
    <member type="way" ref="1120393839" role=""/>
    <member type="way" ref="943712981" role=""/>
    <member type="way" ref="943712979" role=""/>
    <member type="way" ref="454043207" role=""/>
    <member type="way" ref="1120393835" role=""/>
    <member type="way" ref="10080034" role=""/>
    <member type="way" ref="1102256906" role=""/>
    <member type="way" ref="464939238" role=""/>
    <member type="way" ref="186842301" role=""/>
    <member type="way" ref="687142596" role=""/>
    <member type="way" ref="687142599" role=""/>
    <member type="way" ref="10086024" role=""/>
    <member type="way" ref="1419412029" role=""/>
    <member type="way" ref="1419412028" role=""/>
    <member type="way" ref="10083045" role=""/>
    <member type="way" ref="1419412031" role=""/>
    <member type="way" ref="1419412030" role=""/>
    <member type="way" ref="738331121" role=""/>
    <member type="way" ref="182951684" role=""/>
    <member type="way" ref="1419412025" role=""/>
    <member type="way" ref="1419412024" role=""/>
    <member type="way" ref="182543771" role=""/>
    <member type="way" ref="944576294" role=""/>
    <member type="way" ref="707968346" role=""/>
    <member type="way" ref="458118479" role=""/>
    <tag k="type" v="route"/>
    <tag k="route" v="bus"/>
    <tag k="public_transport:version" v="2"/>
    <tag k="ref" v="11"/>
    <tag k="operator" v="CVTD Cache Valley Transit District"/>
    <tag k="from" v="3155 South 500 West"/>
    <tag k="to" v="150 East 500 North - Route 11 &amp; 16"/>
    <tag k="gtfs:route_id" v="5731"/>
    <tag k="gtfs:shape_id" v="31365"/>
    <tag k="name" v="Bus 11: Northbound"/>
    <tag k="colour" v="#066A40"/>
    <tag k="description" v="Route 11 — Nibley, SW Logan, DLD"/>
  </relation>
</osm>
