<?xml version="1.0" encoding="UTF-8"?>
<osm version="0.6" generator="flagstop" upload="true">
  <relation id="-1" version="0">
    <member type="node" ref="11582265883" role="platform"/>
    <member type="node" ref="11504801856" role="platform"/>
    <member type="node" ref="11504801848" role="platform"/>
    <member type="node" ref="11504801843" role="platform"/>
    <member type="node" ref="11504801826" role="platform"/>
    <member type="node" ref="11504801820" role="platform"/>
    <member type="node" ref="11504801818" role="platform"/>
    <member type="node" ref="11504801816" role="platform"/>
    <member type="node" ref="11504801786" role="platform"/>
    <member type="node" ref="11504801784" role="platform"/>
    <member type="node" ref="11504801783" role="platform"/>
    <member type="node" ref="11504801769" role="platform"/>
    <member type="node" ref="11504756767" role="platform"/>
    <member type="node" ref="11504756764" role="platform"/>
    <member type="node" ref="11504756756" role="platform"/>
    <member type="node" ref="11504756754" role="platform"/>
    <member type="node" ref="11504756753" role="platform"/>
    <member type="node" ref="11507014066" role="platform"/>
    <member type="node" ref="11504756751" role="platform"/>
    <member type="node" ref="11504756750" role="platform"/>
    <member type="way" ref="458118479" role=""/>
    <member type="way" ref="707968346" role=""/>
    <member type="way" ref="182543769" role=""/>
    <member type="way" ref="1419412026" role=""/>
    <member type="way" ref="182543763" role=""/>
    <member type="way" ref="1238999366" role=""/>
    <member type="way" ref="1069409558" role=""/>
    <member type="way" ref="1300237157" role=""/>
    <member type="way" ref="1300237156" role=""/>
    <member type="way" ref="943678570" role=""/>
    <member type="way" ref="1253670907" role=""/>
    <member type="way" ref="943688781" role=""/>
    <member type="way" ref="1300237155" role=""/>
    <member type="way" ref="943741935" role=""/>
    <member type="way" ref="182952358" role=""/>
    <member type="way" ref="1065381360" role=""/>
    <member type="way" ref="1300237154" role=""/>
    <member type="way" ref="943741936" role=""/>
    <member type="way" ref="1307517011" role=""/>
    <member type="way" ref="10084887" role=""/>
    <member type="way" ref="943741943" role=""/>
    <member type="way" ref="10086231" role=""/>
    <member type="way" ref="10084930" role=""/>
    <member type="way" ref="1182295009" role=""/>
    <member type="way" ref="10086237" role=""/>
    <member type="way" ref="1316532509" role=""/>
    <member type="way" ref="10085358" role=""/>
    <member type="way" ref="943741944" role=""/>
    <member type="way" ref="1065381359" role=""/>
    <member type="way" ref="943741947" role=""/>
    <member type="way" ref="1065381358" role=""/>
    <member type="way" ref="1079340709" role=""/>
    <member type="way" ref="1229780871" role=""/>
    <member type="way" ref="1130727207" role=""/>
    <member type="way" ref="791209078" role=""/>
    <member type="way" ref="1130727207" role=""/>
    <member type="way" ref="1229780871" role=""/>
    <member type="way" ref="10086233" role=""/>
    <member type="way" ref="1026779620" role=""/>
    <member type="way" ref="1026779621" role=""/>
    <member type="way" ref="10086397" role=""/>
    <member type="way" ref="1026779622" role=""/>
    <member type="way" ref="1238990705" role=""/>
    <member type="way" ref="1238990704" role=""/>
    <member type="way" ref="10086343" role=""/>
    <member type="way" ref="1425352762" role=""/>
    <member type="way" ref="943764031" role=""/>
    <member type="way" ref="1425352762" role=""/>
    <member type="way" ref="10086343" role=""/>
    <member type="way" ref="1238990703" role=""/>
    <member type="way" ref="1238990706" role=""/>
    <member type="way" ref="10085800" role=""/>
    <member type="way" ref="1238990705" role=""/>
    <member type="way" ref="1026779622" role=""/>
    <member type="way" ref="10086397" role=""/>
    <member type="way" ref="1026779621" role=""/>
    <member type="way" ref="1026779620" role=""/>
    <member type="way" ref="1238990708" role=""/>
    <member type="way" ref="13811757" role=""/>
    <member type="way" ref="1065381357" role=""/>
    <member type="way" ref="1079340711" role=""/>
    <member type="way" ref="13812983" role=""/>
    <member type="way" ref="13800242" role=""/>
    <member type="way" ref="1079340712" role=""/>
    <member type="way" ref="432576996" role=""/>
    <member type="way" ref="1079340713" role=""/>
    <member type="way" ref="432576995" role=""/>
    <member type="way" ref="218760720" role=""/>
    <member type="way" ref="1028138221" role=""/>
    <member type="way" ref="1028138220" role=""/>
    <member type="way" ref="1287550606" role=""/>
    <member type="way" ref="1079340715" role=""/>
    <member type="way" ref="1079340714" role=""/>
    <member type="way" ref="1079340716" role=""/>
    <member type="way" ref="652159577" role=""/>
    <member type="way" ref="1238990702" role=""/>
    <member type="way" ref="1079340717" role=""/>
    <member type="way" ref="13812982" role=""/>
    <member type="way" ref="943764035" role=""/>
    <member type="way" ref="1238990707" role=""/>
    <member type="way" ref="943764036" role=""/>
    <tag k="type" v="route"/>
    <tag k="route" v="bus"/>
    <tag k="public_transport:version" v="2"/>
    <tag k="ref" v="16 AM"/>
    <tag k="operator" v="Connect Public Transit"/>
    <tag k="from" v="Intermodal Transit Center"/>
    <tag k="to" v="Preston"/>
    <tag k="gtfs:route_id" v="5739"/>
    <tag k="gtfs:shape_id" v="27487"/>
    <tag k="network" v="Connect Public Transit"/>
    <tag k="network:wikidata" v="Q129798316"/>
    <tag k="name" v="Bus 16 AM: Northbound"/>
    <tag k="colour" v="#023465"/>
    <tag k="description" v="Route 16 - AM Weekday ONLY — Logan, Lewiston, Preston"/>
  </relation>
</osm>
