<?xml version="1.0" encoding="UTF-8"?>
<osm version="0.6" generator="flagstop" upload="true">
  <relation id="-1" version="0">
    <member type="node" ref="3756748837" role="platform"/>
    <member type="node" ref="11504801874" role="platform"/>
    <member type="node" ref="3756754360" role="platform"/>
    <member type="node" ref="11507014051" role="platform"/>
    <member type="node" ref="2673556850" role="platform"/>
    <member type="node" ref="11507014047" role="platform"/>
    <member type="node" ref="11507014058" role="platform"/>
    <member type="node" ref="11507014057" role="platform"/>
    <member type="node" ref="3755336650" role="platform"/>
    <member type="node" ref="3755336651" role="platform"/>
    <member type="node" ref="11507014056" role="platform"/>
    <member type="node" ref="11507014055" role="platform"/>
    <member type="node" ref="11507014054" role="platform"/>
    <member type="node" ref="11507014053" role="platform"/>
    <member type="node" ref="11507014049" role="platform"/>
    <member type="node" ref="3756748835" role="platform"/>
    <member type="node" ref="11507014052" role="platform"/>
    <member type="node" ref="11504801872" role="platform"/>
    <member type="node" ref="11504801873" role="platform"/>
    <member type="node" ref="3756748837" role="platform"/>
    <member type="way" ref="1238471154" role=""/>
    <member type="way" ref="1563597691" role=""/>
    <member type="way" ref="707968348" role=""/>
    <member type="way" ref="1238729870" role=""/>
    <member type="way" ref="372145376" role=""/>
    <member type="way" ref="1098119724" role=""/>
    <member type="way" ref="182952356" role=""/>
    <member type="way" ref="1317024531" role=""/>
    <member type="way" ref="1323881870" role=""/>
    <member type="way" ref="1204294788" role=""/>
    <member type="way" ref="1323881876" role=""/>
    <member type="way" ref="1317024533" role=""/>
    <member type="way" ref="10085289" role=""/>
    <member type="way" ref="186841698" role=""/>
    <member type="way" ref="999581670" role=""/>
    <member type="way" ref="999581672" role=""/>
    <member type="way" ref="105757138" role=""/>
    <member type="way" ref="1109090466" role=""/>
    <member type="way" ref="1109090468" role=""/>
    <member type="way" ref="1556645709" role=""/>
    <member type="way" ref="10086405" role=""/>
    <member type="way" ref="1343222529" role=""/>
    <member type="way" ref="182952354" role=""/>
    <member type="way" ref="1311629921" role=""/>
    <member type="way" ref="1310476486" role=""/>
    <member type="way" ref="1311629920" role=""/>
    <member type="way" ref="1343862005" role=""/>
    <member type="way" ref="1204279029" role=""/>
    <member type="way" ref="1311629919" role=""/>
    <member type="way" ref="1547614186" role=""/>
    <member type="way" ref="1323881875" role=""/>
    <member type="way" ref="1204279032" role=""/>
    <member type="way" ref="1310476481" role=""/>
    <member type="way" ref="105757140" role=""/>
    <member type="way" ref="1204279024" role=""/>
    <member type="way" ref="1204279025" role=""/>
    <member type="way" ref="1204279026" role=""/>
    <member type="way" ref="1204279027" role=""/>
    <member type="way" ref="10080038" role=""/>
    <member type="way" ref="10085499" role=""/>
    <member type="way" ref="186841703" role=""/>
    <member type="way" ref="1104503556" role=""/>
    <member type="way" ref="10084390" role=""/>
    <member type="way" ref="186841696" role=""/>
    <member type="way" ref="186841694" role=""/>
    <member type="way" ref="182952366" role=""/>
    <member type="way" ref="1307740866" role=""/>
    <member type="way" ref="10086405" role=""/>
    <member type="way" ref="1556645709" role=""/>
    <member type="way" ref="1109090467" role=""/>
    <member type="way" ref="1204297831" role=""/>
    <member type="way" ref="1204297830" role=""/>
    <member type="way" ref="1109090466" role=""/>
    <member type="way" ref="105757138" role=""/>
    <member type="way" ref="1094689405" role=""/>
    <member type="way" ref="999581671" role=""/>
    <member type="way" ref="186841698" role=""/>
    <member type="way" ref="10085289" role=""/>
    <member type="way" ref="1317024532" role=""/>
    <member type="way" ref="1394211239" role=""/>
    <member type="way" ref="707968347" role=""/>
    <member type="way" ref="738588369" role=""/>
    <member type="way" ref="1394211238" role=""/>
    <member type="way" ref="1317024530" role=""/>
    <member type="way" ref="182952356" role=""/>
    <member type="way" ref="1098119723" role=""/>
    <member type="way" ref="1394211237" role=""/>
    <member type="way" ref="1238473087" role=""/>
    <member type="way" ref="707968350" role=""/>
    <member type="way" ref="1238473088" role=""/>
    <member type="way" ref="1394211236" role=""/>
    <member type="way" ref="1098119728" role=""/>
    <member type="way" ref="1563597691" role=""/>
    <member type="way" ref="1238473089" role=""/>
    <member type="way" ref="182543776" role=""/>
    <member type="way" ref="458118479" role=""/>
    <member type="way" ref="1238471154" role=""/>
    <tag k="type" v="route"/>
    <tag k="route" v="bus"/>
    <tag k="public_transport:version" v="2"/>
    <tag k="ref" v="1"/>
    <tag k="operator" v="Connect Public Transit"/>
    <tag k="from" v="Intermodal Transit Center"/>
    <tag k="to" v="Intermodal Transit Center"/>
    <tag k="gtfs:route_id" v="5714"/>
    <tag k="gtfs:shape_id" v="19560"/>
    <tag k="roundtrip" v="yes"/>
    <tag k="network" v="Connect Public Transit"/>
    <tag k="network:wikidata" v="Q129798316"/>
    <tag k="name" v="Bus 1: USU, NE Logan 1600 E"/>
    <tag k="colour" v="#FF842C"/>
    <tag k="description" v="Route 01 — USU, Lundstrom, Hillcrest"/>
  </relation>
</osm>
