<?xml version="1.0" encoding="UTF-8"?>
<osm version="0.6" generator="flagstop" upload="true">
  <relation id="-1" version="0">
    <member type="node" ref="11582265881" role="platform"/>
    <member type="node" ref="11504801895" role="platform"/>
    <member type="node" ref="11504801893" role="platform"/>
    <member type="node" ref="11504801899" role="platform"/>
    <member type="node" ref="12089645618" role="platform"/>
    <member type="node" ref="12089645619" role="platform"/>
    <member type="node" ref="11504801889" role="platform"/>
    <member type="node" ref="11504801888" role="platform"/>
    <member type="node" ref="12110408069" role="platform"/>
    <member type="node" ref="11504801886" role="platform"/>
    <member type="node" ref="11504801880" role="platform"/>
    <member type="node" ref="11504801881" role="platform"/>
    <member type="node" ref="11504801882" role="platform"/>
    <member type="node" ref="11504801883" role="platform"/>
    <member type="node" ref="11504801890" role="platform"/>
    <member type="node" ref="11504801891" role="platform"/>
    <member type="node" ref="11504801892" role="platform"/>
    <member type="node" ref="11504801896" role="platform"/>
    <member type="node" ref="3756748842" role="platform"/>
    <member type="way" ref="458118479" role=""/>
    <member type="way" ref="707968346" role=""/>
    <member type="way" ref="944576294" role=""/>
    <member type="way" ref="182543771" role=""/>
    <member type="way" ref="1419412024" role=""/>
    <member type="way" ref="182543766" role=""/>
    <member type="way" ref="954776982" role=""/>
    <member type="way" ref="954776981" role=""/>
    <member type="way" ref="954776980" role=""/>
    <member type="way" ref="11179042" role=""/>
    <member type="way" ref="1442426816" role=""/>
    <member type="way" ref="10082877" role=""/>
    <member type="way" ref="182951974" role=""/>
    <member type="way" ref="182543783" role=""/>
    <member type="way" ref="182543774" role=""/>
    <member type="way" ref="954775430" role=""/>
    <member type="way" ref="182543770" role=""/>
    <member type="way" ref="954775428" role=""/>
    <member type="way" ref="954775429" role=""/>
    <member type="way" ref="954775427" role=""/>
    <member type="way" ref="954775426" role=""/>
    <member type="way" ref="954775425" role=""/>
    <member type="way" ref="1012796218" role=""/>
    <member type="way" ref="182543775" role=""/>
    <member type="way" ref="1305320974" role=""/>
    <member type="way" ref="1305320975" role=""/>
    <member type="way" ref="954775424" role=""/>
    <member type="way" ref="954775423" role=""/>
    <member type="way" ref="954775422" role=""/>
    <member type="way" ref="1247458031" role=""/>
    <member type="way" ref="160067600" role=""/>
    <member type="way" ref="160067598" role=""/>
    <member type="way" ref="182543764" role=""/>
    <member type="way" ref="182543781" role=""/>
    <member type="way" ref="182543784" role=""/>
    <member type="way" ref="1256658376" role=""/>
    <member type="way" ref="10083451" role=""/>
    <member type="way" ref="1095269974" role=""/>
    <member type="way" ref="182543780" role=""/>
    <member type="way" ref="1238990709" role=""/>
    <member type="way" ref="943764028" role=""/>
    <member type="way" ref="182543765" role=""/>
    <member type="way" ref="182951974" role=""/>
    <member type="way" ref="10082877" role=""/>
    <member type="way" ref="1442426816" role=""/>
    <member type="way" ref="10082172" role=""/>
    <member type="way" ref="11179042" role=""/>
    <member type="way" ref="10086230" role=""/>
    <member type="way" ref="1419412026" role=""/>
    <member type="way" ref="182543769" role=""/>
    <member type="way" ref="707968346" role=""/>
    <member type="way" ref="182543776" role=""/>
    <tag k="type" v="route"/>
    <tag k="route" v="bus"/>
    <tag k="public_transport:version" v="2"/>
    <tag k="ref" v="8"/>
    <tag k="operator" v="CVTD Cache Valley Transit District"/>
    <tag k="from" v="150 East 500 North - Route 8 (800)"/>
    <tag k="to" v="150 East 500 North - Route 3"/>
    <tag k="gtfs:route_id" v="5741"/>
    <tag k="gtfs:shape_id" v="29241"/>
    <tag k="name" v="Bus 8: Route 08"/>
    <tag k="colour" v="#8EBE5B"/>
    <tag k="description" v="Route 08 — Ellis, BTECH, 1000 W"/>
  </relation>
</osm>
