<?xml version="1.0" encoding="UTF-8"?>
<osm version="0.6" generator="flagstop" upload="true">
  <node id="-1" lat="41.719811" lon="-111.835184" version="0">
    <tag k="highway" v="bus_stop"/>
    <tag k="public_transport" v="platform"/>
    <tag k="bus" v="yes"/>
    <tag k="name" v="670 South Main St"/>
    <tag k="ref" v="1243"/>
    <tag k="gtfs:stop_id" v="7547688"/>
    <tag k="gtfs:stop_code" v="1243"/>
    <tag k="operator" v="CVTD Cache Valley Transit District"/>
    <tag k="route_ref" v="B;G;12"/>
    <tag k="description" v="The Riverwoods"/>
  </node>
  <relation id="-1" version="0">
    <member type="node" ref="11503929829" role="platform"/>
    <member type="node" ref="11503929830" role="platform"/>
    <member type="node" ref="11503929831" role="platform"/>
    <member type="node" ref="11503929832" role="platform"/>
    <member type="node" ref="11503929833" role="platform"/>
    <member type="node" ref="11503929834" role="platform"/>
    <member type="node" ref="11503929835" role="platform"/>
    <member type="node" ref="11503929836" role="platform"/>
    <member type="node" ref="11503929837" role="platform"/>
    <member type="node" ref="11503929817" role="platform"/>
    <member type="node" ref="11503929839" role="platform"/>
    <member type="node" ref="11503929857" role="platform"/>
    <member type="node" ref="11503929859" role="platform"/>
    <member type="node" ref="11503929861" role="platform"/>
    <member type="node" ref="11503929862" role="platform"/>
    <member type="node" ref="11503929865" role="platform"/>
    <member type="node" ref="11503983293" role="platform"/>
    <member type="node" ref="11503983298" role="platform"/>
    <member type="node" ref="-1" role="platform"/>
    <member type="node" ref="11503752111" role="platform"/>
    <member type="node" ref="3756754358" role="platform"/>
    <member type="node" ref="11504801898" role="platform"/>
    <member type="node" ref="3756748839" role="platform"/>
    <member type="way" ref="943727981" role=""/>
    <member type="way" ref="10083196" role=""/>
    <member type="way" ref="1320451969" role=""/>
    <member type="way" ref="452308929" role=""/>
    <member type="way" ref="962654364" role=""/>
    <member type="way" ref="452787806" role=""/>
    <member type="way" ref="1238996632" role=""/>
    <member type="way" ref="10085882" role=""/>
    <member type="way" ref="10085725" role=""/>
    <member type="way" ref="1085934853" role=""/>
    <member type="way" ref="1012818365" role=""/>
    <member type="way" ref="1085936740" role=""/>
    <member type="way" ref="1085936741" role=""/>
    <member type="way" ref="10084841" role=""/>
    <member type="way" ref="1085936742" role=""/>
    <member type="way" ref="1012818364" role=""/>
    <member type="way" ref="1184507887" role=""/>
    <member type="way" ref="10085064" role=""/>
    <member type="way" ref="1085936746" role=""/>
    <member type="way" ref="1085936744" role=""/>
    <member type="way" ref="1085936745" role=""/>
    <member type="way" ref="943727980" role=""/>
    <member type="way" ref="687140395" role=""/>
    <member type="way" ref="687140398" role=""/>
    <member type="way" ref="1557321904" role=""/>
    <member type="way" ref="1319964800" role=""/>
    <member type="way" ref="1012810854" role=""/>
    <member type="way" ref="1085936749" role=""/>
    <member type="way" ref="943678569" role=""/>
    <member type="way" ref="1100702909" role=""/>
    <member type="way" ref="1002818970" role=""/>
    <member type="way" ref="1339864560" role=""/>
    <member type="way" ref="1339864559" role=""/>
    <member type="way" ref="1043802457" role=""/>
    <member type="way" ref="1313577102" role=""/>
    <member type="way" ref="1012810853" role=""/>
    <member type="way" ref="943701276" role=""/>
    <member type="way" ref="1043802472" role=""/>
    <member type="way" ref="943701276" role=""/>
    <member type="way" ref="182951689" role=""/>
    <member type="way" ref="1115241186" role=""/>
    <member type="way" ref="476147712" role=""/>
    <member type="way" ref="954776975" role=""/>
    <member type="way" ref="954776976" role=""/>
    <member type="way" ref="1151021879" role=""/>
    <member type="way" ref="954776977" role=""/>
    <member type="way" ref="954776978" role=""/>
    <member type="way" ref="954776979" role=""/>
    <member type="way" ref="10084931" role=""/>
    <member type="way" ref="10086230" role=""/>
    <member type="way" ref="1419412026" role=""/>
    <member type="way" ref="182543769" role=""/>
    <member type="way" ref="707968346" role=""/>
    <member type="way" ref="458118479" role=""/>
    <tag k="type" v="route"/>
    <tag k="route" v="bus"/>
    <tag k="public_transport:version" v="2"/>
    <tag k="ref" v="12"/>
    <tag k="operator" v="CVTD Cache Valley Transit District"/>
    <tag k="from" v="83 W Main St, Hyrum"/>
    <tag k="to" v="150 East 500 North - Route 12"/>
    <tag k="gtfs:route_id" v="5738"/>
    <tag k="gtfs:shape_id" v="20937"/>
    <tag k="name" v="Bus 12: Hyrum, Transit Center"/>
    <tag k="colour" v="#DC5331"/>
    <tag k="description" v="Route 12 — Hyrum, Millville, Providence"/>
  </relation>
</osm>
