<?xml version="1.0" encoding="UTF-8"?>
<osm version="0.6" generator="flagstop" upload="true">
  <node id="-1" lat="41.740435" lon="-111.830874" version="0">
    <tag k="highway" v="bus_stop"/>
    <tag k="public_transport" v="platform"/>
    <tag k="bus" v="yes"/>
    <tag k="name" v="150 East 500 North - Route 15"/>
    <tag k="ref" v="1500"/>
    <tag k="gtfs:stop_id" v="7546686"/>
    <tag k="gtfs:stop_code" v="1500"/>
    <tag k="operator" v="Connect Public Transit"/>
    <tag k="network" v="Connect Public Transit"/>
    <tag k="network:wikidata" v="Q129798316"/>
    <tag k="route_ref" v="15"/>
    <tag k="description" v="Intermodal Transit Center"/>
  </node>
  <relation id="-1" version="0">
    <member type="node" ref="-1" role="platform"/>
    <member type="node" ref="11504801874" role="platform"/>
    <member type="node" ref="3756754360" role="platform"/>
    <member type="node" ref="11507014051" role="platform"/>
    <member type="node" ref="2673556850" role="platform"/>
    <member type="node" ref="11507014047" role="platform"/>
    <member type="node" ref="11507014059" role="platform"/>
    <member type="node" ref="11507014062" role="platform"/>
    <member type="node" ref="11504801808" role="platform"/>
    <member type="node" ref="11504801810" role="platform"/>
    <member type="node" ref="11504801812" role="platform"/>
    <member type="node" ref="11504801801" role="platform"/>
    <member type="node" ref="11504801800" role="platform"/>
    <member type="node" ref="11504801797" role="platform"/>
    <member type="node" ref="11504801796" role="platform"/>
    <member type="node" ref="11504801793" role="platform"/>
    <member type="node" ref="11504801791" role="platform"/>
    <member type="node" ref="11504801789" role="platform"/>
    <member type="node" ref="11504801787" role="platform"/>
    <member type="node" ref="11504801784" role="platform"/>
    <member type="node" ref="11504801783" role="platform"/>
    <member type="node" ref="11504801781" role="platform"/>
    <member type="node" ref="11504801779" role="platform"/>
    <member type="node" ref="11504801776" role="platform"/>
    <member type="node" ref="11504801775" role="platform"/>
    <member type="node" ref="11504801772" role="platform"/>
    <member type="node" ref="11504801770" role="platform"/>
    <member type="node" ref="11504801769" role="platform"/>
    <member type="node" ref="11504756767" role="platform"/>
    <member type="node" ref="11504756764" role="platform"/>
    <member type="node" ref="11504756762" role="platform"/>
    <member type="node" ref="11504756761" role="platform"/>
    <member type="node" ref="11504756760" role="platform"/>
    <member type="node" ref="11504756759" role="platform"/>
    <member type="node" ref="11504756758" role="platform"/>
    <member type="node" ref="11504756757" role="platform"/>
    <member type="way" ref="1238471154" role=""/>
    <member type="way" ref="1563597691" role=""/>
    <member type="way" ref="707968348" role=""/>
    <member type="way" ref="1238729870" role=""/>
    <member type="way" ref="372145376" role=""/>
    <member type="way" ref="1098119724" role=""/>
    <member type="way" ref="182952356" role=""/>
    <member type="way" ref="1317024531" role=""/>
    <member type="way" ref="1323881870" role=""/>
    <member type="way" ref="1204294788" role=""/>
    <member type="way" ref="1323881876" role=""/>
    <member type="way" ref="1317024533" role=""/>
    <member type="way" ref="10085289" role=""/>
    <member type="way" ref="186841698" role=""/>
    <member type="way" ref="999581670" role=""/>
    <member type="way" ref="999581672" role=""/>
    <member type="way" ref="105757138" role=""/>
    <member type="way" ref="1109090466" role=""/>
    <member type="way" ref="1109090468" role=""/>
    <member type="way" ref="1556645709" role=""/>
    <member type="way" ref="10086405" role=""/>
    <member type="way" ref="1343222529" role=""/>
    <member type="way" ref="182952354" role=""/>
    <member type="way" ref="1311629921" role=""/>
    <member type="way" ref="1310476486" role=""/>
    <member type="way" ref="1311629920" role=""/>
    <member type="way" ref="1343862005" role=""/>
    <member type="way" ref="1204279029" role=""/>
    <member type="way" ref="1311629919" role=""/>
    <member type="way" ref="1547614186" role=""/>
    <member type="way" ref="1323881875" role=""/>
    <member type="way" ref="1204279032" role=""/>
    <member type="way" ref="1310476481" role=""/>
    <member type="way" ref="105757140" role=""/>
    <member type="way" ref="1204279024" role=""/>
    <member type="way" ref="1204279025" role=""/>
    <member type="way" ref="1204279026" role=""/>
    <member type="way" ref="1204279027" role=""/>
    <member type="way" ref="186841695" role=""/>
    <member type="way" ref="10086361" role=""/>
    <member type="way" ref="186842310" role=""/>
    <member type="way" ref="1424492190" role=""/>
    <member type="way" ref="782815720" role=""/>
    <member type="way" ref="954028956" role=""/>
    <member type="way" ref="1479916716" role=""/>
    <member type="way" ref="954028964" role=""/>
    <member type="way" ref="954028957" role=""/>
    <member type="way" ref="954028963" role=""/>
    <member type="way" ref="10085182" role=""/>
    <member type="way" ref="105757112" role=""/>
    <member type="way" ref="10086023" role=""/>
    <member type="way" ref="943741934" role=""/>
    <member type="way" ref="10085472" role=""/>
    <member type="way" ref="1302588346" role=""/>
    <member type="way" ref="1377503607" role=""/>
    <member type="way" ref="1238952142" role=""/>
    <member type="way" ref="1377503610" role=""/>
    <member type="way" ref="1232069842" role=""/>
    <member type="way" ref="182952358" role=""/>
    <member type="way" ref="1065381360" role=""/>
    <member type="way" ref="1300237154" role=""/>
    <member type="way" ref="943741936" role=""/>
    <member type="way" ref="1307517011" role=""/>
    <member type="way" ref="943741937" role=""/>
    <member type="way" ref="1307958433" role=""/>
    <member type="way" ref="1307750814" role=""/>
    <member type="way" ref="1307750812" role=""/>
    <member type="way" ref="1307958445" role=""/>
    <member type="way" ref="1307958438" role=""/>
    <member type="way" ref="10085181" role=""/>
    <member type="way" ref="1069409564" role=""/>
    <member type="way" ref="1069409565" role=""/>
    <member type="way" ref="1069409566" role=""/>
    <member type="way" ref="1069409567" role=""/>
    <member type="way" ref="1069409568" role=""/>
    <member type="way" ref="943741938" role=""/>
    <member type="way" ref="1442410263" role=""/>
    <member type="way" ref="36941608" role=""/>
    <member type="way" ref="10086250" role=""/>
    <member type="way" ref="943741939" role=""/>
    <member type="way" ref="943741941" role=""/>
    <member type="way" ref="461202803" role=""/>
    <member type="way" ref="10086231" role=""/>
    <member type="way" ref="10084930" role=""/>
    <member type="way" ref="1182295009" role=""/>
    <member type="way" ref="10086237" role=""/>
    <member type="way" ref="1316532509" role=""/>
    <member type="way" ref="10085358" role=""/>
    <member type="way" ref="943741944" role=""/>
    <member type="way" ref="1065381359" role=""/>
    <member type="way" ref="10084657" role=""/>
    <member type="way" ref="10084441" role=""/>
    <member type="way" ref="10083174" role=""/>
    <tag k="type" v="route"/>
    <tag k="route" v="bus"/>
    <tag k="public_transport:version" v="2"/>
    <tag k="ref" v="15"/>
    <tag k="operator" v="Connect Public Transit"/>
    <tag k="from" v="Intermodal Transit Center"/>
    <tag k="to" v="112 West Main St, Richmond"/>
    <tag k="gtfs:route_id" v="5735"/>
    <tag k="gtfs:shape_id" v="19035"/>
    <tag k="network" v="Connect Public Transit"/>
    <tag k="network:wikidata" v="Q129798316"/>
    <tag k="name" v="Bus 15: USU, Smithfield, Richmond"/>
    <tag k="colour" v="#780662"/>
    <tag k="description" v="Route 15 — USU, Smithfield, Richmond"/>
  </relation>
</osm>
