<?xml version="1.0" encoding="UTF-8"?>
<osm version="0.6" generator="flagstop" upload="true">
  <node id="-1" lat="41.919978" lon="-111.814514" version="0">
    <tag k="highway" v="bus_stop"/>
    <tag k="public_transport" v="platform"/>
    <tag k="bus" v="yes"/>
    <tag k="name" v="124 S Hwy 91, Richmond"/>
    <tag k="ref" v="1536"/>
    <tag k="gtfs:stop_id" v="7546693"/>
    <tag k="gtfs:stop_code" v="1536"/>
    <tag k="operator" v="Connect Public Transit"/>
    <tag k="network" v="Connect Public Transit"/>
    <tag k="network:wikidata" v="Q129798316"/>
    <tag k="route_ref" v="15;16 AM;16 PM"/>
    <tag k="description" v="Across from Cherry Creek Dental"/>
  </node>
  <relation id="-1" version="0">
    <member type="node" ref="11504756750" role="platform"/>
    <member type="node" ref="11504756752" role="platform"/>
    <member type="node" ref="11504756753" role="platform"/>
    <member type="node" ref="11507014066" role="platform"/>
    <member type="node" ref="11504756754" role="platform"/>
    <member type="node" ref="-1" role="platform"/>
    <member type="node" ref="11504756765" role="platform"/>
    <member type="node" ref="11504756766" role="platform"/>
    <member type="node" ref="11504756768" role="platform"/>
    <member type="node" ref="11504801782" role="platform"/>
    <member type="node" ref="11504801785" role="platform"/>
    <member type="node" ref="11504801815" role="platform"/>
    <member type="node" ref="11504801817" role="platform"/>
    <member type="node" ref="11504801825" role="platform"/>
    <member type="node" ref="11504801842" role="platform"/>
    <member type="node" ref="11504801849" role="platform"/>
    <member type="node" ref="11504801857" role="platform"/>
    <member type="node" ref="11582265883" role="platform"/>
    <member type="node" ref="11504801874" role="platform"/>
    <member type="node" ref="3756754360" role="platform"/>
    <member type="node" ref="11507014051" role="platform"/>
    <member type="way" ref="943764036" role=""/>
    <member type="way" ref="943764037" role=""/>
    <member type="way" ref="1238990702" role=""/>
    <member type="way" ref="652159577" role=""/>
    <member type="way" ref="1079340716" role=""/>
    <member type="way" ref="1079340714" role=""/>
    <member type="way" ref="1079340715" role=""/>
    <member type="way" ref="1287550606" role=""/>
    <member type="way" ref="1028138220" role=""/>
    <member type="way" ref="1028138221" role=""/>
    <member type="way" ref="218760720" role=""/>
    <member type="way" ref="432576995" role=""/>
    <member type="way" ref="1079340713" role=""/>
    <member type="way" ref="432576996" role=""/>
    <member type="way" ref="1079340712" role=""/>
    <member type="way" ref="13800242" role=""/>
    <member type="way" ref="13812983" role=""/>
    <member type="way" ref="1079340711" role=""/>
    <member type="way" ref="1065381357" role=""/>
    <member type="way" ref="13811757" role=""/>
    <member type="way" ref="1238990708" role=""/>
    <member type="way" ref="1026779620" role=""/>
    <member type="way" ref="1026779621" role=""/>
    <member type="way" ref="10086397" role=""/>
    <member type="way" ref="1026779622" role=""/>
    <member type="way" ref="1238990705" role=""/>
    <member type="way" ref="1238990704" role=""/>
    <member type="way" ref="10086343" role=""/>
    <member type="way" ref="1425352762" role=""/>
    <member type="way" ref="943764034" role=""/>
    <member type="way" ref="10085663" role=""/>
    <member type="way" ref="943764032" role=""/>
    <member type="way" ref="943764031" role=""/>
    <member type="way" ref="1425352762" role=""/>
    <member type="way" ref="10086343" role=""/>
    <member type="way" ref="1238990703" role=""/>
    <member type="way" ref="1238990706" role=""/>
    <member type="way" ref="10085800" role=""/>
    <member type="way" ref="1238990705" role=""/>
    <member type="way" ref="1026779622" role=""/>
    <member type="way" ref="10086397" role=""/>
    <member type="way" ref="1026779621" role=""/>
    <member type="way" ref="1026779620" role=""/>
    <member type="way" ref="10086233" role=""/>
    <member type="way" ref="791209079" role=""/>
    <member type="way" ref="791209078" role=""/>
    <member type="way" ref="1130727207" role=""/>
    <member type="way" ref="1229780871" role=""/>
    <member type="way" ref="1079340709" role=""/>
    <member type="way" ref="1065381358" role=""/>
    <member type="way" ref="943741947" role=""/>
    <member type="way" ref="1065381359" role=""/>
    <member type="way" ref="943741944" role=""/>
    <member type="way" ref="10085358" role=""/>
    <member type="way" ref="1316532509" role=""/>
    <member type="way" ref="10086237" role=""/>
    <member type="way" ref="1182295009" role=""/>
    <member type="way" ref="10084930" role=""/>
    <member type="way" ref="10086231" role=""/>
    <member type="way" ref="943741943" role=""/>
    <member type="way" ref="10084887" role=""/>
    <member type="way" ref="1307517011" role=""/>
    <member type="way" ref="1307517012" role=""/>
    <member type="way" ref="1300237154" role=""/>
    <member type="way" ref="1065381360" role=""/>
    <member type="way" ref="182952358" role=""/>
    <member type="way" ref="943741935" role=""/>
    <member type="way" ref="1300237155" role=""/>
    <member type="way" ref="943688781" role=""/>
    <member type="way" ref="1253670907" role=""/>
    <member type="way" ref="943678570" role=""/>
    <member type="way" ref="1300237156" role=""/>
    <member type="way" ref="1300237157" role=""/>
    <member type="way" ref="1069409558" role=""/>
    <member type="way" ref="1238999366" role=""/>
    <member type="way" ref="182543763" role=""/>
    <member type="way" ref="1419412026" role=""/>
    <member type="way" ref="182543769" role=""/>
    <member type="way" ref="707968346" role=""/>
    <member type="way" ref="458118479" role=""/>
    <member type="way" ref="1238471154" role=""/>
    <member type="way" ref="1563597691" role=""/>
    <member type="way" ref="707968348" role=""/>
    <member type="way" ref="1238729870" role=""/>
    <member type="way" ref="372145376" role=""/>
    <member type="way" ref="1098119724" role=""/>
    <member type="way" ref="182952356" role=""/>
    <member type="way" ref="1317024531" role=""/>
    <member type="way" ref="1323881870" role=""/>
    <member type="way" ref="1204294788" role=""/>
    <member type="way" ref="1323881876" role=""/>
    <member type="way" ref="1317024533" role=""/>
    <member type="way" ref="10085289" role=""/>
    <member type="way" ref="186841698" role=""/>
    <member type="way" ref="999581670" role=""/>
    <member type="way" ref="999581672" role=""/>
    <member type="way" ref="105757138" role=""/>
    <member type="way" ref="1109090466" role=""/>
    <member type="way" ref="1109090468" role=""/>
    <member type="way" ref="1556645709" role=""/>
    <tag k="type" v="route"/>
    <tag k="route" v="bus"/>
    <tag k="public_transport:version" v="2"/>
    <tag k="ref" v="16 AM"/>
    <tag k="operator" v="Connect Public Transit"/>
    <tag k="from" v="Preston"/>
    <tag k="to" v="Distance Ed Bldg"/>
    <tag k="gtfs:route_id" v="5739"/>
    <tag k="gtfs:shape_id" v="27488"/>
    <tag k="network" v="Connect Public Transit"/>
    <tag k="network:wikidata" v="Q129798316"/>
    <tag k="name" v="Bus 16 AM: Southbound"/>
    <tag k="colour" v="#023465"/>
    <tag k="description" v="Route 16 - AM Weekday ONLY — Logan, Lewiston, Preston"/>
  </relation>
</osm>
