<?xml version="1.0" encoding="UTF-8"?>
<osm version="0.6" generator="flagstop" upload="true">
  <node id="-1" lat="41.734926" lon="-111.820124" version="0">
    <tag k="highway" v="bus_stop"/>
    <tag k="public_transport" v="platform"/>
    <tag k="bus" v="yes"/>
    <tag k="name" v="574 East 200 North (Temp Stop)"/>
    <tag k="ref" v="6013"/>
    <tag k="gtfs:stop_id" v="12239355"/>
    <tag k="gtfs:stop_code" v="6013"/>
    <tag k="operator" v="Connect Public Transit"/>
    <tag k="network" v="Connect Public Transit"/>
    <tag k="network:wikidata" v="Q129798316"/>
    <tag k="route_ref" v="3"/>
    <tag k="description" v="Temp Stop"/>
  </node>
  <relation id="-1" version="0">
    <member type="node" ref="3756748842" role="platform"/>
    <member type="node" ref="11504801909" role="platform"/>
    <member type="node" ref="11504801910" role="platform"/>
    <member type="node" ref="11504801913" role="platform"/>
    <member type="node" ref="11504801912" role="platform"/>
    <member type="node" ref="11504801911" role="platform"/>
    <member type="node" ref="11503752126" role="platform"/>
    <member type="node" ref="4643556552" role="platform"/>
    <member type="node" ref="11503752134" role="platform"/>
    <member type="node" ref="11504801915" role="platform"/>
    <member type="node" ref="-1" role="platform"/>
    <member type="node" ref="11503752145" role="platform"/>
    <member type="node" ref="11503752144" role="platform"/>
    <member type="node" ref="11503752136" role="platform"/>
    <member type="node" ref="11503752135" role="platform"/>
    <member type="node" ref="11503752133" role="platform"/>
    <member type="node" ref="11503752131" role="platform"/>
    <member type="node" ref="11503752130" role="platform"/>
    <member type="node" ref="11503752114" role="platform"/>
    <member type="node" ref="11503752128" role="platform"/>
    <member type="node" ref="11504801908" role="platform"/>
    <member type="node" ref="3756748842" role="platform"/>
    <member type="way" ref="182543776" role=""/>
    <member type="way" ref="1238473089" role=""/>
    <member type="way" ref="1563597691" role=""/>
    <member type="way" ref="707968348" role=""/>
    <member type="way" ref="1238729870" role=""/>
    <member type="way" ref="1098119726" role=""/>
    <member type="way" ref="1098119725" role=""/>
    <member type="way" ref="943699887" role=""/>
    <member type="way" ref="182953056" role=""/>
    <member type="way" ref="182953049" role=""/>
    <member type="way" ref="182953057" role=""/>
    <member type="way" ref="182953054" role=""/>
    <member type="way" ref="182953044" role=""/>
    <member type="way" ref="10084207" role=""/>
    <member type="way" ref="1095812519" role=""/>
    <member type="way" ref="1419412031" role=""/>
    <member type="way" ref="10083045" role=""/>
    <member type="way" ref="1419412028" role=""/>
    <member type="way" ref="1085005249" role=""/>
    <member type="way" ref="1085005247" role=""/>
    <member type="way" ref="1238729868" role=""/>
    <member type="way" ref="1442426814" role=""/>
    <member type="way" ref="186842312" role=""/>
    <member type="way" ref="10084223" role=""/>
    <member type="way" ref="10084623" role=""/>
    <member type="way" ref="10084876" role=""/>
    <member type="way" ref="10084243" role=""/>
    <member type="way" ref="1238729869" role=""/>
    <member type="way" ref="186842312" role=""/>
    <member type="way" ref="10085543" role=""/>
    <member type="way" ref="186842302" role=""/>
    <member type="way" ref="687142596" role=""/>
    <member type="way" ref="687142599" role=""/>
    <member type="way" ref="10086024" role=""/>
    <member type="way" ref="1419412029" role=""/>
    <member type="way" ref="1419412028" role=""/>
    <member type="way" ref="10083045" role=""/>
    <member type="way" ref="1419412031" role=""/>
    <member type="way" ref="1419412030" role=""/>
    <member type="way" ref="738331121" role=""/>
    <member type="way" ref="182951684" role=""/>
    <member type="way" ref="1419412025" role=""/>
    <member type="way" ref="1419412024" role=""/>
    <member type="way" ref="182543771" role=""/>
    <member type="way" ref="944576294" role=""/>
    <member type="way" ref="707968346" role=""/>
    <member type="way" ref="182543776" role=""/>
    <tag k="type" v="route"/>
    <tag k="route" v="bus"/>
    <tag k="public_transport:version" v="2"/>
    <tag k="ref" v="3"/>
    <tag k="operator" v="Connect Public Transit"/>
    <tag k="from" v="Intermodal Transit Center"/>
    <tag k="to" v="Intermodal Transit Center"/>
    <tag k="gtfs:route_id" v="5716"/>
    <tag k="gtfs:shape_id" v="31200"/>
    <tag k="network" v="Connect Public Transit"/>
    <tag k="network:wikidata" v="Q129798316"/>
    <tag k="name" v="Bus 3: Route 03"/>
    <tag k="colour" v="#FA0561"/>
    <tag k="description" v="Route 03 — Island, Wilson, Tabernacle"/>
  </relation>
</osm>
