<?xml version="1.0" encoding="UTF-8"?>
<osm version="0.6" generator="flagstop" upload="true">
  <node id="-1" lat="41.719811" lon="-111.835184" version="0">
    <tag k="highway" v="bus_stop"/>
    <tag k="public_transport" v="platform"/>
    <tag k="bus" v="yes"/>
    <tag k="name" v="670 South Main St"/>
    <tag k="ref" v="1243"/>
    <tag k="gtfs:stop_id" v="7547688"/>
    <tag k="gtfs:stop_code" v="1243"/>
    <tag k="operator" v="Connect Public Transit"/>
    <tag k="network" v="Connect Public Transit"/>
    <tag k="network:wikidata" v="Q129798316"/>
    <tag k="route_ref" v="B;G;12"/>
    <tag k="description" v="The Riverwoods"/>
  </node>
  <node id="-2" lat="41.743430" lon="-111.804256" version="0">
    <tag k="highway" v="bus_stop"/>
    <tag k="public_transport" v="platform"/>
    <tag k="bus" v="yes"/>
    <tag k="name" v="650 North 1200 East"/>
    <tag k="ref" v="2023"/>
    <tag k="gtfs:stop_id" v="7606916"/>
    <tag k="gtfs:stop_code" v="2023"/>
    <tag k="operator" v="Connect Public Transit"/>
    <tag k="network" v="Connect Public Transit"/>
    <tag k="network:wikidata" v="Q129798316"/>
    <tag k="route_ref" v="B"/>
    <tag k="description" v="Across from Fine Arts Building"/>
  </node>
  <node id="-3" lat="41.740352" lon="-111.830816" version="0">
    <tag k="highway" v="bus_stop"/>
    <tag k="public_transport" v="platform"/>
    <tag k="bus" v="yes"/>
    <tag k="name" v="150 East 442 North"/>
    <tag k="ref" v="2000"/>
    <tag k="gtfs:stop_id" v="7606926"/>
    <tag k="gtfs:stop_code" v="2000"/>
    <tag k="operator" v="Connect Public Transit"/>
    <tag k="network" v="Connect Public Transit"/>
    <tag k="network:wikidata" v="Q129798316"/>
    <tag k="route_ref" v="B"/>
    <tag k="description" v="Intermodal Transit Center"/>
  </node>
  <relation id="-1" version="0">
    <member type="node" ref="11503752125" role="platform"/>
    <member type="node" ref="11503752112" role="platform"/>
    <member type="node" ref="11503752110" role="platform"/>
    <member type="node" ref="11503983297" role="platform"/>
    <member type="node" ref="11503983295" role="platform"/>
    <member type="node" ref="11503983296" role="platform"/>
    <member type="node" ref="11503983298" role="platform"/>
    <member type="node" ref="-1" role="platform"/>
    <member type="node" ref="11503752111" role="platform"/>
    <member type="node" ref="3756754358" role="platform"/>
    <member type="node" ref="11504801898" role="platform"/>
    <member type="node" ref="11503752153" role="platform"/>
    <member type="node" ref="11503752150" role="platform"/>
    <member type="node" ref="11503752149" role="platform"/>
    <member type="node" ref="-2" role="platform"/>
    <member type="node" ref="3756748835" role="platform"/>
    <member type="node" ref="11507014052" role="platform"/>
    <member type="node" ref="11507014043" role="platform"/>
    <member type="node" ref="11504801865" role="platform"/>
    <member type="node" ref="11504801867" role="platform"/>
    <member type="node" ref="11504801868" role="platform"/>
    <member type="node" ref="11504801871" role="platform"/>
    <member type="node" ref="11504801872" role="platform"/>
    <member type="node" ref="11504801873" role="platform"/>
    <member type="node" ref="-3" role="platform"/>
    <member type="node" ref="11504801856" role="platform"/>
    <member type="node" ref="11504801848" role="platform"/>
    <member type="node" ref="11504801843" role="platform"/>
    <member type="node" ref="11504801831" role="platform"/>
    <member type="node" ref="11504801828" role="platform"/>
    <member type="node" ref="11504801842" role="platform"/>
    <member type="node" ref="11504801849" role="platform"/>
    <member type="node" ref="11504801857" role="platform"/>
    <member type="node" ref="11504801897" role="platform"/>
    <member type="node" ref="11503752125" role="platform"/>
    <member type="way" ref="1115241186" role=""/>
    <member type="way" ref="182951689" role=""/>
    <member type="way" ref="943701276" role=""/>
    <member type="way" ref="1012810853" role=""/>
    <member type="way" ref="1313577102" role=""/>
    <member type="way" ref="1043802457" role=""/>
    <member type="way" ref="119006822" role=""/>
    <member type="way" ref="1339864558" role=""/>
    <member type="way" ref="1002818970" role=""/>
    <member type="way" ref="1100702909" role=""/>
    <member type="way" ref="943678569" role=""/>
    <member type="way" ref="1085936749" role=""/>
    <member type="way" ref="1085936748" role=""/>
    <member type="way" ref="10085582" role=""/>
    <member type="way" ref="454043213" role=""/>
    <member type="way" ref="1120393839" role=""/>
    <member type="way" ref="943712981" role=""/>
    <member type="way" ref="1098680614" role=""/>
    <member type="way" ref="1098680616" role=""/>
    <member type="way" ref="943712980" role=""/>
    <member type="way" ref="1120393838" role=""/>
    <member type="way" ref="454043213" role=""/>
    <member type="way" ref="10085582" role=""/>
    <member type="way" ref="1085936748" role=""/>
    <member type="way" ref="1085936749" role=""/>
    <member type="way" ref="943678569" role=""/>
    <member type="way" ref="1100702909" role=""/>
    <member type="way" ref="1002818970" role=""/>
    <member type="way" ref="1339864560" role=""/>
    <member type="way" ref="1339864559" role=""/>
    <member type="way" ref="1043802457" role=""/>
    <member type="way" ref="1313577102" role=""/>
    <member type="way" ref="1012810853" role=""/>
    <member type="way" ref="943701276" role=""/>
    <member type="way" ref="182951689" role=""/>
    <member type="way" ref="1115241186" role=""/>
    <member type="way" ref="476147712" role=""/>
    <member type="way" ref="954776975" role=""/>
    <member type="way" ref="954776976" role=""/>
    <member type="way" ref="954776977" role=""/>
    <member type="way" ref="954776978" role=""/>
    <member type="way" ref="954776979" role=""/>
    <member type="way" ref="10084931" role=""/>
    <member type="way" ref="954776980" role=""/>
    <member type="way" ref="954776981" role=""/>
    <member type="way" ref="954776982" role=""/>
    <member type="way" ref="182543766" role=""/>
    <member type="way" ref="954776983" role=""/>
    <member type="way" ref="954776984" role=""/>
    <member type="way" ref="182952350" role=""/>
    <member type="way" ref="954776985" role=""/>
    <member type="way" ref="943699886" role=""/>
    <member type="way" ref="954776986" role=""/>
    <member type="way" ref="954776987" role=""/>
    <member type="way" ref="954776988" role=""/>
    <member type="way" ref="954776989" role=""/>
    <member type="way" ref="954776990" role=""/>
    <member type="way" ref="954776991" role=""/>
    <member type="way" ref="954776992" role=""/>
    <member type="way" ref="954776993" role=""/>
    <member type="way" ref="954776995" role=""/>
    <member type="way" ref="954776996" role=""/>
    <member type="way" ref="954777000" role=""/>
    <member type="way" ref="1103018269" role=""/>
    <member type="way" ref="1313118239" role=""/>
    <member type="way" ref="954778601" role=""/>
    <member type="way" ref="1315123509" role=""/>
    <member type="way" ref="954778602" role=""/>
    <member type="way" ref="954778604" role=""/>
    <member type="way" ref="954778605" role=""/>
    <member type="way" ref="182952353" role=""/>
    <member type="way" ref="10083026" role=""/>
    <member type="way" ref="10086405" role=""/>
    <member type="way" ref="1556645709" role=""/>
    <member type="way" ref="1109090467" role=""/>
    <member type="way" ref="1204297831" role=""/>
    <member type="way" ref="1204297830" role=""/>
    <member type="way" ref="1109090466" role=""/>
    <member type="way" ref="105757122" role=""/>
    <member type="way" ref="1338131549" role=""/>
    <member type="way" ref="10080041" role=""/>
    <member type="way" ref="36859654" role=""/>
    <member type="way" ref="1342737416" role=""/>
    <member type="way" ref="738588369" role=""/>
    <member type="way" ref="1394211238" role=""/>
    <member type="way" ref="1317024530" role=""/>
    <member type="way" ref="182952356" role=""/>
    <member type="way" ref="1098119723" role=""/>
    <member type="way" ref="1394211237" role=""/>
    <member type="way" ref="1238473087" role=""/>
    <member type="way" ref="707968350" role=""/>
    <member type="way" ref="1238473088" role=""/>
    <member type="way" ref="738329670" role=""/>
    <member type="way" ref="1238729870" role=""/>
    <member type="way" ref="1098119726" role=""/>
    <member type="way" ref="1098119725" role=""/>
    <member type="way" ref="944576292" role=""/>
    <member type="way" ref="1239000517" role=""/>
    <member type="way" ref="944576294" role=""/>
    <member type="way" ref="182543769" role=""/>
    <member type="way" ref="1419412026" role=""/>
    <member type="way" ref="182543763" role=""/>
    <member type="way" ref="1238999366" role=""/>
    <member type="way" ref="1057232308" role=""/>
    <member type="way" ref="182952368" role=""/>
    <member type="way" ref="1229542420" role=""/>
    <member type="way" ref="369164998" role=""/>
    <member type="way" ref="10084501" role=""/>
    <member type="way" ref="32134944" role=""/>
    <member type="way" ref="1300237157" role=""/>
    <member type="way" ref="1069409558" role=""/>
    <member type="way" ref="1238999366" role=""/>
    <member type="way" ref="182543763" role=""/>
    <member type="way" ref="10086230" role=""/>
    <member type="way" ref="10084931" role=""/>
    <member type="way" ref="954776979" role=""/>
    <member type="way" ref="954776978" role=""/>
    <member type="way" ref="954776977" role=""/>
    <member type="way" ref="954776976" role=""/>
    <member type="way" ref="954776975" role=""/>
    <member type="way" ref="476147712" role=""/>
    <member type="way" ref="1115241186" role=""/>
    <tag k="type" v="route"/>
    <tag k="route" v="bus"/>
    <tag k="public_transport:version" v="2"/>
    <tag k="ref" v="B"/>
    <tag k="operator" v="Connect Public Transit"/>
    <tag k="from" v="City Center"/>
    <tag k="to" v="City Center"/>
    <tag k="gtfs:route_id" v="5723"/>
    <tag k="gtfs:shape_id" v="32000"/>
    <tag k="roundtrip" v="yes"/>
    <tag k="network" v="Connect Public Transit"/>
    <tag k="network:wikidata" v="Q129798316"/>
    <tag k="name" v="Bus B: LOOP - Blue"/>
    <tag k="colour" v="#5BB6EB"/>
    <tag k="description" v="LOOP - Blue — Blue Loop - Main St, USU"/>
  </relation>
</osm>
