<?xml version="1.0" encoding="UTF-8"?>
<osm version="0.6" generator="flagstop" upload="true">
  <node id="-1" lat="41.705012" lon="-111.856266" version="0">
    <tag k="highway" v="bus_stop"/>
    <tag k="public_transport" v="platform"/>
    <tag k="bus" v="yes"/>
    <tag k="name" v="850 West 1600 South"/>
    <tag k="ref" v="1111"/>
    <tag k="gtfs:stop_id" v="9607861"/>
    <tag k="gtfs:stop_code" v="1111"/>
    <tag k="operator" v="CVTD Cache Valley Transit District"/>
    <tag k="route_ref" v="11"/>
    <tag k="description" v="IFIT"/>
  </node>
  <relation id="-1" version="0">
    <member type="node" ref="11582265883" role="platform"/>
    <member type="node" ref="11503752126" role="platform"/>
    <member type="node" ref="11503752113" role="platform"/>
    <member type="node" ref="11503983330" role="platform"/>
    <member type="node" ref="11503983329" role="platform"/>
    <member type="node" ref="11503983327" role="platform"/>
    <member type="node" ref="11503983296" role="platform"/>
    <member type="node" ref="11503983291" role="platform"/>
    <member type="node" ref="11503983288" role="platform"/>
    <member type="node" ref="11503983286" role="platform"/>
    <member type="node" ref="11503983284" role="platform"/>
    <member type="node" ref="-1" role="platform"/>
    <member type="node" ref="11503983282" role="platform"/>
    <member type="node" ref="11503983279" role="platform"/>
    <member type="node" ref="11503983277" role="platform"/>
    <member type="node" ref="11503983276" role="platform"/>
    <member type="node" ref="11503983278" role="platform"/>
    <member type="node" ref="11503929844" role="platform"/>
    <member type="node" ref="11503929845" role="platform"/>
    <member type="node" ref="11503929847" role="platform"/>
    <member type="node" ref="11503929849" role="platform"/>
    <member type="node" ref="11503929850" role="platform"/>
    <member type="node" ref="11503929851" role="platform"/>
    <member type="node" ref="11503929855" role="platform"/>
    <member type="way" ref="458118479" role=""/>
    <member type="way" ref="182543776" role=""/>
    <member type="way" ref="1238473089" role=""/>
    <member type="way" ref="707968348" role=""/>
    <member type="way" ref="1238729870" role=""/>
    <member type="way" ref="1098119726" role=""/>
    <member type="way" ref="1098119725" role=""/>
    <member type="way" ref="943699887" role=""/>
    <member type="way" ref="182953056" role=""/>
    <member type="way" ref="182953047" role=""/>
    <member type="way" ref="1245878826" role=""/>
    <member type="way" ref="1245878827" role=""/>
    <member type="way" ref="1245878828" role=""/>
    <member type="way" ref="1245878832" role=""/>
    <member type="way" ref="738331121" role=""/>
    <member type="way" ref="1419412030" role=""/>
    <member type="way" ref="1419412031" role=""/>
    <member type="way" ref="10083045" role=""/>
    <member type="way" ref="1419412028" role=""/>
    <member type="way" ref="1419412029" role=""/>
    <member type="way" ref="10086024" role=""/>
    <member type="way" ref="687142599" role=""/>
    <member type="way" ref="687142596" role=""/>
    <member type="way" ref="186842301" role=""/>
    <member type="way" ref="464939238" role=""/>
    <member type="way" ref="1102256906" role=""/>
    <member type="way" ref="10080034" role=""/>
    <member type="way" ref="1120393835" role=""/>
    <member type="way" ref="454043207" role=""/>
    <member type="way" ref="1120393834" role=""/>
    <member type="way" ref="1098680616" role=""/>
    <member type="way" ref="943712980" role=""/>
    <member type="way" ref="1120393838" role=""/>
    <member type="way" ref="454043213" role=""/>
    <member type="way" ref="10085582" role=""/>
    <member type="way" ref="1085936748" role=""/>
    <member type="way" ref="1085936747" role=""/>
    <member type="way" ref="10085000" role=""/>
    <member type="way" ref="943712982" role=""/>
    <member type="way" ref="1442446238" role=""/>
    <member type="way" ref="943712983" role=""/>
    <member type="way" ref="10082834" role=""/>
    <member type="way" ref="351716579" role=""/>
    <member type="way" ref="351716578" role=""/>
    <member type="way" ref="943712984" role=""/>
    <member type="way" ref="351716599" role=""/>
    <member type="way" ref="351716598" role=""/>
    <member type="way" ref="1207032109" role=""/>
    <member type="way" ref="10080078" role=""/>
    <member type="way" ref="10084726" role=""/>
    <member type="way" ref="10083920" role=""/>
    <member type="way" ref="739888827" role=""/>
    <member type="way" ref="10083920" role=""/>
    <member type="way" ref="782815706" role=""/>
    <member type="way" ref="10084917" role=""/>
    <member type="way" ref="1017470653" role=""/>
    <member type="way" ref="943712987" role=""/>
    <member type="way" ref="1304914594" role=""/>
    <member type="way" ref="1493439250" role=""/>
    <member type="way" ref="1442335304" role=""/>
    <member type="way" ref="943712989" role=""/>
    <member type="way" ref="1238948421" role=""/>
    <member type="way" ref="232398423" role=""/>
    <member type="way" ref="232398416" role=""/>
    <member type="way" ref="232398427" role=""/>
    <member type="way" ref="943712991" role=""/>
    <member type="way" ref="232398428" role=""/>
    <member type="way" ref="943712989" role=""/>
    <member type="way" ref="1493439822" role=""/>
    <member type="way" ref="1304914594" role=""/>
    <member type="way" ref="943712987" role=""/>
    <member type="way" ref="879077181" role=""/>
    <member type="way" ref="1311567118" role=""/>
    <member type="way" ref="1458540854" role=""/>
    <member type="way" ref="10083761" role=""/>
    <member type="way" ref="943713002" role=""/>
    <member type="way" ref="943712997" role=""/>
    <member type="way" ref="943712999" role=""/>
    <member type="way" ref="1188059623" role=""/>
    <member type="way" ref="10086313" role=""/>
    <member type="way" ref="10083808" role=""/>
    <tag k="type" v="route"/>
    <tag k="route" v="bus"/>
    <tag k="public_transport:version" v="2"/>
    <tag k="ref" v="11"/>
    <tag k="operator" v="CVTD Cache Valley Transit District"/>
    <tag k="from" v="150 East 500 North - Route 11 &amp; 16"/>
    <tag k="to" v="3155 South 500 West"/>
    <tag k="gtfs:route_id" v="5731"/>
    <tag k="gtfs:shape_id" v="30386"/>
    <tag k="name" v="Bus 11: Southbound"/>
    <tag k="colour" v="#066A40"/>
    <tag k="description" v="Route 11 — Nibley, SW Logan, DLD"/>
  </relation>
</osm>
