<?xml version="1.0" encoding="UTF-8"?>
<osm version="0.6" generator="flagstop" upload="true">
  <node id="-1" lat="41.740562" lon="-111.830728" version="0">
    <tag k="highway" v="bus_stop"/>
    <tag k="public_transport" v="platform"/>
    <tag k="bus" v="yes"/>
    <tag k="name" v="150 East 500 North - Route 9"/>
    <tag k="ref" v="900"/>
    <tag k="gtfs:stop_id" v="7568044"/>
    <tag k="gtfs:stop_code" v="900"/>
    <tag k="operator" v="CVTD Cache Valley Transit District"/>
    <tag k="route_ref" v="1;9"/>
    <tag k="description" v="Intermodal Transit Center"/>
  </node>
  <node id="-2" lat="41.748832" lon="-111.839394" version="0">
    <tag k="highway" v="bus_stop"/>
    <tag k="public_transport" v="platform"/>
    <tag k="bus" v="yes"/>
    <tag k="name" v="928 North 200 West"/>
    <tag k="ref" v="904"/>
    <tag k="gtfs:stop_id" v="7568633"/>
    <tag k="gtfs:stop_code" v="904"/>
    <tag k="operator" v="CVTD Cache Valley Transit District"/>
    <tag k="route_ref" v="9"/>
    <tag k="description" v="Kubex"/>
  </node>
  <node id="-3" lat="41.749329" lon="-111.839488" version="0">
    <tag k="highway" v="bus_stop"/>
    <tag k="public_transport" v="platform"/>
    <tag k="bus" v="yes"/>
    <tag k="name" v="987 North 200 West"/>
    <tag k="ref" v="917"/>
    <tag k="gtfs:stop_id" v="7568626"/>
    <tag k="gtfs:stop_code" v="917"/>
    <tag k="operator" v="CVTD Cache Valley Transit District"/>
    <tag k="route_ref" v="9"/>
    <tag k="description" v="Canal Bridge"/>
  </node>
  <node id="-4" lat="41.743646" lon="-111.839890" version="0">
    <tag k="highway" v="bus_stop"/>
    <tag k="public_transport" v="platform"/>
    <tag k="bus" v="yes"/>
    <tag k="name" v="649 North 200 West"/>
    <tag k="ref" v="918"/>
    <tag k="gtfs:stop_id" v="11053147"/>
    <tag k="gtfs:stop_code" v="918"/>
    <tag k="operator" v="CVTD Cache Valley Transit District"/>
    <tag k="route_ref" v="9"/>
    <tag k="description" v="649 North 200 West"/>
  </node>
  <node id="-5" lat="41.740475" lon="-111.830729" version="0">
    <tag k="highway" v="bus_stop"/>
    <tag k="public_transport" v="platform"/>
    <tag k="bus" v="yes"/>
    <tag k="name" v="150 East 500 North - Route 1"/>
    <tag k="ref" v="100"/>
    <tag k="gtfs:stop_id" v="7503601"/>
    <tag k="gtfs:stop_code" v="100"/>
    <tag k="operator" v="CVTD Cache Valley Transit District"/>
    <tag k="route_ref" v="1;9"/>
    <tag k="description" v="Intermodal Transit Center"/>
  </node>
  <relation id="-1" version="0">
    <member type="node" ref="-1" role="platform"/>
    <member type="node" ref="11504801877" role="platform"/>
    <member type="node" ref="11504801876" role="platform"/>
    <member type="node" ref="11504801855" role="platform"/>
    <member type="node" ref="-2" role="platform"/>
    <member type="node" ref="11504801847" role="platform"/>
    <member type="node" ref="11504801845" role="platform"/>
    <member type="node" ref="11504801833" role="platform"/>
    <member type="node" ref="11504801834" role="platform"/>
    <member type="node" ref="11504801879" role="platform"/>
    <member type="node" ref="11504801821" role="platform"/>
    <member type="node" ref="11504801822" role="platform"/>
    <member type="node" ref="11504801823" role="platform"/>
    <member type="node" ref="11504801824" role="platform"/>
    <member type="node" ref="11504801832" role="platform"/>
    <member type="node" ref="11504801844" role="platform"/>
    <member type="node" ref="11504801846" role="platform"/>
    <member type="node" ref="-3" role="platform"/>
    <member type="node" ref="-4" role="platform"/>
    <member type="node" ref="11504801878" role="platform"/>
    <member type="node" ref="-5" role="platform"/>
    <member type="way" ref="1238471154" role=""/>
    <member type="way" ref="458118479" role=""/>
    <member type="way" ref="707968346" role=""/>
    <member type="way" ref="182543769" role=""/>
    <member type="way" ref="1419412026" role=""/>
    <member type="way" ref="1419412027" role=""/>
    <member type="way" ref="10085619" role=""/>
    <member type="way" ref="182545466" role=""/>
    <member type="way" ref="1310485990" role=""/>
    <member type="way" ref="1310485989" role=""/>
    <member type="way" ref="1239926851" role=""/>
    <member type="way" ref="182545463" role=""/>
    <member type="way" ref="182543782" role=""/>
    <member type="way" ref="182545467" role=""/>
    <member type="way" ref="182545468" role=""/>
    <member type="way" ref="1239926852" role=""/>
    <member type="way" ref="1239926851" role=""/>
    <member type="way" ref="1310485989" role=""/>
    <member type="way" ref="1310485990" role=""/>
    <member type="way" ref="182545466" role=""/>
    <member type="way" ref="10085619" role=""/>
    <member type="way" ref="1419412027" role=""/>
    <member type="way" ref="1419412026" role=""/>
    <member type="way" ref="182543769" role=""/>
    <member type="way" ref="707968346" role=""/>
    <member type="way" ref="458118479" role=""/>
    <member type="way" ref="1238471154" role=""/>
    <tag k="type" v="route"/>
    <tag k="route" v="bus"/>
    <tag k="public_transport:version" v="2"/>
    <tag k="ref" v="9"/>
    <tag k="operator" v="CVTD Cache Valley Transit District"/>
    <tag k="from" v="150 East 500 North - Route 9"/>
    <tag k="to" v="150 East 500 North - Route 1"/>
    <tag k="gtfs:route_id" v="5743"/>
    <tag k="gtfs:shape_id" v="28204"/>
    <tag k="name" v="Bus 9: Route 09"/>
    <tag k="colour" v="#05674E"/>
    <tag k="description" v="Route 09 — Bridger, DI, Family Place"/>
  </relation>
</osm>
