<?xml version="1.0" encoding="UTF-8"?>
<osm version="0.6" generator="flagstop" upload="true">
  <node id="-1" lat="41.919978" lon="-111.814514" version="0">
    <tag k="highway" v="bus_stop"/>
    <tag k="public_transport" v="platform"/>
    <tag k="bus" v="yes"/>
    <tag k="name" v="124 S Hwy 91, Richmond"/>
    <tag k="ref" v="1536"/>
    <tag k="gtfs:stop_id" v="7546693"/>
    <tag k="gtfs:stop_code" v="1536"/>
    <tag k="operator" v="Connect Public Transit"/>
    <tag k="network" v="Connect Public Transit"/>
    <tag k="network:wikidata" v="Q129798316"/>
    <tag k="route_ref" v="15;16 AM;16 PM"/>
    <tag k="description" v="Across from Cherry Creek Dental"/>
  </node>
  <node id="-2" lat="41.823974" lon="-111.831417" version="0">
    <tag k="highway" v="bus_stop"/>
    <tag k="public_transport" v="platform"/>
    <tag k="bus" v="yes"/>
    <tag k="name" v="54 East 600 South, Smithfield"/>
    <tag k="ref" v="1545"/>
    <tag k="gtfs:stop_id" v="7599819"/>
    <tag k="gtfs:stop_code" v="1545"/>
    <tag k="operator" v="Connect Public Transit"/>
    <tag k="network" v="Connect Public Transit"/>
    <tag k="network:wikidata" v="Q129798316"/>
    <tag k="route_ref" v="15"/>
    <tag k="description" v="Smithfield Station Townhomes"/>
  </node>
  <node id="-3" lat="41.740435" lon="-111.830874" version="0">
    <tag k="highway" v="bus_stop"/>
    <tag k="public_transport" v="platform"/>
    <tag k="bus" v="yes"/>
    <tag k="name" v="150 East 500 North - Route 15"/>
    <tag k="ref" v="1500"/>
    <tag k="gtfs:stop_id" v="7546686"/>
    <tag k="gtfs:stop_code" v="1500"/>
    <tag k="operator" v="Connect Public Transit"/>
    <tag k="network" v="Connect Public Transit"/>
    <tag k="network:wikidata" v="Q129798316"/>
    <tag k="route_ref" v="15"/>
    <tag k="description" v="Intermodal Transit Center"/>
  </node>
  <relation id="-1" version="0">
    <member type="node" ref="11504756757" role="platform"/>
    <member type="node" ref="-1" role="platform"/>
    <member type="node" ref="11504756765" role="platform"/>
    <member type="node" ref="11504756766" role="platform"/>
    <member type="node" ref="11504756768" role="platform"/>
    <member type="node" ref="11504801771" role="platform"/>
    <member type="node" ref="11504801773" role="platform"/>
    <member type="node" ref="11504801774" role="platform"/>
    <member type="node" ref="11504801777" role="platform"/>
    <member type="node" ref="11504801778" role="platform"/>
    <member type="node" ref="-2" role="platform"/>
    <member type="node" ref="11504801782" role="platform"/>
    <member type="node" ref="11504801788" role="platform"/>
    <member type="node" ref="11504801790" role="platform"/>
    <member type="node" ref="11504801792" role="platform"/>
    <member type="node" ref="11504801794" role="platform"/>
    <member type="node" ref="11504801795" role="platform"/>
    <member type="node" ref="11504801798" role="platform"/>
    <member type="node" ref="11504801799" role="platform"/>
    <member type="node" ref="11504801802" role="platform"/>
    <member type="node" ref="11504801813" role="platform"/>
    <member type="node" ref="11504801811" role="platform"/>
    <member type="node" ref="11504801809" role="platform"/>
    <member type="node" ref="11507014061" role="platform"/>
    <member type="node" ref="11507014060" role="platform"/>
    <member type="node" ref="11507014046" role="platform"/>
    <member type="node" ref="11507014050" role="platform"/>
    <member type="node" ref="3756748835" role="platform"/>
    <member type="node" ref="11507014052" role="platform"/>
    <member type="node" ref="11504801872" role="platform"/>
    <member type="node" ref="11504801873" role="platform"/>
    <member type="node" ref="-3" role="platform"/>
    <member type="way" ref="10083174" role=""/>
    <member type="way" ref="943741947" role=""/>
    <member type="way" ref="1065381359" role=""/>
    <member type="way" ref="943741944" role=""/>
    <member type="way" ref="10085358" role=""/>
    <member type="way" ref="1316532509" role=""/>
    <member type="way" ref="10086237" role=""/>
    <member type="way" ref="1182295009" role=""/>
    <member type="way" ref="10084930" role=""/>
    <member type="way" ref="10086231" role=""/>
    <member type="way" ref="461202803" role=""/>
    <member type="way" ref="943741941" role=""/>
    <member type="way" ref="943741939" role=""/>
    <member type="way" ref="10086250" role=""/>
    <member type="way" ref="36941608" role=""/>
    <member type="way" ref="1442410263" role=""/>
    <member type="way" ref="943741938" role=""/>
    <member type="way" ref="1069409568" role=""/>
    <member type="way" ref="1069409567" role=""/>
    <member type="way" ref="1069409566" role=""/>
    <member type="way" ref="1069409565" role=""/>
    <member type="way" ref="1069409564" role=""/>
    <member type="way" ref="10085181" role=""/>
    <member type="way" ref="1307958437" role=""/>
    <member type="way" ref="1306643440" role=""/>
    <member type="way" ref="1307958434" role=""/>
    <member type="way" ref="943741937" role=""/>
    <member type="way" ref="1307517011" role=""/>
    <member type="way" ref="1307517012" role=""/>
    <member type="way" ref="1300237154" role=""/>
    <member type="way" ref="1065381360" role=""/>
    <member type="way" ref="182952358" role=""/>
    <member type="way" ref="1232069842" role=""/>
    <member type="way" ref="1377503609" role=""/>
    <member type="way" ref="1232069843" role=""/>
    <member type="way" ref="1377503608" role=""/>
    <member type="way" ref="1302588346" role=""/>
    <member type="way" ref="10085472" role=""/>
    <member type="way" ref="943741934" role=""/>
    <member type="way" ref="10086023" role=""/>
    <member type="way" ref="105757112" role=""/>
    <member type="way" ref="10085182" role=""/>
    <member type="way" ref="954028962" role=""/>
    <member type="way" ref="954033546" role=""/>
    <member type="way" ref="954028965" role=""/>
    <member type="way" ref="1479916716" role=""/>
    <member type="way" ref="954028956" role=""/>
    <member type="way" ref="782815720" role=""/>
    <member type="way" ref="1424492190" role=""/>
    <member type="way" ref="186842310" role=""/>
    <member type="way" ref="10086361" role=""/>
    <member type="way" ref="186841695" role=""/>
    <member type="way" ref="1204279027" role=""/>
    <member type="way" ref="1204279026" role=""/>
    <member type="way" ref="1204279025" role=""/>
    <member type="way" ref="1204279024" role=""/>
    <member type="way" ref="105757140" role=""/>
    <member type="way" ref="1284136761" role=""/>
    <member type="way" ref="457940920" role=""/>
    <member type="way" ref="1204279011" role=""/>
    <member type="way" ref="457940915" role=""/>
    <member type="way" ref="10084796" role=""/>
    <member type="way" ref="1204279029" role=""/>
    <member type="way" ref="1343862005" role=""/>
    <member type="way" ref="1310476489" role=""/>
    <member type="way" ref="1335819005" role=""/>
    <member type="way" ref="1335819006" role=""/>
    <member type="way" ref="1335819007" role=""/>
    <member type="way" ref="1310476488" role=""/>
    <member type="way" ref="182952354" role=""/>
    <member type="way" ref="1343222529" role=""/>
    <member type="way" ref="10086405" role=""/>
    <member type="way" ref="1556645709" role=""/>
    <member type="way" ref="1109090467" role=""/>
    <member type="way" ref="1204297831" role=""/>
    <member type="way" ref="1204297830" role=""/>
    <member type="way" ref="1109090466" role=""/>
    <member type="way" ref="105757138" role=""/>
    <member type="way" ref="1094689405" role=""/>
    <member type="way" ref="999581671" role=""/>
    <member type="way" ref="186841698" role=""/>
    <member type="way" ref="10085289" role=""/>
    <member type="way" ref="1317024532" role=""/>
    <member type="way" ref="1394211239" role=""/>
    <member type="way" ref="707968347" role=""/>
    <member type="way" ref="738588369" role=""/>
    <member type="way" ref="1394211238" role=""/>
    <member type="way" ref="1317024530" role=""/>
    <member type="way" ref="182952356" role=""/>
    <member type="way" ref="1098119723" role=""/>
    <member type="way" ref="1394211237" role=""/>
    <member type="way" ref="1238473087" role=""/>
    <member type="way" ref="707968350" role=""/>
    <member type="way" ref="1238473088" role=""/>
    <member type="way" ref="1394211236" role=""/>
    <member type="way" ref="1098119728" role=""/>
    <member type="way" ref="1563597691" role=""/>
    <member type="way" ref="1238473089" role=""/>
    <member type="way" ref="182543776" role=""/>
    <member type="way" ref="458118479" role=""/>
    <tag k="type" v="route"/>
    <tag k="route" v="bus"/>
    <tag k="public_transport:version" v="2"/>
    <tag k="ref" v="15"/>
    <tag k="operator" v="Connect Public Transit"/>
    <tag k="from" v="112 West Main St, Richmond"/>
    <tag k="to" v="Intermodal Transit Center"/>
    <tag k="gtfs:route_id" v="5735"/>
    <tag k="gtfs:shape_id" v="19036"/>
    <tag k="network" v="Connect Public Transit"/>
    <tag k="network:wikidata" v="Q129798316"/>
    <tag k="name" v="Bus 15: ROUTE 15 INBOUND"/>
    <tag k="colour" v="#780662"/>
    <tag k="description" v="Route 15 — USU, Smithfield, Richmond"/>
  </relation>
</osm>
