<?xml version="1.0" encoding="UTF-8"?>
<osm version="0.6" generator="flagstop" upload="true">
  <node id="-1" lat="41.740812" lon="-111.830808" version="0">
    <tag k="highway" v="bus_stop"/>
    <tag k="public_transport" v="platform"/>
    <tag k="bus" v="yes"/>
    <tag k="name" v="150 East 500 North"/>
    <tag k="ref" v="2050"/>
    <tag k="gtfs:stop_id" v="7573958"/>
    <tag k="gtfs:stop_code" v="2050"/>
    <tag k="operator" v="Connect Public Transit"/>
    <tag k="network" v="Connect Public Transit"/>
    <tag k="network:wikidata" v="Q129798316"/>
    <tag k="route_ref" v="G"/>
    <tag k="description" v="Intermodal Transit Center"/>
  </node>
  <node id="-2" lat="41.743435" lon="-111.804327" version="0">
    <tag k="highway" v="bus_stop"/>
    <tag k="public_transport" v="platform"/>
    <tag k="bus" v="yes"/>
    <tag k="name" v="665 North 1200 East"/>
    <tag k="ref" v="2059"/>
    <tag k="gtfs:stop_id" v="7606950"/>
    <tag k="gtfs:stop_code" v="2059"/>
    <tag k="operator" v="Connect Public Transit"/>
    <tag k="network" v="Connect Public Transit"/>
    <tag k="network:wikidata" v="Q129798316"/>
    <tag k="route_ref" v="G"/>
    <tag k="description" v="Fine Arts Building"/>
  </node>
  <node id="-3" lat="41.739992" lon="-111.811265" version="0">
    <tag k="highway" v="bus_stop"/>
    <tag k="public_transport" v="platform"/>
    <tag k="bus" v="yes"/>
    <tag k="name" v="400 North 900 East"/>
    <tag k="ref" v="2060"/>
    <tag k="gtfs:stop_id" v="7606951"/>
    <tag k="gtfs:stop_code" v="2060"/>
    <tag k="operator" v="Connect Public Transit"/>
    <tag k="network" v="Connect Public Transit"/>
    <tag k="network:wikidata" v="Q129798316"/>
    <tag k="route_ref" v="G"/>
    <tag k="description" v="USU Family Life Building"/>
  </node>
  <relation id="-1" version="0">
    <member type="node" ref="11504801856" role="platform"/>
    <member type="node" ref="11504801848" role="platform"/>
    <member type="node" ref="11504801843" role="platform"/>
    <member type="node" ref="11504801829" role="platform"/>
    <member type="node" ref="11504801830" role="platform"/>
    <member type="node" ref="11504801842" role="platform"/>
    <member type="node" ref="11504801849" role="platform"/>
    <member type="node" ref="11504801857" role="platform"/>
    <member type="node" ref="-1" role="platform"/>
    <member type="node" ref="11504801874" role="platform"/>
    <member type="node" ref="3756754360" role="platform"/>
    <member type="node" ref="11504801870" role="platform"/>
    <member type="node" ref="11504801869" role="platform"/>
    <member type="node" ref="11504801866" role="platform"/>
    <member type="node" ref="11507014044" role="platform"/>
    <member type="node" ref="11507014042" role="platform"/>
    <member type="node" ref="11507014051" role="platform"/>
    <member type="node" ref="-2" role="platform"/>
    <member type="node" ref="-3" role="platform"/>
    <member type="node" ref="11503752148" role="platform"/>
    <member type="node" ref="11503752151" role="platform"/>
    <member type="node" ref="11503752152" role="platform"/>
    <member type="node" ref="11504801897" role="platform"/>
    <member type="node" ref="11503752125" role="platform"/>
    <member type="node" ref="11503752112" role="platform"/>
    <member type="node" ref="11503752110" role="platform"/>
    <member type="node" ref="11503983297" role="platform"/>
    <member type="node" ref="11503983291" role="platform"/>
    <member type="node" ref="11503983303" role="platform"/>
    <member type="node" ref="11503752111" role="platform"/>
    <member type="node" ref="3756754358" role="platform"/>
    <member type="node" ref="11504801898" role="platform"/>
    <member type="node" ref="11504801894" role="platform"/>
    <member type="node" ref="11504801856" role="platform"/>
    <member type="way" ref="182543763" role=""/>
    <member type="way" ref="1238999366" role=""/>
    <member type="way" ref="1069409558" role=""/>
    <member type="way" ref="1300237157" role=""/>
    <member type="way" ref="32134944" role=""/>
    <member type="way" ref="10084501" role=""/>
    <member type="way" ref="369164998" role=""/>
    <member type="way" ref="1229542420" role=""/>
    <member type="way" ref="182952368" role=""/>
    <member type="way" ref="1057232308" role=""/>
    <member type="way" ref="1238999366" role=""/>
    <member type="way" ref="182543763" role=""/>
    <member type="way" ref="1419412026" role=""/>
    <member type="way" ref="182543769" role=""/>
    <member type="way" ref="707968346" role=""/>
    <member type="way" ref="182543776" role=""/>
    <member type="way" ref="1238473089" role=""/>
    <member type="way" ref="1563597691" role=""/>
    <member type="way" ref="707968348" role=""/>
    <member type="way" ref="1238729870" role=""/>
    <member type="way" ref="372145376" role=""/>
    <member type="way" ref="1098119724" role=""/>
    <member type="way" ref="182952356" role=""/>
    <member type="way" ref="1317024531" role=""/>
    <member type="way" ref="1323881870" role=""/>
    <member type="way" ref="1204294788" role=""/>
    <member type="way" ref="1323881876" role=""/>
    <member type="way" ref="1323881877" role=""/>
    <member type="way" ref="707968347" role=""/>
    <member type="way" ref="1317024534" role=""/>
    <member type="way" ref="36859654" role=""/>
    <member type="way" ref="10080041" role=""/>
    <member type="way" ref="1338131549" role=""/>
    <member type="way" ref="105757122" role=""/>
    <member type="way" ref="1109090466" role=""/>
    <member type="way" ref="1109090468" role=""/>
    <member type="way" ref="1556645709" role=""/>
    <member type="way" ref="10086405" role=""/>
    <member type="way" ref="10083026" role=""/>
    <member type="way" ref="182952353" role=""/>
    <member type="way" ref="954778605" role=""/>
    <member type="way" ref="954778604" role=""/>
    <member type="way" ref="954778602" role=""/>
    <member type="way" ref="1315123509" role=""/>
    <member type="way" ref="954778601" role=""/>
    <member type="way" ref="1313118239" role=""/>
    <member type="way" ref="1103018269" role=""/>
    <member type="way" ref="954777000" role=""/>
    <member type="way" ref="954776996" role=""/>
    <member type="way" ref="954776995" role=""/>
    <member type="way" ref="954776993" role=""/>
    <member type="way" ref="954776992" role=""/>
    <member type="way" ref="954776991" role=""/>
    <member type="way" ref="954776990" role=""/>
    <member type="way" ref="954776989" role=""/>
    <member type="way" ref="954776988" role=""/>
    <member type="way" ref="954776987" role=""/>
    <member type="way" ref="954776986" role=""/>
    <member type="way" ref="943699886" role=""/>
    <member type="way" ref="954776985" role=""/>
    <member type="way" ref="182952350" role=""/>
    <member type="way" ref="954776984" role=""/>
    <member type="way" ref="954776983" role=""/>
    <member type="way" ref="182543766" role=""/>
    <member type="way" ref="954776982" role=""/>
    <member type="way" ref="954776981" role=""/>
    <member type="way" ref="954776980" role=""/>
    <member type="way" ref="10084931" role=""/>
    <member type="way" ref="954776979" role=""/>
    <member type="way" ref="954776978" role=""/>
    <member type="way" ref="954776977" role=""/>
    <member type="way" ref="954776976" role=""/>
    <member type="way" ref="954776975" role=""/>
    <member type="way" ref="476147712" role=""/>
    <member type="way" ref="1115241186" role=""/>
    <member type="way" ref="182951689" role=""/>
    <member type="way" ref="943701276" role=""/>
    <member type="way" ref="1012810853" role=""/>
    <member type="way" ref="1313577102" role=""/>
    <member type="way" ref="1043802457" role=""/>
    <member type="way" ref="119006822" role=""/>
    <member type="way" ref="1339864558" role=""/>
    <member type="way" ref="1002818970" role=""/>
    <member type="way" ref="1100702909" role=""/>
    <member type="way" ref="943678569" role=""/>
    <member type="way" ref="1085936749" role=""/>
    <member type="way" ref="1085936747" role=""/>
    <member type="way" ref="10085000" role=""/>
    <member type="way" ref="943712982" role=""/>
    <member type="way" ref="182280708" role=""/>
    <member type="way" ref="943678568" role=""/>
    <member type="way" ref="476147670" role=""/>
    <member type="way" ref="1100702910" role=""/>
    <member type="way" ref="1100702911" role=""/>
    <member type="way" ref="1339864560" role=""/>
    <member type="way" ref="1339864559" role=""/>
    <member type="way" ref="1043802457" role=""/>
    <member type="way" ref="1313577102" role=""/>
    <member type="way" ref="1012810853" role=""/>
    <member type="way" ref="943701276" role=""/>
    <member type="way" ref="182951689" role=""/>
    <member type="way" ref="1115241186" role=""/>
    <member type="way" ref="476147712" role=""/>
    <member type="way" ref="954776975" role=""/>
    <member type="way" ref="954776976" role=""/>
    <member type="way" ref="954776977" role=""/>
    <member type="way" ref="954776978" role=""/>
    <member type="way" ref="954776979" role=""/>
    <member type="way" ref="10084931" role=""/>
    <member type="way" ref="10086230" role=""/>
    <member type="way" ref="182543763" role=""/>
    <tag k="type" v="route"/>
    <tag k="route" v="bus"/>
    <tag k="public_transport:version" v="2"/>
    <tag k="ref" v="G"/>
    <tag k="operator" v="Connect Public Transit"/>
    <tag k="from" v="Smiths Marketplace"/>
    <tag k="to" v="Smiths Marketplace"/>
    <tag k="gtfs:route_id" v="5722"/>
    <tag k="gtfs:shape_id" v="19792"/>
    <tag k="roundtrip" v="yes"/>
    <tag k="network" v="Connect Public Transit"/>
    <tag k="network:wikidata" v="Q129798316"/>
    <tag k="name" v="Bus G: GREEN LOOP"/>
    <tag k="colour" v="#94CB49"/>
    <tag k="description" v="LOOP - Green — Green Loop - USU, Main St"/>
  </relation>
</osm>
