<?xml version="1.0" encoding="UTF-8"?>
<gpx version="1.1" creator="flagstop" xmlns="http://www.topografix.com/GPX/1/1">
  <trk><name>1 USU, NE Logan 1600 E</name><desc>GTFS shape 19560</desc><trkseg>
      <trkpt lat="41.740475" lon="-111.830729"/>
      <trkpt lat="41.740583" lon="-111.830467"/>
      <trkpt lat="41.740634" lon="-111.830431"/>
      <trkpt lat="41.740686" lon="-111.830374"/>
      <trkpt lat="41.740719" lon="-111.830339"/>
      <trkpt lat="41.740769" lon="-111.830294"/>
      <trkpt lat="41.740846" lon="-111.830226"/>
      <trkpt lat="41.740862" lon="-111.830123"/>
      <trkpt lat="41.740864" lon="-111.830004"/>
      <trkpt lat="41.740843" lon="-111.829871"/>
      <trkpt lat="41.740833" lon="-111.829825"/>
      <trkpt lat="41.740787" lon="-111.829734"/>
      <trkpt lat="41.740759" lon="-111.829693"/>
      <trkpt lat="41.740741" lon="-111.829589"/>
      <trkpt lat="41.740746" lon="-111.829472"/>
      <trkpt lat="41.740792" lon="-111.829374"/>
      <trkpt lat="41.740811" lon="-111.829325"/>
      <trkpt lat="41.740832" lon="-111.829213"/>
      <trkpt lat="41.740844" lon="-111.829056"/>
      <trkpt lat="41.740847" lon="-111.828898"/>
      <trkpt lat="41.740822" lon="-111.826607"/>
      <trkpt lat="41.740727" lon="-111.821491"/>
      <trkpt lat="41.740688" lon="-111.819994"/>
      <trkpt lat="41.740671" lon="-111.819630"/>
      <trkpt lat="41.740593" lon="-111.819457"/>
      <trkpt lat="41.740553" lon="-111.819307"/>
      <trkpt lat="41.740588" lon="-111.819168"/>
      <trkpt lat="41.740653" lon="-111.819017"/>
      <trkpt lat="41.740667" lon="-111.818660"/>
      <trkpt lat="41.740659" lon="-111.816820"/>
      <trkpt lat="41.740685" lon="-111.816773"/>
      <trkpt lat="41.740701" lon="-111.816759"/>
      <trkpt lat="41.740718" lon="-111.816748"/>
      <trkpt lat="41.740731" lon="-111.816745"/>
      <trkpt lat="41.740745" lon="-111.816742"/>
      <trkpt lat="41.740761" lon="-111.816742"/>
      <trkpt lat="41.740778" lon="-111.816741"/>
      <trkpt lat="41.741071" lon="-111.816728"/>
      <trkpt lat="41.741365" lon="-111.816716"/>
      <trkpt lat="41.741785" lon="-111.816709"/>
      <trkpt lat="41.742125" lon="-111.816696"/>
      <trkpt lat="41.742425" lon="-111.816688"/>
      <trkpt lat="41.742818" lon="-111.816679"/>
      <trkpt lat="41.742996" lon="-111.816677"/>
      <trkpt lat="41.743178" lon="-111.816667"/>
      <trkpt lat="41.743422" lon="-111.816653"/>
      <trkpt lat="41.743635" lon="-111.816640"/>
      <trkpt lat="41.743656" lon="-111.816636"/>
      <trkpt lat="41.743683" lon="-111.816630"/>
      <trkpt lat="41.743743" lon="-111.816608"/>
      <trkpt lat="41.743862" lon="-111.816585"/>
      <trkpt lat="41.743966" lon="-111.816524"/>
      <trkpt lat="41.744062" lon="-111.816477"/>
      <trkpt lat="41.744179" lon="-111.816405"/>
      <trkpt lat="41.744288" lon="-111.816318"/>
      <trkpt lat="41.744407" lon="-111.816085"/>
      <trkpt lat="41.744426" lon="-111.816019"/>
      <trkpt lat="41.744440" lon="-111.815969"/>
      <trkpt lat="41.744459" lon="-111.815893"/>
      <trkpt lat="41.744471" lon="-111.815818"/>
      <trkpt lat="41.744480" lon="-111.815766"/>
      <trkpt lat="41.744489" lon="-111.815718"/>
      <trkpt lat="41.744490" lon="-111.815668"/>
      <trkpt lat="41.744494" lon="-111.815598"/>
      <trkpt lat="41.744492" lon="-111.815501"/>
      <trkpt lat="41.744484" lon="-111.815411"/>
      <trkpt lat="41.744481" lon="-111.815216"/>
      <trkpt lat="41.744483" lon="-111.815008"/>
      <trkpt lat="41.744485" lon="-111.814690"/>
      <trkpt lat="41.744471" lon="-111.814313"/>
      <trkpt lat="41.744466" lon="-111.813854"/>
      <trkpt lat="41.744461" lon="-111.813616"/>
      <trkpt lat="41.744457" lon="-111.813359"/>
      <trkpt lat="41.744449" lon="-111.812814"/>
      <trkpt lat="41.744441" lon="-111.812300"/>
      <trkpt lat="41.744430" lon="-111.811696"/>
      <trkpt lat="41.744428" lon="-111.811239"/>
      <trkpt lat="41.744430" lon="-111.810757"/>
      <trkpt lat="41.744412" lon="-111.809280"/>
      <trkpt lat="41.744397" lon="-111.808909"/>
      <trkpt lat="41.744379" lon="-111.808139"/>
      <trkpt lat="41.744361" lon="-111.806869"/>
      <trkpt lat="41.744347" lon="-111.806639"/>
      <trkpt lat="41.744328" lon="-111.806184"/>
      <trkpt lat="41.744322" lon="-111.805993"/>
      <trkpt lat="41.744332" lon="-111.805748"/>
      <trkpt lat="41.744325" lon="-111.805412"/>
      <trkpt lat="41.744317" lon="-111.805057"/>
      <trkpt lat="41.744313" lon="-111.804760"/>
      <trkpt lat="41.744312" lon="-111.804447"/>
      <trkpt lat="41.744314" lon="-111.804408"/>
      <trkpt lat="41.744316" lon="-111.804383"/>
      <trkpt lat="41.744323" lon="-111.804354"/>
      <trkpt lat="41.744333" lon="-111.804324"/>
      <trkpt lat="41.744344" lon="-111.804304"/>
      <trkpt lat="41.744356" lon="-111.804287"/>
      <trkpt lat="41.744372" lon="-111.804264"/>
      <trkpt lat="41.744390" lon="-111.804253"/>
      <trkpt lat="41.744409" lon="-111.804246"/>
      <trkpt lat="41.744413" lon="-111.804243"/>
      <trkpt lat="41.744472" lon="-111.804240"/>
      <trkpt lat="41.744480" lon="-111.804241"/>
      <trkpt lat="41.744488" lon="-111.804240"/>
      <trkpt lat="41.744713" lon="-111.804249"/>
      <trkpt lat="41.745295" lon="-111.804267"/>
      <trkpt lat="41.745829" lon="-111.804279"/>
      <trkpt lat="41.746181" lon="-111.804276"/>
      <trkpt lat="41.746945" lon="-111.804308"/>
      <trkpt lat="41.747197" lon="-111.804308"/>
      <trkpt lat="41.747723" lon="-111.804322"/>
      <trkpt lat="41.748227" lon="-111.804330"/>
      <trkpt lat="41.748721" lon="-111.804336"/>
      <trkpt lat="41.749693" lon="-111.804357"/>
      <trkpt lat="41.750510" lon="-111.804365"/>
      <trkpt lat="41.751198" lon="-111.804375"/>
      <trkpt lat="41.751619" lon="-111.804376"/>
      <trkpt lat="41.752280" lon="-111.804377"/>
      <trkpt lat="41.752885" lon="-111.804376"/>
      <trkpt lat="41.753530" lon="-111.804353"/>
      <trkpt lat="41.754260" lon="-111.804336"/>
      <trkpt lat="41.754668" lon="-111.804314"/>
      <trkpt lat="41.755282" lon="-111.804278"/>
      <trkpt lat="41.755848" lon="-111.804252"/>
      <trkpt lat="41.756465" lon="-111.804240"/>
      <trkpt lat="41.756998" lon="-111.804246"/>
      <trkpt lat="41.757028" lon="-111.804245"/>
      <trkpt lat="41.757045" lon="-111.804242"/>
      <trkpt lat="41.757057" lon="-111.804238"/>
      <trkpt lat="41.757067" lon="-111.804232"/>
      <trkpt lat="41.757076" lon="-111.804227"/>
      <trkpt lat="41.757089" lon="-111.804212"/>
      <trkpt lat="41.757095" lon="-111.804201"/>
      <trkpt lat="41.757103" lon="-111.804183"/>
      <trkpt lat="41.757108" lon="-111.804163"/>
      <trkpt lat="41.757112" lon="-111.804128"/>
      <trkpt lat="41.757115" lon="-111.804092"/>
      <trkpt lat="41.757117" lon="-111.804067"/>
      <trkpt lat="41.757119" lon="-111.804004"/>
      <trkpt lat="41.757121" lon="-111.803901"/>
      <trkpt lat="41.757138" lon="-111.803659"/>
      <trkpt lat="41.757198" lon="-111.803405"/>
      <trkpt lat="41.757266" lon="-111.803208"/>
      <trkpt lat="41.757367" lon="-111.802956"/>
      <trkpt lat="41.757558" lon="-111.802540"/>
      <trkpt lat="41.757629" lon="-111.802392"/>
      <trkpt lat="41.757859" lon="-111.801930"/>
      <trkpt lat="41.758110" lon="-111.801434"/>
      <trkpt lat="41.758204" lon="-111.801232"/>
      <trkpt lat="41.758277" lon="-111.801049"/>
      <trkpt lat="41.758330" lon="-111.800906"/>
      <trkpt lat="41.758340" lon="-111.800873"/>
      <trkpt lat="41.758343" lon="-111.800865"/>
      <trkpt lat="41.758346" lon="-111.800857"/>
      <trkpt lat="41.758351" lon="-111.800838"/>
      <trkpt lat="41.758352" lon="-111.800834"/>
      <trkpt lat="41.758360" lon="-111.800805"/>
      <trkpt lat="41.758365" lon="-111.800789"/>
      <trkpt lat="41.758367" lon="-111.800781"/>
      <trkpt lat="41.758375" lon="-111.800744"/>
      <trkpt lat="41.758380" lon="-111.800718"/>
      <trkpt lat="41.758387" lon="-111.800677"/>
      <trkpt lat="41.758392" lon="-111.800648"/>
      <trkpt lat="41.758391" lon="-111.800646"/>
      <trkpt lat="41.758409" lon="-111.800506"/>
      <trkpt lat="41.758423" lon="-111.800035"/>
      <trkpt lat="41.758423" lon="-111.799334"/>
      <trkpt lat="41.758460" lon="-111.798614"/>
      <trkpt lat="41.758443" lon="-111.798250"/>
      <trkpt lat="41.758375" lon="-111.797936"/>
      <trkpt lat="41.758432" lon="-111.797152"/>
      <trkpt lat="41.758416" lon="-111.796602"/>
      <trkpt lat="41.758405" lon="-111.796074"/>
      <trkpt lat="41.758390" lon="-111.795396"/>
      <trkpt lat="41.758420" lon="-111.794764"/>
      <trkpt lat="41.758410" lon="-111.794713"/>
      <trkpt lat="41.758373" lon="-111.794672"/>
      <trkpt lat="41.758322" lon="-111.794659"/>
      <trkpt lat="41.758255" lon="-111.794659"/>
      <trkpt lat="41.757519" lon="-111.794654"/>
      <trkpt lat="41.756443" lon="-111.794635"/>
      <trkpt lat="41.755261" lon="-111.794627"/>
      <trkpt lat="41.754930" lon="-111.794635"/>
      <trkpt lat="41.753433" lon="-111.794608"/>
      <trkpt lat="41.753187" lon="-111.794614"/>
      <trkpt lat="41.752024" lon="-111.794576"/>
      <trkpt lat="41.750855" lon="-111.794586"/>
      <trkpt lat="41.750636" lon="-111.794584"/>
      <trkpt lat="41.749581" lon="-111.794578"/>
      <trkpt lat="41.749523" lon="-111.794583"/>
      <trkpt lat="41.749483" lon="-111.794612"/>
      <trkpt lat="41.749466" lon="-111.794659"/>
      <trkpt lat="41.749459" lon="-111.794744"/>
      <trkpt lat="41.749462" lon="-111.796096"/>
      <trkpt lat="41.749439" lon="-111.796366"/>
      <trkpt lat="41.749439" lon="-111.796685"/>
      <trkpt lat="41.749427" lon="-111.796792"/>
      <trkpt lat="41.749397" lon="-111.796814"/>
      <trkpt lat="41.749355" lon="-111.796822"/>
      <trkpt lat="41.749170" lon="-111.796818"/>
      <trkpt lat="41.748988" lon="-111.796820"/>
      <trkpt lat="41.747554" lon="-111.796833"/>
      <trkpt lat="41.746177" lon="-111.796827"/>
      <trkpt lat="41.745724" lon="-111.796833"/>
      <trkpt lat="41.745390" lon="-111.796855"/>
      <trkpt lat="41.744263" lon="-111.796851"/>
      <trkpt lat="41.744218" lon="-111.796855"/>
      <trkpt lat="41.744188" lon="-111.796853"/>
      <trkpt lat="41.744170" lon="-111.796868"/>
      <trkpt lat="41.744161" lon="-111.796898"/>
      <trkpt lat="41.744163" lon="-111.796991"/>
      <trkpt lat="41.744256" lon="-111.800531"/>
      <trkpt lat="41.744302" lon="-111.802711"/>
      <trkpt lat="41.744318" lon="-111.803073"/>
      <trkpt lat="41.744341" lon="-111.803215"/>
      <trkpt lat="41.744342" lon="-111.804109"/>
      <trkpt lat="41.744384" lon="-111.806201"/>
      <trkpt lat="41.744408" lon="-111.806831"/>
      <trkpt lat="41.744435" lon="-111.807223"/>
      <trkpt lat="41.744410" lon="-111.807437"/>
      <trkpt lat="41.744458" lon="-111.809087"/>
      <trkpt lat="41.744495" lon="-111.810989"/>
      <trkpt lat="41.744528" lon="-111.812593"/>
      <trkpt lat="41.744566" lon="-111.814907"/>
      <trkpt lat="41.744574" lon="-111.815269"/>
      <trkpt lat="41.744562" lon="-111.815473"/>
      <trkpt lat="41.744549" lon="-111.815622"/>
      <trkpt lat="41.744536" lon="-111.815813"/>
      <trkpt lat="41.744515" lon="-111.815929"/>
      <trkpt lat="41.744491" lon="-111.816016"/>
      <trkpt lat="41.744465" lon="-111.816112"/>
      <trkpt lat="41.744432" lon="-111.816191"/>
      <trkpt lat="41.744389" lon="-111.816275"/>
      <trkpt lat="41.744344" lon="-111.816353"/>
      <trkpt lat="41.744247" lon="-111.816459"/>
      <trkpt lat="41.744188" lon="-111.816496"/>
      <trkpt lat="41.744092" lon="-111.816564"/>
      <trkpt lat="41.743933" lon="-111.816643"/>
      <trkpt lat="41.743802" lon="-111.816694"/>
      <trkpt lat="41.743670" lon="-111.816720"/>
      <trkpt lat="41.743538" lon="-111.816726"/>
      <trkpt lat="41.743252" lon="-111.816749"/>
      <trkpt lat="41.742956" lon="-111.816753"/>
      <trkpt lat="41.742469" lon="-111.816761"/>
      <trkpt lat="41.741060" lon="-111.816821"/>
      <trkpt lat="41.740861" lon="-111.816828"/>
      <trkpt lat="41.740779" lon="-111.816834"/>
      <trkpt lat="41.740737" lon="-111.816852"/>
      <trkpt lat="41.740714" lon="-111.816916"/>
      <trkpt lat="41.740707" lon="-111.817002"/>
      <trkpt lat="41.740736" lon="-111.818936"/>
      <trkpt lat="41.740747" lon="-111.818999"/>
      <trkpt lat="41.740777" lon="-111.819078"/>
      <trkpt lat="41.740801" lon="-111.819125"/>
      <trkpt lat="41.740835" lon="-111.819185"/>
      <trkpt lat="41.740855" lon="-111.819258"/>
      <trkpt lat="41.740858" lon="-111.819312"/>
      <trkpt lat="41.740855" lon="-111.819384"/>
      <trkpt lat="41.740827" lon="-111.819432"/>
      <trkpt lat="41.740799" lon="-111.819482"/>
      <trkpt lat="41.740777" lon="-111.819553"/>
      <trkpt lat="41.740754" lon="-111.819655"/>
      <trkpt lat="41.740740" lon="-111.819859"/>
      <trkpt lat="41.740742" lon="-111.820091"/>
      <trkpt lat="41.740770" lon="-111.821672"/>
      <trkpt lat="41.740788" lon="-111.822173"/>
      <trkpt lat="41.740814" lon="-111.824216"/>
      <trkpt lat="41.740839" lon="-111.825990"/>
      <trkpt lat="41.740871" lon="-111.827304"/>
      <trkpt lat="41.740869" lon="-111.827457"/>
      <trkpt lat="41.740894" lon="-111.828902"/>
      <trkpt lat="41.740899" lon="-111.829028"/>
      <trkpt lat="41.740913" lon="-111.829198"/>
      <trkpt lat="41.740927" lon="-111.829292"/>
      <trkpt lat="41.740964" lon="-111.829380"/>
      <trkpt lat="41.740988" lon="-111.829411"/>
      <trkpt lat="41.741017" lon="-111.829466"/>
      <trkpt lat="41.741030" lon="-111.829574"/>
      <trkpt lat="41.741005" lon="-111.829649"/>
      <trkpt lat="41.740973" lon="-111.829720"/>
      <trkpt lat="41.740937" lon="-111.829850"/>
      <trkpt lat="41.740920" lon="-111.829971"/>
      <trkpt lat="41.740917" lon="-111.830212"/>
      <trkpt lat="41.740917" lon="-111.830555"/>
      <trkpt lat="41.740930" lon="-111.831390"/>
      <trkpt lat="41.740913" lon="-111.831434"/>
      <trkpt lat="41.740841" lon="-111.831491"/>
      <trkpt lat="41.740781" lon="-111.831498"/>
      <trkpt lat="41.740712" lon="-111.831476"/>
      <trkpt lat="41.740647" lon="-111.831424"/>
      <trkpt lat="41.740580" lon="-111.831305"/>
      <trkpt lat="41.740532" lon="-111.831214"/>
      <trkpt lat="41.740509" lon="-111.831113"/>
      <trkpt lat="41.740482" lon="-111.830994"/>
      <trkpt lat="41.740463" lon="-111.830725"/>
      <trkpt lat="41.740475" lon="-111.830729"/>
    </trkseg></trk>
</gpx>
