<?xml version="1.0" encoding="UTF-8"?>
<gpx version="1.1" creator="flagstop" xmlns="http://www.topografix.com/GPX/1/1">
  <trk><name>5 North Logan, CV Hospital</name><desc>GTFS shape 19738</desc><trkseg>
      <trkpt lat="41.740640" lon="-111.830545"/>
      <trkpt lat="41.740636" lon="-111.830536"/>
      <trkpt lat="41.740618" lon="-111.830552"/>
      <trkpt lat="41.740587" lon="-111.830631"/>
      <trkpt lat="41.740557" lon="-111.830724"/>
      <trkpt lat="41.740523" lon="-111.830836"/>
      <trkpt lat="41.740519" lon="-111.830937"/>
      <trkpt lat="41.740539" lon="-111.831101"/>
      <trkpt lat="41.740539" lon="-111.831106"/>
      <trkpt lat="41.740580" lon="-111.831221"/>
      <trkpt lat="41.740581" lon="-111.831225"/>
      <trkpt lat="41.740629" lon="-111.831325"/>
      <trkpt lat="41.740629" lon="-111.831327"/>
      <trkpt lat="41.740630" lon="-111.831331"/>
      <trkpt lat="41.740681" lon="-111.831415"/>
      <trkpt lat="41.740732" lon="-111.831461"/>
      <trkpt lat="41.740791" lon="-111.831471"/>
      <trkpt lat="41.740834" lon="-111.831468"/>
      <trkpt lat="41.740893" lon="-111.831464"/>
      <trkpt lat="41.740916" lon="-111.831488"/>
      <trkpt lat="41.740937" lon="-111.831534"/>
      <trkpt lat="41.740938" lon="-111.831592"/>
      <trkpt lat="41.740969" lon="-111.833756"/>
      <trkpt lat="41.740977" lon="-111.834062"/>
      <trkpt lat="41.741017" lon="-111.834229"/>
      <trkpt lat="41.741016" lon="-111.834427"/>
      <trkpt lat="41.741018" lon="-111.834466"/>
      <trkpt lat="41.741018" lon="-111.834500"/>
      <trkpt lat="41.741021" lon="-111.834538"/>
      <trkpt lat="41.741032" lon="-111.834564"/>
      <trkpt lat="41.741047" lon="-111.834584"/>
      <trkpt lat="41.741065" lon="-111.834600"/>
      <trkpt lat="41.741092" lon="-111.834607"/>
      <trkpt lat="41.741735" lon="-111.834592"/>
      <trkpt lat="41.745855" lon="-111.834482"/>
      <trkpt lat="41.746634" lon="-111.834463"/>
      <trkpt lat="41.750004" lon="-111.834396"/>
      <trkpt lat="41.751809" lon="-111.834366"/>
      <trkpt lat="41.754219" lon="-111.834322"/>
      <trkpt lat="41.755340" lon="-111.834318"/>
      <trkpt lat="41.756990" lon="-111.834276"/>
      <trkpt lat="41.757370" lon="-111.834263"/>
      <trkpt lat="41.758169" lon="-111.834244"/>
      <trkpt lat="41.758449" lon="-111.834255"/>
      <trkpt lat="41.761241" lon="-111.834202"/>
      <trkpt lat="41.763280" lon="-111.834156"/>
      <trkpt lat="41.763602" lon="-111.834140"/>
      <trkpt lat="41.764825" lon="-111.834130"/>
      <trkpt lat="41.767380" lon="-111.834091"/>
      <trkpt lat="41.768159" lon="-111.834060"/>
      <trkpt lat="41.770642" lon="-111.834012"/>
      <trkpt lat="41.771242" lon="-111.833992"/>
      <trkpt lat="41.772276" lon="-111.833977"/>
      <trkpt lat="41.772728" lon="-111.833967"/>
      <trkpt lat="41.772951" lon="-111.833963"/>
      <trkpt lat="41.775496" lon="-111.833910"/>
      <trkpt lat="41.776284" lon="-111.833901"/>
      <trkpt lat="41.776778" lon="-111.833860"/>
      <trkpt lat="41.778187" lon="-111.833858"/>
      <trkpt lat="41.782513" lon="-111.833766"/>
      <trkpt lat="41.782713" lon="-111.833728"/>
      <trkpt lat="41.782859" lon="-111.833718"/>
      <trkpt lat="41.783255" lon="-111.833704"/>
      <trkpt lat="41.783321" lon="-111.833690"/>
      <trkpt lat="41.783359" lon="-111.833665"/>
      <trkpt lat="41.783380" lon="-111.833636"/>
      <trkpt lat="41.783394" lon="-111.833588"/>
      <trkpt lat="41.783394" lon="-111.833582"/>
      <trkpt lat="41.783398" lon="-111.833533"/>
      <trkpt lat="41.783400" lon="-111.833477"/>
      <trkpt lat="41.783399" lon="-111.831466"/>
      <trkpt lat="41.783401" lon="-111.831168"/>
      <trkpt lat="41.783402" lon="-111.831101"/>
      <trkpt lat="41.783388" lon="-111.831044"/>
      <trkpt lat="41.783352" lon="-111.830979"/>
      <trkpt lat="41.783301" lon="-111.830936"/>
      <trkpt lat="41.783198" lon="-111.830930"/>
      <trkpt lat="41.783154" lon="-111.830962"/>
      <trkpt lat="41.782432" lon="-111.830942"/>
      <trkpt lat="41.781338" lon="-111.830962"/>
      <trkpt lat="41.781071" lon="-111.830970"/>
      <trkpt lat="41.780969" lon="-111.830969"/>
      <trkpt lat="41.780845" lon="-111.830973"/>
      <trkpt lat="41.780753" lon="-111.830968"/>
      <trkpt lat="41.780659" lon="-111.830967"/>
      <trkpt lat="41.780485" lon="-111.830962"/>
      <trkpt lat="41.780387" lon="-111.830957"/>
      <trkpt lat="41.780245" lon="-111.830946"/>
      <trkpt lat="41.780186" lon="-111.830937"/>
      <trkpt lat="41.780139" lon="-111.830921"/>
      <trkpt lat="41.780093" lon="-111.830831"/>
      <trkpt lat="41.780062" lon="-111.830717"/>
      <trkpt lat="41.780049" lon="-111.830603"/>
      <trkpt lat="41.780090" lon="-111.830432"/>
      <trkpt lat="41.780134" lon="-111.830082"/>
      <trkpt lat="41.780138" lon="-111.829772"/>
      <trkpt lat="41.780121" lon="-111.829509"/>
      <trkpt lat="41.780074" lon="-111.829272"/>
      <trkpt lat="41.780078" lon="-111.829267"/>
      <trkpt lat="41.780004" lon="-111.828968"/>
      <trkpt lat="41.779990" lon="-111.828951"/>
      <trkpt lat="41.779919" lon="-111.823923"/>
      <trkpt lat="41.779907" lon="-111.822927"/>
      <trkpt lat="41.779893" lon="-111.822888"/>
      <trkpt lat="41.779860" lon="-111.822856"/>
      <trkpt lat="41.779824" lon="-111.822844"/>
      <trkpt lat="41.779781" lon="-111.822836"/>
      <trkpt lat="41.779660" lon="-111.822849"/>
      <trkpt lat="41.777851" lon="-111.822982"/>
      <trkpt lat="41.777434" lon="-111.823014"/>
      <trkpt lat="41.776243" lon="-111.823092"/>
      <trkpt lat="41.775477" lon="-111.823178"/>
      <trkpt lat="41.774563" lon="-111.823210"/>
      <trkpt lat="41.773261" lon="-111.823301"/>
      <trkpt lat="41.772585" lon="-111.823319"/>
      <trkpt lat="41.772263" lon="-111.823376"/>
      <trkpt lat="41.772217" lon="-111.823428"/>
      <trkpt lat="41.772173" lon="-111.823525"/>
      <trkpt lat="41.772169" lon="-111.823715"/>
      <trkpt lat="41.772202" lon="-111.824235"/>
      <trkpt lat="41.772228" lon="-111.825543"/>
      <trkpt lat="41.772253" lon="-111.827163"/>
      <trkpt lat="41.772279" lon="-111.827973"/>
      <trkpt lat="41.772297" lon="-111.828118"/>
      <trkpt lat="41.772339" lon="-111.828222"/>
      <trkpt lat="41.772389" lon="-111.828302"/>
      <trkpt lat="41.772408" lon="-111.828385"/>
      <trkpt lat="41.772405" lon="-111.828491"/>
      <trkpt lat="41.772364" lon="-111.828562"/>
      <trkpt lat="41.772301" lon="-111.828625"/>
      <trkpt lat="41.772203" lon="-111.828631"/>
      <trkpt lat="41.772098" lon="-111.828560"/>
      <trkpt lat="41.772022" lon="-111.828512"/>
      <trkpt lat="41.771927" lon="-111.828487"/>
      <trkpt lat="41.771808" lon="-111.828479"/>
      <trkpt lat="41.771440" lon="-111.828530"/>
      <trkpt lat="41.771213" lon="-111.828491"/>
      <trkpt lat="41.770706" lon="-111.828502"/>
      <trkpt lat="41.769606" lon="-111.828551"/>
      <trkpt lat="41.768822" lon="-111.828580"/>
      <trkpt lat="41.768228" lon="-111.828605"/>
      <trkpt lat="41.767196" lon="-111.828641"/>
      <trkpt lat="41.766092" lon="-111.828698"/>
      <trkpt lat="41.765292" lon="-111.828714"/>
      <trkpt lat="41.765113" lon="-111.828788"/>
      <trkpt lat="41.765023" lon="-111.828876"/>
      <trkpt lat="41.764945" lon="-111.828906"/>
      <trkpt lat="41.764843" lon="-111.828884"/>
      <trkpt lat="41.764769" lon="-111.828823"/>
      <trkpt lat="41.764649" lon="-111.828804"/>
      <trkpt lat="41.764090" lon="-111.828823"/>
      <trkpt lat="41.763486" lon="-111.828867"/>
      <trkpt lat="41.762923" lon="-111.828869"/>
      <trkpt lat="41.762061" lon="-111.828907"/>
      <trkpt lat="41.761071" lon="-111.828954"/>
      <trkpt lat="41.760825" lon="-111.829001"/>
      <trkpt lat="41.760150" lon="-111.829005"/>
      <trkpt lat="41.758637" lon="-111.829060"/>
      <trkpt lat="41.757626" lon="-111.829119"/>
      <trkpt lat="41.757059" lon="-111.829178"/>
      <trkpt lat="41.756191" lon="-111.829195"/>
      <trkpt lat="41.754586" lon="-111.829207"/>
      <trkpt lat="41.752961" lon="-111.829251"/>
      <trkpt lat="41.752818" lon="-111.829308"/>
      <trkpt lat="41.752473" lon="-111.829272"/>
      <trkpt lat="41.752048" lon="-111.829313"/>
      <trkpt lat="41.751505" lon="-111.829338"/>
      <trkpt lat="41.750841" lon="-111.829361"/>
      <trkpt lat="41.750349" lon="-111.829370"/>
      <trkpt lat="41.749910" lon="-111.829390"/>
      <trkpt lat="41.749646" lon="-111.829440"/>
      <trkpt lat="41.749360" lon="-111.829400"/>
      <trkpt lat="41.748834" lon="-111.829382"/>
      <trkpt lat="41.748638" lon="-111.829392"/>
      <trkpt lat="41.748227" lon="-111.829408"/>
      <trkpt lat="41.747626" lon="-111.829424"/>
      <trkpt lat="41.747036" lon="-111.829434"/>
      <trkpt lat="41.746289" lon="-111.829444"/>
      <trkpt lat="41.745108" lon="-111.829487"/>
      <trkpt lat="41.744826" lon="-111.829484"/>
      <trkpt lat="41.744758" lon="-111.829503"/>
      <trkpt lat="41.744726" lon="-111.829546"/>
      <trkpt lat="41.744720" lon="-111.829664"/>
      <trkpt lat="41.744732" lon="-111.829943"/>
      <trkpt lat="41.744741" lon="-111.830496"/>
      <trkpt lat="41.744747" lon="-111.831107"/>
      <trkpt lat="41.744757" lon="-111.831799"/>
      <trkpt lat="41.744755" lon="-111.831869"/>
      <trkpt lat="41.744744" lon="-111.831925"/>
      <trkpt lat="41.744702" lon="-111.831962"/>
      <trkpt lat="41.744645" lon="-111.831971"/>
      <trkpt lat="41.744582" lon="-111.831976"/>
      <trkpt lat="41.744209" lon="-111.831972"/>
      <trkpt lat="41.743302" lon="-111.831993"/>
      <trkpt lat="41.742949" lon="-111.832001"/>
      <trkpt lat="41.741072" lon="-111.832056"/>
      <trkpt lat="41.741016" lon="-111.832073"/>
      <trkpt lat="41.740954" lon="-111.832073"/>
      <trkpt lat="41.740910" lon="-111.832038"/>
      <trkpt lat="41.740902" lon="-111.831928"/>
      <trkpt lat="41.740902" lon="-111.831694"/>
      <trkpt lat="41.740895" lon="-111.831327"/>
      <trkpt lat="41.740886" lon="-111.830871"/>
      <trkpt lat="41.740882" lon="-111.830601"/>
      <trkpt lat="41.740878" lon="-111.830526"/>
      <trkpt lat="41.740863" lon="-111.830467"/>
      <trkpt lat="41.740841" lon="-111.830443"/>
      <trkpt lat="41.740815" lon="-111.830436"/>
      <trkpt lat="41.740770" lon="-111.830426"/>
      <trkpt lat="41.740732" lon="-111.830436"/>
      <trkpt lat="41.740693" lon="-111.830471"/>
      <trkpt lat="41.740649" lon="-111.830522"/>
      <trkpt lat="41.740640" lon="-111.830545"/>
    </trkseg></trk>
</gpx>
