<?xml version="1.0" encoding="UTF-8"?>
<gpx version="1.1" creator="flagstop" xmlns="http://www.topografix.com/GPX/1/1">
  <trk><name>11 Southbound</name><desc>GTFS shape 30386</desc><trkseg>
      <trkpt lat="41.740642" lon="-111.831508"/>
      <trkpt lat="41.740641" lon="-111.831510"/>
      <trkpt lat="41.740610" lon="-111.831379"/>
      <trkpt lat="41.740499" lon="-111.831011"/>
      <trkpt lat="41.740546" lon="-111.830606"/>
      <trkpt lat="41.740866" lon="-111.830220"/>
      <trkpt lat="41.740814" lon="-111.829794"/>
      <trkpt lat="41.740718" lon="-111.829595"/>
      <trkpt lat="41.740507" lon="-111.829570"/>
      <trkpt lat="41.739107" lon="-111.829640"/>
      <trkpt lat="41.737080" lon="-111.829687"/>
      <trkpt lat="41.735295" lon="-111.829761"/>
      <trkpt lat="41.735178" lon="-111.829792"/>
      <trkpt lat="41.735160" lon="-111.829874"/>
      <trkpt lat="41.735176" lon="-111.832176"/>
      <trkpt lat="41.735166" lon="-111.832280"/>
      <trkpt lat="41.735150" lon="-111.832300"/>
      <trkpt lat="41.732252" lon="-111.832409"/>
      <trkpt lat="41.732256" lon="-111.832428"/>
      <trkpt lat="41.731483" lon="-111.832409"/>
      <trkpt lat="41.725302" lon="-111.832666"/>
      <trkpt lat="41.725292" lon="-111.832667"/>
      <trkpt lat="41.724052" lon="-111.832709"/>
      <trkpt lat="41.721842" lon="-111.832752"/>
      <trkpt lat="41.720817" lon="-111.831894"/>
      <trkpt lat="41.720813" lon="-111.831891"/>
      <trkpt lat="41.720721" lon="-111.831765"/>
      <trkpt lat="41.718511" lon="-111.831250"/>
      <trkpt lat="41.718510" lon="-111.831230"/>
      <trkpt lat="41.718319" lon="-111.831079"/>
      <trkpt lat="41.717326" lon="-111.830091"/>
      <trkpt lat="41.715051" lon="-111.830091"/>
      <trkpt lat="41.715036" lon="-111.830100"/>
      <trkpt lat="41.714891" lon="-111.830134"/>
      <trkpt lat="41.713514" lon="-111.830349"/>
      <trkpt lat="41.712200" lon="-111.829276"/>
      <trkpt lat="41.711207" lon="-111.829147"/>
      <trkpt lat="41.710214" lon="-111.829319"/>
      <trkpt lat="41.710182" lon="-111.830564"/>
      <trkpt lat="41.710165" lon="-111.830576"/>
      <trkpt lat="41.710214" lon="-111.833138"/>
      <trkpt lat="41.710278" lon="-111.837044"/>
      <trkpt lat="41.710289" lon="-111.837041"/>
      <trkpt lat="41.710278" lon="-111.837645"/>
      <trkpt lat="41.710534" lon="-111.838717"/>
      <trkpt lat="41.710214" lon="-111.839190"/>
      <trkpt lat="41.709509" lon="-111.839662"/>
      <trkpt lat="41.708035" lon="-111.841550"/>
      <trkpt lat="41.707427" lon="-111.841249"/>
      <trkpt lat="41.707423" lon="-111.841228"/>
      <trkpt lat="41.707266" lon="-111.841207"/>
      <trkpt lat="41.704127" lon="-111.841207"/>
      <trkpt lat="41.704134" lon="-111.841218"/>
      <trkpt lat="41.702909" lon="-111.841207"/>
      <trkpt lat="41.702653" lon="-111.845069"/>
      <trkpt lat="41.703037" lon="-111.848030"/>
      <trkpt lat="41.703043" lon="-111.848009"/>
      <trkpt lat="41.703101" lon="-111.848330"/>
      <trkpt lat="41.703229" lon="-111.851206"/>
      <trkpt lat="41.704255" lon="-111.852708"/>
      <trkpt lat="41.705216" lon="-111.853051"/>
      <trkpt lat="41.705024" lon="-111.856270"/>
      <trkpt lat="41.705012" lon="-111.856266"/>
      <trkpt lat="41.704895" lon="-111.856399"/>
      <trkpt lat="41.703710" lon="-111.858373"/>
      <trkpt lat="41.701852" lon="-111.856055"/>
      <trkpt lat="41.701843" lon="-111.856071"/>
      <trkpt lat="41.701403" lon="-111.855497"/>
      <trkpt lat="41.700922" lon="-111.855111"/>
      <trkpt lat="41.697686" lon="-111.859703"/>
      <trkpt lat="41.697714" lon="-111.859887"/>
      <trkpt lat="41.697836" lon="-111.860036"/>
      <trkpt lat="41.698023" lon="-111.860179"/>
      <trkpt lat="41.698327" lon="-111.860304"/>
      <trkpt lat="41.700121" lon="-111.860390"/>
      <trkpt lat="41.700153" lon="-111.862793"/>
      <trkpt lat="41.700135" lon="-111.862796"/>
      <trkpt lat="41.700121" lon="-111.863608"/>
      <trkpt lat="41.700121" lon="-111.866655"/>
      <trkpt lat="41.700698" lon="-111.866655"/>
      <trkpt lat="41.700709" lon="-111.866670"/>
      <trkpt lat="41.701115" lon="-111.866698"/>
      <trkpt lat="41.703293" lon="-111.866698"/>
      <trkpt lat="41.703390" lon="-111.866312"/>
      <trkpt lat="41.703402" lon="-111.866308"/>
      <trkpt lat="41.703390" lon="-111.866183"/>
      <trkpt lat="41.703326" lon="-111.865926"/>
      <trkpt lat="41.701307" lon="-111.865926"/>
      <trkpt lat="41.701051" lon="-111.865582"/>
      <trkpt lat="41.701051" lon="-111.864853"/>
      <trkpt lat="41.700666" lon="-111.864810"/>
      <trkpt lat="41.700668" lon="-111.864827"/>
      <trkpt lat="41.700282" lon="-111.864810"/>
      <trkpt lat="41.700089" lon="-111.864810"/>
      <trkpt lat="41.700057" lon="-111.860561"/>
      <trkpt lat="41.700130" lon="-111.860560"/>
      <trkpt lat="41.700130" lon="-111.860430"/>
      <trkpt lat="41.700130" lon="-111.860430"/>
      <trkpt lat="41.699230" lon="-111.860420"/>
      <trkpt lat="41.698900" lon="-111.860340"/>
      <trkpt lat="41.698300" lon="-111.860350"/>
      <trkpt lat="41.698250" lon="-111.860350"/>
      <trkpt lat="41.698060" lon="-111.860280"/>
      <trkpt lat="41.697890" lon="-111.860170"/>
      <trkpt lat="41.697850" lon="-111.860130"/>
      <trkpt lat="41.697850" lon="-111.860130"/>
      <trkpt lat="41.697850" lon="-111.860130"/>
      <trkpt lat="41.697720" lon="-111.860000"/>
      <trkpt lat="41.697620" lon="-111.859860"/>
      <trkpt lat="41.697620" lon="-111.859860"/>
      <trkpt lat="41.697342" lon="-111.859531"/>
      <trkpt lat="41.697328" lon="-111.859512"/>
      <trkpt lat="41.696940" lon="-111.859020"/>
      <trkpt lat="41.696900" lon="-111.858980"/>
      <trkpt lat="41.696900" lon="-111.858980"/>
      <trkpt lat="41.696900" lon="-111.858980"/>
      <trkpt lat="41.696770" lon="-111.858850"/>
      <trkpt lat="41.696590" lon="-111.858750"/>
      <trkpt lat="41.696330" lon="-111.858700"/>
      <trkpt lat="41.695530" lon="-111.858720"/>
      <trkpt lat="41.695480" lon="-111.858720"/>
      <trkpt lat="41.695480" lon="-111.858720"/>
      <trkpt lat="41.695480" lon="-111.858720"/>
      <trkpt lat="41.695360" lon="-111.858740"/>
      <trkpt lat="41.695170" lon="-111.858800"/>
      <trkpt lat="41.694910" lon="-111.858910"/>
      <trkpt lat="41.694910" lon="-111.858910"/>
      <trkpt lat="41.694910" lon="-111.858910"/>
      <trkpt lat="41.694890" lon="-111.858920"/>
      <trkpt lat="41.694640" lon="-111.858950"/>
      <trkpt lat="41.693770" lon="-111.858950"/>
      <trkpt lat="41.692970" lon="-111.858940"/>
      <trkpt lat="41.692907" lon="-111.858955"/>
      <trkpt lat="41.692848" lon="-111.858957"/>
      <trkpt lat="41.692617" lon="-111.858967"/>
      <trkpt lat="41.692036" lon="-111.858968"/>
      <trkpt lat="41.691134" lon="-111.859060"/>
      <trkpt lat="41.690816" lon="-111.859084"/>
      <trkpt lat="41.690531" lon="-111.859184"/>
      <trkpt lat="41.689535" lon="-111.860378"/>
      <trkpt lat="41.689451" lon="-111.860421"/>
      <trkpt lat="41.689395" lon="-111.860360"/>
      <trkpt lat="41.688948" lon="-111.859760"/>
      <trkpt lat="41.688578" lon="-111.859130"/>
      <trkpt lat="41.688535" lon="-111.858974"/>
      <trkpt lat="41.688494" lon="-111.858724"/>
      <trkpt lat="41.688507" lon="-111.857342"/>
      <trkpt lat="41.688528" lon="-111.856854"/>
      <trkpt lat="41.688607" lon="-111.856469"/>
      <trkpt lat="41.688776" lon="-111.856034"/>
      <trkpt lat="41.688792" lon="-111.855640"/>
      <trkpt lat="41.688788" lon="-111.854634"/>
      <trkpt lat="41.688532" lon="-111.854003"/>
      <trkpt lat="41.688466" lon="-111.853859"/>
      <trkpt lat="41.688206" lon="-111.853236"/>
      <trkpt lat="41.688147" lon="-111.852892"/>
      <trkpt lat="41.688141" lon="-111.852556"/>
      <trkpt lat="41.688119" lon="-111.852496"/>
      <trkpt lat="41.688029" lon="-111.852474"/>
      <trkpt lat="41.685593" lon="-111.852429"/>
      <trkpt lat="41.685534" lon="-111.852379"/>
      <trkpt lat="41.685508" lon="-111.852324"/>
      <trkpt lat="41.685476" lon="-111.850777"/>
      <trkpt lat="41.685486" lon="-111.850782"/>
      <trkpt lat="41.685476" lon="-111.847515"/>
      <trkpt lat="41.685405" lon="-111.847426"/>
      <trkpt lat="41.684547" lon="-111.847429"/>
      <trkpt lat="41.684543" lon="-111.847422"/>
      <trkpt lat="41.682560" lon="-111.847429"/>
      <trkpt lat="41.682559" lon="-111.847434"/>
      <trkpt lat="41.681534" lon="-111.847429"/>
      <trkpt lat="41.679291" lon="-111.847258"/>
      <trkpt lat="41.679296" lon="-111.847247"/>
      <trkpt lat="41.678746" lon="-111.847258"/>
      <trkpt lat="41.678297" lon="-111.847086"/>
      <trkpt lat="41.677175" lon="-111.845412"/>
      <trkpt lat="41.676149" lon="-111.845112"/>
      <trkpt lat="41.676137" lon="-111.845102"/>
    </trkseg></trk>
</gpx>
