<?xml version="1.0" encoding="UTF-8"?>
<gpx version="1.1" creator="flagstop" xmlns="http://www.topografix.com/GPX/1/1">
  <trk><name>7 </name><desc>GTFS shape 27002</desc><trkseg>
      <trkpt lat="41.740615" lon="-111.831237"/>
      <trkpt lat="41.740655" lon="-111.831387"/>
      <trkpt lat="41.740857" lon="-111.831536"/>
      <trkpt lat="41.740927" lon="-111.831577"/>
      <trkpt lat="41.740934" lon="-111.831699"/>
      <trkpt lat="41.740942" lon="-111.831914"/>
      <trkpt lat="41.740928" lon="-111.832055"/>
      <trkpt lat="41.740880" lon="-111.832108"/>
      <trkpt lat="41.740844" lon="-111.832128"/>
      <trkpt lat="41.740790" lon="-111.832144"/>
      <trkpt lat="41.740264" lon="-111.832170"/>
      <trkpt lat="41.739170" lon="-111.832183"/>
      <trkpt lat="41.738477" lon="-111.832214"/>
      <trkpt lat="41.737239" lon="-111.832256"/>
      <trkpt lat="41.735559" lon="-111.832294"/>
      <trkpt lat="41.735318" lon="-111.832319"/>
      <trkpt lat="41.735255" lon="-111.832331"/>
      <trkpt lat="41.735215" lon="-111.832363"/>
      <trkpt lat="41.735204" lon="-111.832429"/>
      <trkpt lat="41.735215" lon="-111.833019"/>
      <trkpt lat="41.735227" lon="-111.833427"/>
      <trkpt lat="41.735248" lon="-111.833754"/>
      <trkpt lat="41.735233" lon="-111.834162"/>
      <trkpt lat="41.735242" lon="-111.834617"/>
      <trkpt lat="41.735270" lon="-111.835969"/>
      <trkpt lat="41.735278" lon="-111.836380"/>
      <trkpt lat="41.735257" lon="-111.836962"/>
      <trkpt lat="41.735261" lon="-111.837316"/>
      <trkpt lat="41.735259" lon="-111.837496"/>
      <trkpt lat="41.735212" lon="-111.837543"/>
      <trkpt lat="41.735151" lon="-111.837567"/>
      <trkpt lat="41.734657" lon="-111.837587"/>
      <trkpt lat="41.733483" lon="-111.837597"/>
      <trkpt lat="41.731955" lon="-111.837637"/>
      <trkpt lat="41.731856" lon="-111.837646"/>
      <trkpt lat="41.731575" lon="-111.837644"/>
      <trkpt lat="41.730733" lon="-111.837676"/>
      <trkpt lat="41.729689" lon="-111.837703"/>
      <trkpt lat="41.728713" lon="-111.837728"/>
      <trkpt lat="41.726927" lon="-111.837781"/>
      <trkpt lat="41.726679" lon="-111.837854"/>
      <trkpt lat="41.726670" lon="-111.837855"/>
      <trkpt lat="41.726578" lon="-111.837799"/>
      <trkpt lat="41.726059" lon="-111.837804"/>
      <trkpt lat="41.724171" lon="-111.837862"/>
      <trkpt lat="41.722291" lon="-111.837925"/>
      <trkpt lat="41.721983" lon="-111.837911"/>
      <trkpt lat="41.721723" lon="-111.837868"/>
      <trkpt lat="41.721489" lon="-111.837750"/>
      <trkpt lat="41.721345" lon="-111.837651"/>
      <trkpt lat="41.720961" lon="-111.837329"/>
      <trkpt lat="41.720789" lon="-111.837184"/>
      <trkpt lat="41.720653" lon="-111.837112"/>
      <trkpt lat="41.720441" lon="-111.837061"/>
      <trkpt lat="41.720132" lon="-111.837034"/>
      <trkpt lat="41.719146" lon="-111.837032"/>
      <trkpt lat="41.718907" lon="-111.837079"/>
      <trkpt lat="41.718330" lon="-111.837235"/>
      <trkpt lat="41.718242" lon="-111.837299"/>
      <trkpt lat="41.717399" lon="-111.837587"/>
      <trkpt lat="41.716686" lon="-111.837869"/>
      <trkpt lat="41.716284" lon="-111.838118"/>
      <trkpt lat="41.716008" lon="-111.838352"/>
      <trkpt lat="41.715765" lon="-111.838652"/>
      <trkpt lat="41.715727" lon="-111.838738"/>
      <trkpt lat="41.715731" lon="-111.838826"/>
      <trkpt lat="41.715801" lon="-111.838934"/>
      <trkpt lat="41.715867" lon="-111.838954"/>
      <trkpt lat="41.715937" lon="-111.839116"/>
      <trkpt lat="41.716027" lon="-111.839307"/>
      <trkpt lat="41.716087" lon="-111.839521"/>
      <trkpt lat="41.716099" lon="-111.839730"/>
      <trkpt lat="41.716109" lon="-111.840312"/>
      <trkpt lat="41.716093" lon="-111.840709"/>
      <trkpt lat="41.716071" lon="-111.840929"/>
      <trkpt lat="41.716003" lon="-111.841188"/>
      <trkpt lat="41.715773" lon="-111.841945"/>
      <trkpt lat="41.715685" lon="-111.842268"/>
      <trkpt lat="41.715490" lon="-111.842860"/>
      <trkpt lat="41.714957" lon="-111.844622"/>
      <trkpt lat="41.714923" lon="-111.844826"/>
      <trkpt lat="41.714917" lon="-111.845009"/>
      <trkpt lat="41.714923" lon="-111.846009"/>
      <trkpt lat="41.714892" lon="-111.846201"/>
      <trkpt lat="41.714824" lon="-111.846427"/>
      <trkpt lat="41.714696" lon="-111.846687"/>
      <trkpt lat="41.714601" lon="-111.846834"/>
      <trkpt lat="41.714147" lon="-111.847360"/>
      <trkpt lat="41.714125" lon="-111.847449"/>
      <trkpt lat="41.714163" lon="-111.847543"/>
      <trkpt lat="41.714251" lon="-111.847666"/>
      <trkpt lat="41.714353" lon="-111.847746"/>
      <trkpt lat="41.714467" lon="-111.847765"/>
      <trkpt lat="41.714621" lon="-111.847765"/>
      <trkpt lat="41.714781" lon="-111.847754"/>
      <trkpt lat="41.715280" lon="-111.847732"/>
      <trkpt lat="41.716064" lon="-111.847714"/>
      <trkpt lat="41.716828" lon="-111.847682"/>
      <trkpt lat="41.716998" lon="-111.847623"/>
      <trkpt lat="41.717136" lon="-111.847542"/>
      <trkpt lat="41.717306" lon="-111.847432"/>
      <trkpt lat="41.717538" lon="-111.847274"/>
      <trkpt lat="41.717699" lon="-111.847137"/>
      <trkpt lat="41.718034" lon="-111.846845"/>
      <trkpt lat="41.718218" lon="-111.846687"/>
      <trkpt lat="41.718342" lon="-111.846623"/>
      <trkpt lat="41.718444" lon="-111.846588"/>
      <trkpt lat="41.718708" lon="-111.846561"/>
      <trkpt lat="41.718740" lon="-111.846553"/>
      <trkpt lat="41.718758" lon="-111.846516"/>
      <trkpt lat="41.718770" lon="-111.846389"/>
      <trkpt lat="41.718745" lon="-111.844276"/>
      <trkpt lat="41.718735" lon="-111.842658"/>
      <trkpt lat="41.718731" lon="-111.842553"/>
      <trkpt lat="41.718771" lon="-111.842486"/>
      <trkpt lat="41.718832" lon="-111.842465"/>
      <trkpt lat="41.718988" lon="-111.842469"/>
      <trkpt lat="41.719546" lon="-111.842431"/>
      <trkpt lat="41.719669" lon="-111.842456"/>
      <trkpt lat="41.720431" lon="-111.842434"/>
      <trkpt lat="41.720512" lon="-111.842441"/>
      <trkpt lat="41.720546" lon="-111.842495"/>
      <trkpt lat="41.720550" lon="-111.842618"/>
      <trkpt lat="41.720550" lon="-111.842964"/>
      <trkpt lat="41.720574" lon="-111.843026"/>
      <trkpt lat="41.720612" lon="-111.843072"/>
      <trkpt lat="41.720712" lon="-111.843072"/>
      <trkpt lat="41.722114" lon="-111.843038"/>
      <trkpt lat="41.724060" lon="-111.842983"/>
      <trkpt lat="41.724240" lon="-111.842967"/>
      <trkpt lat="41.724451" lon="-111.842913"/>
      <trkpt lat="41.724619" lon="-111.842941"/>
      <trkpt lat="41.725973" lon="-111.842900"/>
      <trkpt lat="41.726015" lon="-111.842879"/>
      <trkpt lat="41.726031" lon="-111.842814"/>
      <trkpt lat="41.726019" lon="-111.842095"/>
      <trkpt lat="41.726010" lon="-111.841421"/>
      <trkpt lat="41.725995" lon="-111.840434"/>
      <trkpt lat="41.725957" lon="-111.837956"/>
      <trkpt lat="41.725957" lon="-111.837885"/>
      <trkpt lat="41.725959" lon="-111.837794"/>
      <trkpt lat="41.725987" lon="-111.837747"/>
      <trkpt lat="41.726038" lon="-111.837710"/>
      <trkpt lat="41.726174" lon="-111.837705"/>
      <trkpt lat="41.727317" lon="-111.837678"/>
      <trkpt lat="41.727665" lon="-111.837633"/>
      <trkpt lat="41.727899" lon="-111.837667"/>
      <trkpt lat="41.729504" lon="-111.837620"/>
      <trkpt lat="41.730358" lon="-111.837597"/>
      <trkpt lat="41.730643" lon="-111.837561"/>
      <trkpt lat="41.730793" lon="-111.837587"/>
      <trkpt lat="41.731274" lon="-111.837573"/>
      <trkpt lat="41.731803" lon="-111.837552"/>
      <trkpt lat="41.732012" lon="-111.837512"/>
      <trkpt lat="41.732173" lon="-111.837542"/>
      <trkpt lat="41.733189" lon="-111.837512"/>
      <trkpt lat="41.734101" lon="-111.837488"/>
      <trkpt lat="41.734866" lon="-111.837437"/>
      <trkpt lat="41.735117" lon="-111.837429"/>
      <trkpt lat="41.735169" lon="-111.837427"/>
      <trkpt lat="41.735195" lon="-111.837416"/>
      <trkpt lat="41.735215" lon="-111.837381"/>
      <trkpt lat="41.735221" lon="-111.837319"/>
      <trkpt lat="41.735219" lon="-111.836977"/>
      <trkpt lat="41.735177" lon="-111.836232"/>
      <trkpt lat="41.735197" lon="-111.836017"/>
      <trkpt lat="41.735192" lon="-111.835140"/>
      <trkpt lat="41.735180" lon="-111.834598"/>
      <trkpt lat="41.735150" lon="-111.833089"/>
      <trkpt lat="41.735174" lon="-111.832737"/>
      <trkpt lat="41.735169" lon="-111.832442"/>
      <trkpt lat="41.735171" lon="-111.832294"/>
      <trkpt lat="41.735184" lon="-111.832255"/>
      <trkpt lat="41.735235" lon="-111.832231"/>
      <trkpt lat="41.735287" lon="-111.832219"/>
      <trkpt lat="41.735662" lon="-111.832217"/>
      <trkpt lat="41.735913" lon="-111.832166"/>
      <trkpt lat="41.736019" lon="-111.832206"/>
      <trkpt lat="41.736965" lon="-111.832177"/>
      <trkpt lat="41.737240" lon="-111.832177"/>
      <trkpt lat="41.738872" lon="-111.832120"/>
      <trkpt lat="41.739163" lon="-111.832101"/>
      <trkpt lat="41.739455" lon="-111.832097"/>
      <trkpt lat="41.739598" lon="-111.832108"/>
      <trkpt lat="41.740277" lon="-111.832088"/>
      <trkpt lat="41.740625" lon="-111.832030"/>
      <trkpt lat="41.740799" lon="-111.832020"/>
      <trkpt lat="41.740839" lon="-111.832016"/>
      <trkpt lat="41.740884" lon="-111.831980"/>
      <trkpt lat="41.740905" lon="-111.831895"/>
      <trkpt lat="41.740901" lon="-111.831295"/>
      <trkpt lat="41.740886" lon="-111.830591"/>
      <trkpt lat="41.740866" lon="-111.830449"/>
      <trkpt lat="41.740818" lon="-111.830421"/>
      <trkpt lat="41.740763" lon="-111.830417"/>
      <trkpt lat="41.740699" lon="-111.830422"/>
      <trkpt lat="41.740641" lon="-111.830464"/>
      <trkpt lat="41.740578" lon="-111.830575"/>
      <trkpt lat="41.740535" lon="-111.830665"/>
      <trkpt lat="41.740511" lon="-111.830771"/>
      <trkpt lat="41.740487" lon="-111.830881"/>
      <trkpt lat="41.740493" lon="-111.831050"/>
      <trkpt lat="41.740515" lon="-111.831142"/>
      <trkpt lat="41.740611" lon="-111.831234"/>
      <trkpt lat="41.740615" lon="-111.831237"/>
    </trkseg></trk>
</gpx>
