<?xml version="1.0" encoding="UTF-8"?>
<gpx version="1.1" creator="flagstop" xmlns="http://www.topografix.com/GPX/1/1">
  <trk><name>15 USU, Smithfield, Richmond</name><desc>GTFS shape 19035</desc><trkseg>
      <trkpt lat="41.740435" lon="-111.830874"/>
      <trkpt lat="41.740485" lon="-111.830813"/>
      <trkpt lat="41.740528" lon="-111.830614"/>
      <trkpt lat="41.740616" lon="-111.830489"/>
      <trkpt lat="41.740699" lon="-111.830370"/>
      <trkpt lat="41.740761" lon="-111.830342"/>
      <trkpt lat="41.740837" lon="-111.830300"/>
      <trkpt lat="41.740851" lon="-111.830279"/>
      <trkpt lat="41.740864" lon="-111.830235"/>
      <trkpt lat="41.740865" lon="-111.830187"/>
      <trkpt lat="41.740859" lon="-111.830081"/>
      <trkpt lat="41.740850" lon="-111.829982"/>
      <trkpt lat="41.740842" lon="-111.829900"/>
      <trkpt lat="41.740833" lon="-111.829835"/>
      <trkpt lat="41.740800" lon="-111.829760"/>
      <trkpt lat="41.740757" lon="-111.829672"/>
      <trkpt lat="41.740735" lon="-111.829605"/>
      <trkpt lat="41.740723" lon="-111.829546"/>
      <trkpt lat="41.740738" lon="-111.829479"/>
      <trkpt lat="41.740765" lon="-111.829418"/>
      <trkpt lat="41.740791" lon="-111.829358"/>
      <trkpt lat="41.740808" lon="-111.829276"/>
      <trkpt lat="41.740825" lon="-111.829210"/>
      <trkpt lat="41.740834" lon="-111.829086"/>
      <trkpt lat="41.740839" lon="-111.828980"/>
      <trkpt lat="41.740847" lon="-111.828765"/>
      <trkpt lat="41.740851" lon="-111.828621"/>
      <trkpt lat="41.740821" lon="-111.827051"/>
      <trkpt lat="41.740822" lon="-111.826607"/>
      <trkpt lat="41.740764" lon="-111.823692"/>
      <trkpt lat="41.740727" lon="-111.821491"/>
      <trkpt lat="41.740700" lon="-111.819942"/>
      <trkpt lat="41.740672" lon="-111.819653"/>
      <trkpt lat="41.740625" lon="-111.819483"/>
      <trkpt lat="41.740577" lon="-111.819401"/>
      <trkpt lat="41.740553" lon="-111.819280"/>
      <trkpt lat="41.740580" lon="-111.819168"/>
      <trkpt lat="41.740643" lon="-111.819058"/>
      <trkpt lat="41.740661" lon="-111.818836"/>
      <trkpt lat="41.740676" lon="-111.818692"/>
      <trkpt lat="41.740671" lon="-111.818300"/>
      <trkpt lat="41.740668" lon="-111.818184"/>
      <trkpt lat="41.740650" lon="-111.817326"/>
      <trkpt lat="41.740657" lon="-111.817157"/>
      <trkpt lat="41.740657" lon="-111.816788"/>
      <trkpt lat="41.740668" lon="-111.816751"/>
      <trkpt lat="41.740690" lon="-111.816730"/>
      <trkpt lat="41.740732" lon="-111.816718"/>
      <trkpt lat="41.742177" lon="-111.816690"/>
      <trkpt lat="41.743365" lon="-111.816656"/>
      <trkpt lat="41.743503" lon="-111.816647"/>
      <trkpt lat="41.743622" lon="-111.816631"/>
      <trkpt lat="41.743738" lon="-111.816598"/>
      <trkpt lat="41.743886" lon="-111.816560"/>
      <trkpt lat="41.743999" lon="-111.816524"/>
      <trkpt lat="41.744185" lon="-111.816388"/>
      <trkpt lat="41.744373" lon="-111.816201"/>
      <trkpt lat="41.744447" lon="-111.816045"/>
      <trkpt lat="41.744493" lon="-111.815916"/>
      <trkpt lat="41.744520" lon="-111.815776"/>
      <trkpt lat="41.744528" lon="-111.815650"/>
      <trkpt lat="41.744545" lon="-111.815505"/>
      <trkpt lat="41.744510" lon="-111.814617"/>
      <trkpt lat="41.744490" lon="-111.814279"/>
      <trkpt lat="41.744432" lon="-111.811321"/>
      <trkpt lat="41.744418" lon="-111.810308"/>
      <trkpt lat="41.744412" lon="-111.809280"/>
      <trkpt lat="41.744350" lon="-111.806867"/>
      <trkpt lat="41.744343" lon="-111.806558"/>
      <trkpt lat="41.744322" lon="-111.806276"/>
      <trkpt lat="41.744318" lon="-111.805873"/>
      <trkpt lat="41.744314" lon="-111.805125"/>
      <trkpt lat="41.744297" lon="-111.804490"/>
      <trkpt lat="41.744307" lon="-111.804313"/>
      <trkpt lat="41.744314" lon="-111.804280"/>
      <trkpt lat="41.744325" lon="-111.804258"/>
      <trkpt lat="41.744347" lon="-111.804247"/>
      <trkpt lat="41.744379" lon="-111.804242"/>
      <trkpt lat="41.744499" lon="-111.804242"/>
      <trkpt lat="41.744954" lon="-111.804265"/>
      <trkpt lat="41.745467" lon="-111.804277"/>
      <trkpt lat="41.746094" lon="-111.804286"/>
      <trkpt lat="41.747197" lon="-111.804308"/>
      <trkpt lat="41.747316" lon="-111.804318"/>
      <trkpt lat="41.748015" lon="-111.804332"/>
      <trkpt lat="41.748753" lon="-111.804341"/>
      <trkpt lat="41.749491" lon="-111.804358"/>
      <trkpt lat="41.750239" lon="-111.804368"/>
      <trkpt lat="41.750982" lon="-111.804387"/>
      <trkpt lat="41.751619" lon="-111.804376"/>
      <trkpt lat="41.752456" lon="-111.804378"/>
      <trkpt lat="41.752964" lon="-111.804378"/>
      <trkpt lat="41.753412" lon="-111.804365"/>
      <trkpt lat="41.754166" lon="-111.804339"/>
      <trkpt lat="41.754592" lon="-111.804325"/>
      <trkpt lat="41.755764" lon="-111.804255"/>
      <trkpt lat="41.756676" lon="-111.804244"/>
      <trkpt lat="41.757643" lon="-111.804261"/>
      <trkpt lat="41.757834" lon="-111.804228"/>
      <trkpt lat="41.758623" lon="-111.804283"/>
      <trkpt lat="41.759651" lon="-111.804314"/>
      <trkpt lat="41.760653" lon="-111.804331"/>
      <trkpt lat="41.761710" lon="-111.804346"/>
      <trkpt lat="41.762753" lon="-111.804378"/>
      <trkpt lat="41.763711" lon="-111.804406"/>
      <trkpt lat="41.764714" lon="-111.804430"/>
      <trkpt lat="41.766022" lon="-111.804463"/>
      <trkpt lat="41.767066" lon="-111.804497"/>
      <trkpt lat="41.768325" lon="-111.804500"/>
      <trkpt lat="41.769313" lon="-111.804520"/>
      <trkpt lat="41.769335" lon="-111.804533"/>
      <trkpt lat="41.769352" lon="-111.804564"/>
      <trkpt lat="41.769371" lon="-111.804666"/>
      <trkpt lat="41.769358" lon="-111.806386"/>
      <trkpt lat="41.769355" lon="-111.806969"/>
      <trkpt lat="41.769333" lon="-111.808879"/>
      <trkpt lat="41.769328" lon="-111.810634"/>
      <trkpt lat="41.769312" lon="-111.813431"/>
      <trkpt lat="41.769332" lon="-111.813492"/>
      <trkpt lat="41.769363" lon="-111.813512"/>
      <trkpt lat="41.770311" lon="-111.813491"/>
      <trkpt lat="41.771279" lon="-111.813459"/>
      <trkpt lat="41.772527" lon="-111.813409"/>
      <trkpt lat="41.773919" lon="-111.813366"/>
      <trkpt lat="41.775257" lon="-111.813323"/>
      <trkpt lat="41.777373" lon="-111.813266"/>
      <trkpt lat="41.777984" lon="-111.813248"/>
      <trkpt lat="41.779373" lon="-111.813198"/>
      <trkpt lat="41.780763" lon="-111.813166"/>
      <trkpt lat="41.781887" lon="-111.813142"/>
      <trkpt lat="41.783590" lon="-111.813102"/>
      <trkpt lat="41.785084" lon="-111.813067"/>
      <trkpt lat="41.786146" lon="-111.813034"/>
      <trkpt lat="41.787998" lon="-111.812996"/>
      <trkpt lat="41.790257" lon="-111.812926"/>
      <trkpt lat="41.791836" lon="-111.812883"/>
      <trkpt lat="41.793399" lon="-111.812843"/>
      <trkpt lat="41.794573" lon="-111.812793"/>
      <trkpt lat="41.794843" lon="-111.812826"/>
      <trkpt lat="41.794900" lon="-111.812846"/>
      <trkpt lat="41.794942" lon="-111.812881"/>
      <trkpt lat="41.794960" lon="-111.812938"/>
      <trkpt lat="41.794989" lon="-111.814174"/>
      <trkpt lat="41.795056" lon="-111.816723"/>
      <trkpt lat="41.795085" lon="-111.816769"/>
      <trkpt lat="41.795135" lon="-111.816804"/>
      <trkpt lat="41.795181" lon="-111.816815"/>
      <trkpt lat="41.796903" lon="-111.816799"/>
      <trkpt lat="41.797921" lon="-111.816774"/>
      <trkpt lat="41.798957" lon="-111.816756"/>
      <trkpt lat="41.799025" lon="-111.816766"/>
      <trkpt lat="41.799050" lon="-111.816786"/>
      <trkpt lat="41.799069" lon="-111.816828"/>
      <trkpt lat="41.799078" lon="-111.816880"/>
      <trkpt lat="41.799080" lon="-111.817155"/>
      <trkpt lat="41.799098" lon="-111.817812"/>
      <trkpt lat="41.799119" lon="-111.818920"/>
      <trkpt lat="41.799185" lon="-111.823735"/>
      <trkpt lat="41.799187" lon="-111.826121"/>
      <trkpt lat="41.799211" lon="-111.829062"/>
      <trkpt lat="41.799262" lon="-111.831263"/>
      <trkpt lat="41.799314" lon="-111.832247"/>
      <trkpt lat="41.799325" lon="-111.832643"/>
      <trkpt lat="41.799337" lon="-111.833242"/>
      <trkpt lat="41.799359" lon="-111.833310"/>
      <trkpt lat="41.799391" lon="-111.833348"/>
      <trkpt lat="41.799430" lon="-111.833369"/>
      <trkpt lat="41.799909" lon="-111.833365"/>
      <trkpt lat="41.800609" lon="-111.833368"/>
      <trkpt lat="41.801355" lon="-111.833353"/>
      <trkpt lat="41.802209" lon="-111.833330"/>
      <trkpt lat="41.803776" lon="-111.833304"/>
      <trkpt lat="41.805334" lon="-111.833272"/>
      <trkpt lat="41.806030" lon="-111.833255"/>
      <trkpt lat="41.808523" lon="-111.833208"/>
      <trkpt lat="41.810538" lon="-111.833160"/>
      <trkpt lat="41.812147" lon="-111.833127"/>
      <trkpt lat="41.813891" lon="-111.833091"/>
      <trkpt lat="41.815536" lon="-111.833055"/>
      <trkpt lat="41.817065" lon="-111.833028"/>
      <trkpt lat="41.818603" lon="-111.833004"/>
      <trkpt lat="41.819598" lon="-111.832966"/>
      <trkpt lat="41.820148" lon="-111.832954"/>
      <trkpt lat="41.821910" lon="-111.832940"/>
      <trkpt lat="41.822933" lon="-111.832913"/>
      <trkpt lat="41.823815" lon="-111.832892"/>
      <trkpt lat="41.823856" lon="-111.832868"/>
      <trkpt lat="41.823876" lon="-111.832826"/>
      <trkpt lat="41.823907" lon="-111.832656"/>
      <trkpt lat="41.823918" lon="-111.832494"/>
      <trkpt lat="41.823924" lon="-111.831877"/>
      <trkpt lat="41.823925" lon="-111.831575"/>
      <trkpt lat="41.823927" lon="-111.830365"/>
      <trkpt lat="41.823938" lon="-111.828572"/>
      <trkpt lat="41.823937" lon="-111.827947"/>
      <trkpt lat="41.823931" lon="-111.826418"/>
      <trkpt lat="41.823951" lon="-111.826358"/>
      <trkpt lat="41.823981" lon="-111.826321"/>
      <trkpt lat="41.824014" lon="-111.826301"/>
      <trkpt lat="41.824541" lon="-111.826284"/>
      <trkpt lat="41.825313" lon="-111.826254"/>
      <trkpt lat="41.826109" lon="-111.826228"/>
      <trkpt lat="41.826555" lon="-111.826210"/>
      <trkpt lat="41.826952" lon="-111.826189"/>
      <trkpt lat="41.827767" lon="-111.826164"/>
      <trkpt lat="41.827961" lon="-111.826152"/>
      <trkpt lat="41.827988" lon="-111.826127"/>
      <trkpt lat="41.828003" lon="-111.826095"/>
      <trkpt lat="41.828010" lon="-111.826016"/>
      <trkpt lat="41.827993" lon="-111.824705"/>
      <trkpt lat="41.828012" lon="-111.824615"/>
      <trkpt lat="41.828054" lon="-111.824538"/>
      <trkpt lat="41.828113" lon="-111.824475"/>
      <trkpt lat="41.828187" lon="-111.824439"/>
      <trkpt lat="41.828838" lon="-111.824413"/>
      <trkpt lat="41.829549" lon="-111.824402"/>
      <trkpt lat="41.830236" lon="-111.824382"/>
      <trkpt lat="41.832108" lon="-111.824301"/>
      <trkpt lat="41.833892" lon="-111.824238"/>
      <trkpt lat="41.834069" lon="-111.824256"/>
      <trkpt lat="41.834140" lon="-111.824296"/>
      <trkpt lat="41.834193" lon="-111.824343"/>
      <trkpt lat="41.834220" lon="-111.824396"/>
      <trkpt lat="41.834246" lon="-111.824515"/>
      <trkpt lat="41.834271" lon="-111.825089"/>
      <trkpt lat="41.834326" lon="-111.826089"/>
      <trkpt lat="41.834349" lon="-111.826993"/>
      <trkpt lat="41.834381" lon="-111.828518"/>
      <trkpt lat="41.834393" lon="-111.829548"/>
      <trkpt lat="41.834393" lon="-111.829760"/>
      <trkpt lat="41.834415" lon="-111.829812"/>
      <trkpt lat="41.834446" lon="-111.829837"/>
      <trkpt lat="41.834487" lon="-111.829844"/>
      <trkpt lat="41.836369" lon="-111.829786"/>
      <trkpt lat="41.837776" lon="-111.829758"/>
      <trkpt lat="41.838545" lon="-111.829739"/>
      <trkpt lat="41.838576" lon="-111.829759"/>
      <trkpt lat="41.838597" lon="-111.829799"/>
      <trkpt lat="41.838599" lon="-111.829845"/>
      <trkpt lat="41.838635" lon="-111.831633"/>
      <trkpt lat="41.838636" lon="-111.831924"/>
      <trkpt lat="41.838644" lon="-111.832069"/>
      <trkpt lat="41.838648" lon="-111.832371"/>
      <trkpt lat="41.838654" lon="-111.832430"/>
      <trkpt lat="41.838671" lon="-111.832475"/>
      <trkpt lat="41.838699" lon="-111.832502"/>
      <trkpt lat="41.838742" lon="-111.832523"/>
      <trkpt lat="41.838832" lon="-111.832531"/>
      <trkpt lat="41.840099" lon="-111.832491"/>
      <trkpt lat="41.841309" lon="-111.832458"/>
      <trkpt lat="41.842378" lon="-111.832435"/>
      <trkpt lat="41.843545" lon="-111.832396"/>
      <trkpt lat="41.844692" lon="-111.832369"/>
      <trkpt lat="41.845877" lon="-111.832337"/>
      <trkpt lat="41.846650" lon="-111.832296"/>
      <trkpt lat="41.847474" lon="-111.832224"/>
      <trkpt lat="41.848464" lon="-111.832121"/>
      <trkpt lat="41.849427" lon="-111.832046"/>
      <trkpt lat="41.850078" lon="-111.831988"/>
      <trkpt lat="41.850558" lon="-111.831948"/>
      <trkpt lat="41.851688" lon="-111.831840"/>
      <trkpt lat="41.852738" lon="-111.831746"/>
      <trkpt lat="41.853834" lon="-111.831654"/>
      <trkpt lat="41.854937" lon="-111.831499"/>
      <trkpt lat="41.856007" lon="-111.831297"/>
      <trkpt lat="41.857113" lon="-111.831080"/>
      <trkpt lat="41.858234" lon="-111.830858"/>
      <trkpt lat="41.859361" lon="-111.830627"/>
      <trkpt lat="41.860445" lon="-111.830408"/>
      <trkpt lat="41.861625" lon="-111.830156"/>
      <trkpt lat="41.863914" lon="-111.829568"/>
      <trkpt lat="41.865059" lon="-111.829267"/>
      <trkpt lat="41.866259" lon="-111.828915"/>
      <trkpt lat="41.867379" lon="-111.828558"/>
      <trkpt lat="41.868545" lon="-111.828179"/>
      <trkpt lat="41.869251" lon="-111.827937"/>
      <trkpt lat="41.869866" lon="-111.827691"/>
      <trkpt lat="41.870992" lon="-111.827155"/>
      <trkpt lat="41.871474" lon="-111.826888"/>
      <trkpt lat="41.872636" lon="-111.826161"/>
      <trkpt lat="41.873665" lon="-111.825484"/>
      <trkpt lat="41.874874" lon="-111.824721"/>
      <trkpt lat="41.876074" lon="-111.823951"/>
      <trkpt lat="41.877172" lon="-111.823254"/>
      <trkpt lat="41.878241" lon="-111.822574"/>
      <trkpt lat="41.879284" lon="-111.821907"/>
      <trkpt lat="41.880376" lon="-111.821220"/>
      <trkpt lat="41.881481" lon="-111.820513"/>
      <trkpt lat="41.882631" lon="-111.819766"/>
      <trkpt lat="41.883874" lon="-111.818944"/>
      <trkpt lat="41.885104" lon="-111.818126"/>
      <trkpt lat="41.886291" lon="-111.817323"/>
      <trkpt lat="41.887406" lon="-111.816579"/>
      <trkpt lat="41.888150" lon="-111.816113"/>
      <trkpt lat="41.888983" lon="-111.815654"/>
      <trkpt lat="41.889869" lon="-111.815300"/>
      <trkpt lat="41.890791" lon="-111.815036"/>
      <trkpt lat="41.891779" lon="-111.814872"/>
      <trkpt lat="41.892926" lon="-111.814813"/>
      <trkpt lat="41.894040" lon="-111.814784"/>
      <trkpt lat="41.895167" lon="-111.814750"/>
      <trkpt lat="41.896359" lon="-111.814741"/>
      <trkpt lat="41.897445" lon="-111.814728"/>
      <trkpt lat="41.898558" lon="-111.814718"/>
      <trkpt lat="41.899745" lon="-111.814702"/>
      <trkpt lat="41.900858" lon="-111.814692"/>
      <trkpt lat="41.902004" lon="-111.814675"/>
      <trkpt lat="41.903168" lon="-111.814657"/>
      <trkpt lat="41.904320" lon="-111.814634"/>
      <trkpt lat="41.905477" lon="-111.814605"/>
      <trkpt lat="41.906637" lon="-111.814586"/>
      <trkpt lat="41.907782" lon="-111.814578"/>
      <trkpt lat="41.908977" lon="-111.814567"/>
      <trkpt lat="41.910513" lon="-111.814527"/>
      <trkpt lat="41.910603" lon="-111.814432"/>
      <trkpt lat="41.910577" lon="-111.813917"/>
      <trkpt lat="41.910593" lon="-111.813807"/>
      <trkpt lat="41.910565" lon="-111.809672"/>
      <trkpt lat="41.910574" lon="-111.809555"/>
      <trkpt lat="41.910634" lon="-111.809517"/>
      <trkpt lat="41.911320" lon="-111.809484"/>
      <trkpt lat="41.911846" lon="-111.809254"/>
      <trkpt lat="41.912433" lon="-111.809050"/>
      <trkpt lat="41.913033" lon="-111.808960"/>
      <trkpt lat="41.915826" lon="-111.808869"/>
      <trkpt lat="41.915934" lon="-111.808854"/>
      <trkpt lat="41.916003" lon="-111.808869"/>
      <trkpt lat="41.918522" lon="-111.808789"/>
      <trkpt lat="41.918645" lon="-111.808773"/>
      <trkpt lat="41.918706" lon="-111.808801"/>
      <trkpt lat="41.921954" lon="-111.808669"/>
      <trkpt lat="41.922022" lon="-111.808650"/>
      <trkpt lat="41.922625" lon="-111.808649"/>
      <trkpt lat="41.922693" lon="-111.812206"/>
      <trkpt lat="41.922706" lon="-111.812250"/>
    </trkseg></trk>
</gpx>
