<?xml version="1.0" encoding="UTF-8"?>
<gpx version="1.1" creator="flagstop" xmlns="http://www.topografix.com/GPX/1/1">
  <trk><name>8 </name><desc>GTFS shape 29240</desc><trkseg>
      <trkpt lat="41.740745" lon="-111.831397"/>
      <trkpt lat="41.740779" lon="-111.831475"/>
      <trkpt lat="41.740858" lon="-111.831507"/>
      <trkpt lat="41.740923" lon="-111.831535"/>
      <trkpt lat="41.740942" lon="-111.831616"/>
      <trkpt lat="41.740944" lon="-111.831913"/>
      <trkpt lat="41.740938" lon="-111.832014"/>
      <trkpt lat="41.740884" lon="-111.832100"/>
      <trkpt lat="41.740838" lon="-111.832137"/>
      <trkpt lat="41.740771" lon="-111.832152"/>
      <trkpt lat="41.739612" lon="-111.832187"/>
      <trkpt lat="41.739460" lon="-111.832218"/>
      <trkpt lat="41.739169" lon="-111.832229"/>
      <trkpt lat="41.739130" lon="-111.832229"/>
      <trkpt lat="41.739101" lon="-111.832250"/>
      <trkpt lat="41.739088" lon="-111.832316"/>
      <trkpt lat="41.739091" lon="-111.832430"/>
      <trkpt lat="41.739130" lon="-111.834526"/>
      <trkpt lat="41.739143" lon="-111.835009"/>
      <trkpt lat="41.739173" lon="-111.836520"/>
      <trkpt lat="41.739136" lon="-111.836729"/>
      <trkpt lat="41.739140" lon="-111.837201"/>
      <trkpt lat="41.739150" lon="-111.838286"/>
      <trkpt lat="41.739170" lon="-111.839795"/>
      <trkpt lat="41.739167" lon="-111.840152"/>
      <trkpt lat="41.739201" lon="-111.841177"/>
      <trkpt lat="41.739211" lon="-111.842359"/>
      <trkpt lat="41.739253" lon="-111.844891"/>
      <trkpt lat="41.739251" lon="-111.845060"/>
      <trkpt lat="41.739193" lon="-111.845095"/>
      <trkpt lat="41.739081" lon="-111.845109"/>
      <trkpt lat="41.737454" lon="-111.845141"/>
      <trkpt lat="41.736272" lon="-111.845173"/>
      <trkpt lat="41.736102" lon="-111.845180"/>
      <trkpt lat="41.735573" lon="-111.845232"/>
      <trkpt lat="41.735515" lon="-111.845232"/>
      <trkpt lat="41.735453" lon="-111.845259"/>
      <trkpt lat="41.735433" lon="-111.845310"/>
      <trkpt lat="41.735433" lon="-111.845487"/>
      <trkpt lat="41.735471" lon="-111.847554"/>
      <trkpt lat="41.735503" lon="-111.849471"/>
      <trkpt lat="41.735517" lon="-111.850041"/>
      <trkpt lat="41.735544" lon="-111.851488"/>
      <trkpt lat="41.735578" lon="-111.851883"/>
      <trkpt lat="41.735558" lon="-111.852195"/>
      <trkpt lat="41.735617" lon="-111.856231"/>
      <trkpt lat="41.735649" lon="-111.858364"/>
      <trkpt lat="41.735692" lon="-111.858946"/>
      <trkpt lat="41.735703" lon="-111.859416"/>
      <trkpt lat="41.735722" lon="-111.859488"/>
      <trkpt lat="41.735763" lon="-111.859527"/>
      <trkpt lat="41.735820" lon="-111.859549"/>
      <trkpt lat="41.735926" lon="-111.859553"/>
      <trkpt lat="41.736130" lon="-111.859541"/>
      <trkpt lat="41.736302" lon="-111.859482"/>
      <trkpt lat="41.736467" lon="-111.859523"/>
      <trkpt lat="41.737590" lon="-111.859505"/>
      <trkpt lat="41.738963" lon="-111.859471"/>
      <trkpt lat="41.740151" lon="-111.859391"/>
      <trkpt lat="41.740410" lon="-111.859306"/>
      <trkpt lat="41.740933" lon="-111.859314"/>
      <trkpt lat="41.741656" lon="-111.859218"/>
      <trkpt lat="41.742310" lon="-111.859164"/>
      <trkpt lat="41.742990" lon="-111.859140"/>
      <trkpt lat="41.743326" lon="-111.859128"/>
      <trkpt lat="41.744584" lon="-111.859095"/>
      <trkpt lat="41.744985" lon="-111.859042"/>
      <trkpt lat="41.745195" lon="-111.859070"/>
      <trkpt lat="41.746896" lon="-111.859035"/>
      <trkpt lat="41.747516" lon="-111.859019"/>
      <trkpt lat="41.747844" lon="-111.859006"/>
      <trkpt lat="41.749024" lon="-111.858973"/>
      <trkpt lat="41.750347" lon="-111.858939"/>
      <trkpt lat="41.750816" lon="-111.858908"/>
      <trkpt lat="41.750966" lon="-111.858845"/>
      <trkpt lat="41.751180" lon="-111.858920"/>
      <trkpt lat="41.754505" lon="-111.858825"/>
      <trkpt lat="41.756432" lon="-111.858771"/>
      <trkpt lat="41.756605" lon="-111.858735"/>
      <trkpt lat="41.757022" lon="-111.858712"/>
      <trkpt lat="41.757588" lon="-111.858678"/>
      <trkpt lat="41.757671" lon="-111.858643"/>
      <trkpt lat="41.757762" lon="-111.858541"/>
      <trkpt lat="41.757829" lon="-111.858418"/>
      <trkpt lat="41.757872" lon="-111.858290"/>
      <trkpt lat="41.757895" lon="-111.858155"/>
      <trkpt lat="41.757912" lon="-111.857886"/>
      <trkpt lat="41.757926" lon="-111.857477"/>
      <trkpt lat="41.757926" lon="-111.856739"/>
      <trkpt lat="41.757920" lon="-111.855133"/>
      <trkpt lat="41.757897" lon="-111.854147"/>
      <trkpt lat="41.757853" lon="-111.853448"/>
      <trkpt lat="41.757746" lon="-111.852590"/>
      <trkpt lat="41.757830" lon="-111.852341"/>
      <trkpt lat="41.757815" lon="-111.850060"/>
      <trkpt lat="41.757794" lon="-111.849267"/>
      <trkpt lat="41.757784" lon="-111.849204"/>
      <trkpt lat="41.757761" lon="-111.849172"/>
      <trkpt lat="41.757725" lon="-111.849122"/>
      <trkpt lat="41.757676" lon="-111.849103"/>
      <trkpt lat="41.757553" lon="-111.849093"/>
      <trkpt lat="41.756929" lon="-111.849081"/>
      <trkpt lat="41.756229" lon="-111.849133"/>
      <trkpt lat="41.755950" lon="-111.849115"/>
      <trkpt lat="41.754070" lon="-111.849171"/>
      <trkpt lat="41.752826" lon="-111.849211"/>
      <trkpt lat="41.750584" lon="-111.849303"/>
      <trkpt lat="41.749952" lon="-111.849316"/>
      <trkpt lat="41.749239" lon="-111.849340"/>
      <trkpt lat="41.748778" lon="-111.849356"/>
      <trkpt lat="41.747779" lon="-111.849425"/>
      <trkpt lat="41.746951" lon="-111.849465"/>
      <trkpt lat="41.746782" lon="-111.849450"/>
      <trkpt lat="41.746552" lon="-111.849396"/>
      <trkpt lat="41.746241" lon="-111.849283"/>
      <trkpt lat="41.746064" lon="-111.849259"/>
      <trkpt lat="41.745878" lon="-111.849263"/>
      <trkpt lat="41.744947" lon="-111.849312"/>
      <trkpt lat="41.743798" lon="-111.849365"/>
      <trkpt lat="41.742780" lon="-111.849402"/>
      <trkpt lat="41.741227" lon="-111.849483"/>
      <trkpt lat="41.739419" lon="-111.849576"/>
      <trkpt lat="41.739339" lon="-111.849576"/>
      <trkpt lat="41.739305" lon="-111.849509"/>
      <trkpt lat="41.739279" lon="-111.849393"/>
      <trkpt lat="41.739266" lon="-111.848864"/>
      <trkpt lat="41.739250" lon="-111.847839"/>
      <trkpt lat="41.739248" lon="-111.847472"/>
      <trkpt lat="41.739197" lon="-111.845688"/>
      <trkpt lat="41.739202" lon="-111.845244"/>
      <trkpt lat="41.739199" lon="-111.843369"/>
      <trkpt lat="41.739140" lon="-111.841853"/>
      <trkpt lat="41.739141" lon="-111.841298"/>
      <trkpt lat="41.739076" lon="-111.837595"/>
      <trkpt lat="41.739056" lon="-111.836777"/>
      <trkpt lat="41.738996" lon="-111.836284"/>
      <trkpt lat="41.739022" lon="-111.835994"/>
      <trkpt lat="41.739057" lon="-111.835272"/>
      <trkpt lat="41.739049" lon="-111.835007"/>
      <trkpt lat="41.739059" lon="-111.834787"/>
      <trkpt lat="41.739085" lon="-111.834720"/>
      <trkpt lat="41.739114" lon="-111.834687"/>
      <trkpt lat="41.739160" lon="-111.834676"/>
      <trkpt lat="41.739242" lon="-111.834673"/>
      <trkpt lat="41.739809" lon="-111.834660"/>
      <trkpt lat="41.740445" lon="-111.834648"/>
      <trkpt lat="41.740651" lon="-111.834597"/>
      <trkpt lat="41.740861" lon="-111.834586"/>
      <trkpt lat="41.740902" lon="-111.834568"/>
      <trkpt lat="41.740919" lon="-111.834531"/>
      <trkpt lat="41.740928" lon="-111.834472"/>
      <trkpt lat="41.740915" lon="-111.834093"/>
      <trkpt lat="41.740943" lon="-111.833855"/>
      <trkpt lat="41.740917" lon="-111.832254"/>
      <trkpt lat="41.740909" lon="-111.831680"/>
      <trkpt lat="41.740893" lon="-111.830957"/>
      <trkpt lat="41.740849" lon="-111.830435"/>
      <trkpt lat="41.740816" lon="-111.830405"/>
      <trkpt lat="41.740777" lon="-111.830396"/>
      <trkpt lat="41.740722" lon="-111.830404"/>
      <trkpt lat="41.740628" lon="-111.830486"/>
      <trkpt lat="41.740577" lon="-111.830572"/>
      <trkpt lat="41.740525" lon="-111.830694"/>
      <trkpt lat="41.740499" lon="-111.830825"/>
      <trkpt lat="41.740493" lon="-111.830973"/>
      <trkpt lat="41.740502" lon="-111.831122"/>
      <trkpt lat="41.740604" lon="-111.831301"/>
      <trkpt lat="41.740737" lon="-111.831401"/>
      <trkpt lat="41.740745" lon="-111.831397"/>
    </trkseg></trk>
</gpx>
