<?xml version="1.0" encoding="UTF-8"?>
<gpx version="1.1" creator="flagstop" xmlns="http://www.topografix.com/GPX/1/1">
  <trk><name>15 ROUTE 15 INBOUND</name><desc>GTFS shape 19036</desc><trkseg>
      <trkpt lat="41.922706" lon="-111.812250"/>
      <trkpt lat="41.922732" lon="-111.814173"/>
      <trkpt lat="41.922734" lon="-111.814288"/>
      <trkpt lat="41.922730" lon="-111.814369"/>
      <trkpt lat="41.922697" lon="-111.814418"/>
      <trkpt lat="41.922069" lon="-111.814422"/>
      <trkpt lat="41.921057" lon="-111.814479"/>
      <trkpt lat="41.920104" lon="-111.814492"/>
      <trkpt lat="41.919978" lon="-111.814514"/>
      <trkpt lat="41.919841" lon="-111.814498"/>
      <trkpt lat="41.910058" lon="-111.814721"/>
      <trkpt lat="41.909725" lon="-111.814732"/>
      <trkpt lat="41.908926" lon="-111.814739"/>
      <trkpt lat="41.908195" lon="-111.814747"/>
      <trkpt lat="41.906093" lon="-111.814757"/>
      <trkpt lat="41.904046" lon="-111.814818"/>
      <trkpt lat="41.901955" lon="-111.814856"/>
      <trkpt lat="41.899729" lon="-111.814885"/>
      <trkpt lat="41.897474" lon="-111.814909"/>
      <trkpt lat="41.895218" lon="-111.814924"/>
      <trkpt lat="41.893023" lon="-111.814985"/>
      <trkpt lat="41.891990" lon="-111.815029"/>
      <trkpt lat="41.891901" lon="-111.815040"/>
      <trkpt lat="41.891723" lon="-111.815058"/>
      <trkpt lat="41.891527" lon="-111.815083"/>
      <trkpt lat="41.891229" lon="-111.815128"/>
      <trkpt lat="41.890798" lon="-111.815216"/>
      <trkpt lat="41.890421" lon="-111.815304"/>
      <trkpt lat="41.889662" lon="-111.815551"/>
      <trkpt lat="41.888879" lon="-111.815894"/>
      <trkpt lat="41.888125" lon="-111.816313"/>
      <trkpt lat="41.887179" lon="-111.816942"/>
      <trkpt lat="41.886106" lon="-111.817652"/>
      <trkpt lat="41.885054" lon="-111.818358"/>
      <trkpt lat="41.883851" lon="-111.819159"/>
      <trkpt lat="41.882691" lon="-111.819931"/>
      <trkpt lat="41.881463" lon="-111.820729"/>
      <trkpt lat="41.880228" lon="-111.821509"/>
      <trkpt lat="41.879034" lon="-111.822266"/>
      <trkpt lat="41.878170" lon="-111.822824"/>
      <trkpt lat="41.877136" lon="-111.823483"/>
      <trkpt lat="41.875967" lon="-111.824224"/>
      <trkpt lat="41.874792" lon="-111.824975"/>
      <trkpt lat="41.873599" lon="-111.825732"/>
      <trkpt lat="41.872429" lon="-111.826495"/>
      <trkpt lat="41.871285" lon="-111.827196"/>
      <trkpt lat="41.870176" lon="-111.827745"/>
      <trkpt lat="41.869039" lon="-111.828197"/>
      <trkpt lat="41.867835" lon="-111.828598"/>
      <trkpt lat="41.866599" lon="-111.829002"/>
      <trkpt lat="41.865437" lon="-111.829359"/>
      <trkpt lat="41.864254" lon="-111.829668"/>
      <trkpt lat="41.863110" lon="-111.829973"/>
      <trkpt lat="41.861877" lon="-111.830281"/>
      <trkpt lat="41.861079" lon="-111.830465"/>
      <trkpt lat="41.859994" lon="-111.830687"/>
      <trkpt lat="41.858910" lon="-111.830910"/>
      <trkpt lat="41.857797" lon="-111.831129"/>
      <trkpt lat="41.856715" lon="-111.831347"/>
      <trkpt lat="41.855649" lon="-111.831548"/>
      <trkpt lat="41.854554" lon="-111.831731"/>
      <trkpt lat="41.853734" lon="-111.831832"/>
      <trkpt lat="41.852783" lon="-111.831917"/>
      <trkpt lat="41.851744" lon="-111.832023"/>
      <trkpt lat="41.850625" lon="-111.832113"/>
      <trkpt lat="41.849957" lon="-111.832190"/>
      <trkpt lat="41.848454" lon="-111.832324"/>
      <trkpt lat="41.847386" lon="-111.832424"/>
      <trkpt lat="41.846279" lon="-111.832495"/>
      <trkpt lat="41.845847" lon="-111.832528"/>
      <trkpt lat="41.844287" lon="-111.832565"/>
      <trkpt lat="41.842883" lon="-111.832602"/>
      <trkpt lat="41.841402" lon="-111.832647"/>
      <trkpt lat="41.840496" lon="-111.832684"/>
      <trkpt lat="41.840411" lon="-111.832712"/>
      <trkpt lat="41.839815" lon="-111.832687"/>
      <trkpt lat="41.839548" lon="-111.832645"/>
      <trkpt lat="41.839252" lon="-111.832648"/>
      <trkpt lat="41.839048" lon="-111.832613"/>
      <trkpt lat="41.838658" lon="-111.832619"/>
      <trkpt lat="41.838614" lon="-111.832583"/>
      <trkpt lat="41.838581" lon="-111.832533"/>
      <trkpt lat="41.838556" lon="-111.832481"/>
      <trkpt lat="41.838548" lon="-111.832404"/>
      <trkpt lat="41.838548" lon="-111.832076"/>
      <trkpt lat="41.838564" lon="-111.831892"/>
      <trkpt lat="41.838560" lon="-111.831468"/>
      <trkpt lat="41.838534" lon="-111.831262"/>
      <trkpt lat="41.838570" lon="-111.830877"/>
      <trkpt lat="41.838550" lon="-111.829890"/>
      <trkpt lat="41.838536" lon="-111.829837"/>
      <trkpt lat="41.838499" lon="-111.829818"/>
      <trkpt lat="41.838432" lon="-111.829813"/>
      <trkpt lat="41.837405" lon="-111.829827"/>
      <trkpt lat="41.836543" lon="-111.829846"/>
      <trkpt lat="41.835595" lon="-111.829873"/>
      <trkpt lat="41.834578" lon="-111.829898"/>
      <trkpt lat="41.834401" lon="-111.829905"/>
      <trkpt lat="41.834366" lon="-111.829884"/>
      <trkpt lat="41.834346" lon="-111.829846"/>
      <trkpt lat="41.834336" lon="-111.829777"/>
      <trkpt lat="41.834338" lon="-111.829353"/>
      <trkpt lat="41.834321" lon="-111.828074"/>
      <trkpt lat="41.834298" lon="-111.827025"/>
      <trkpt lat="41.834283" lon="-111.826130"/>
      <trkpt lat="41.834246" lon="-111.825449"/>
      <trkpt lat="41.834214" lon="-111.824650"/>
      <trkpt lat="41.834202" lon="-111.824477"/>
      <trkpt lat="41.834175" lon="-111.824425"/>
      <trkpt lat="41.834138" lon="-111.824379"/>
      <trkpt lat="41.834079" lon="-111.824339"/>
      <trkpt lat="41.833997" lon="-111.824313"/>
      <trkpt lat="41.833530" lon="-111.824312"/>
      <trkpt lat="41.832908" lon="-111.824325"/>
      <trkpt lat="41.832325" lon="-111.824362"/>
      <trkpt lat="41.831245" lon="-111.824396"/>
      <trkpt lat="41.830240" lon="-111.824432"/>
      <trkpt lat="41.829292" lon="-111.824475"/>
      <trkpt lat="41.828242" lon="-111.824505"/>
      <trkpt lat="41.828157" lon="-111.824534"/>
      <trkpt lat="41.828106" lon="-111.824570"/>
      <trkpt lat="41.828069" lon="-111.824644"/>
      <trkpt lat="41.828047" lon="-111.824736"/>
      <trkpt lat="41.828064" lon="-111.826112"/>
      <trkpt lat="41.828046" lon="-111.826192"/>
      <trkpt lat="41.828000" lon="-111.826230"/>
      <trkpt lat="41.827938" lon="-111.826231"/>
      <trkpt lat="41.826792" lon="-111.826269"/>
      <trkpt lat="41.826387" lon="-111.826287"/>
      <trkpt lat="41.825693" lon="-111.826311"/>
      <trkpt lat="41.824561" lon="-111.826351"/>
      <trkpt lat="41.824033" lon="-111.826361"/>
      <trkpt lat="41.823997" lon="-111.826373"/>
      <trkpt lat="41.823982" lon="-111.826404"/>
      <trkpt lat="41.823983" lon="-111.826473"/>
      <trkpt lat="41.823980" lon="-111.827935"/>
      <trkpt lat="41.823975" lon="-111.828531"/>
      <trkpt lat="41.823965" lon="-111.830429"/>
      <trkpt lat="41.823974" lon="-111.831417"/>
      <trkpt lat="41.823963" lon="-111.832828"/>
      <trkpt lat="41.823960" lon="-111.832902"/>
      <trkpt lat="41.823948" lon="-111.832981"/>
      <trkpt lat="41.823923" lon="-111.833024"/>
      <trkpt lat="41.823871" lon="-111.833041"/>
      <trkpt lat="41.823492" lon="-111.833051"/>
      <trkpt lat="41.823163" lon="-111.833103"/>
      <trkpt lat="41.822095" lon="-111.833112"/>
      <trkpt lat="41.820845" lon="-111.833142"/>
      <trkpt lat="41.820501" lon="-111.833190"/>
      <trkpt lat="41.819686" lon="-111.833148"/>
      <trkpt lat="41.818421" lon="-111.833172"/>
      <trkpt lat="41.817184" lon="-111.833197"/>
      <trkpt lat="41.816007" lon="-111.833221"/>
      <trkpt lat="41.814773" lon="-111.833247"/>
      <trkpt lat="41.812725" lon="-111.833287"/>
      <trkpt lat="41.810468" lon="-111.833336"/>
      <trkpt lat="41.808238" lon="-111.833385"/>
      <trkpt lat="41.806098" lon="-111.833427"/>
      <trkpt lat="41.803734" lon="-111.833477"/>
      <trkpt lat="41.801497" lon="-111.833542"/>
      <trkpt lat="41.800965" lon="-111.833547"/>
      <trkpt lat="41.800472" lon="-111.833497"/>
      <trkpt lat="41.800084" lon="-111.833479"/>
      <trkpt lat="41.799836" lon="-111.833470"/>
      <trkpt lat="41.799312" lon="-111.833471"/>
      <trkpt lat="41.799269" lon="-111.833447"/>
      <trkpt lat="41.799239" lon="-111.833404"/>
      <trkpt lat="41.799222" lon="-111.833344"/>
      <trkpt lat="41.799224" lon="-111.832286"/>
      <trkpt lat="41.799205" lon="-111.830129"/>
      <trkpt lat="41.799178" lon="-111.828134"/>
      <trkpt lat="41.799145" lon="-111.826045"/>
      <trkpt lat="41.799111" lon="-111.823067"/>
      <trkpt lat="41.799074" lon="-111.819508"/>
      <trkpt lat="41.799050" lon="-111.818175"/>
      <trkpt lat="41.799019" lon="-111.816888"/>
      <trkpt lat="41.799006" lon="-111.816856"/>
      <trkpt lat="41.798990" lon="-111.816829"/>
      <trkpt lat="41.798970" lon="-111.816808"/>
      <trkpt lat="41.798940" lon="-111.816799"/>
      <trkpt lat="41.797467" lon="-111.816832"/>
      <trkpt lat="41.796749" lon="-111.816852"/>
      <trkpt lat="41.795122" lon="-111.816860"/>
      <trkpt lat="41.795078" lon="-111.816847"/>
      <trkpt lat="41.795050" lon="-111.816820"/>
      <trkpt lat="41.795035" lon="-111.816788"/>
      <trkpt lat="41.795028" lon="-111.816723"/>
      <trkpt lat="41.794975" lon="-111.814717"/>
      <trkpt lat="41.794944" lon="-111.813459"/>
      <trkpt lat="41.794929" lon="-111.813017"/>
      <trkpt lat="41.794908" lon="-111.812952"/>
      <trkpt lat="41.794882" lon="-111.812925"/>
      <trkpt lat="41.794835" lon="-111.812894"/>
      <trkpt lat="41.794780" lon="-111.812882"/>
      <trkpt lat="41.794738" lon="-111.812879"/>
      <trkpt lat="41.794457" lon="-111.812878"/>
      <trkpt lat="41.793635" lon="-111.812879"/>
      <trkpt lat="41.793016" lon="-111.812897"/>
      <trkpt lat="41.792138" lon="-111.812922"/>
      <trkpt lat="41.791189" lon="-111.812952"/>
      <trkpt lat="41.790272" lon="-111.812974"/>
      <trkpt lat="41.789210" lon="-111.813002"/>
      <trkpt lat="41.788278" lon="-111.813038"/>
      <trkpt lat="41.787334" lon="-111.813055"/>
      <trkpt lat="41.786398" lon="-111.813092"/>
      <trkpt lat="41.785416" lon="-111.813133"/>
      <trkpt lat="41.784389" lon="-111.813144"/>
      <trkpt lat="41.783076" lon="-111.813185"/>
      <trkpt lat="41.782485" lon="-111.813198"/>
      <trkpt lat="41.781524" lon="-111.813204"/>
      <trkpt lat="41.780611" lon="-111.813217"/>
      <trkpt lat="41.779783" lon="-111.813247"/>
      <trkpt lat="41.778870" lon="-111.813279"/>
      <trkpt lat="41.777921" lon="-111.813306"/>
      <trkpt lat="41.777246" lon="-111.813331"/>
      <trkpt lat="41.776168" lon="-111.813357"/>
      <trkpt lat="41.775319" lon="-111.813384"/>
      <trkpt lat="41.774437" lon="-111.813412"/>
      <trkpt lat="41.773626" lon="-111.813431"/>
      <trkpt lat="41.772795" lon="-111.813459"/>
      <trkpt lat="41.772318" lon="-111.813467"/>
      <trkpt lat="41.771542" lon="-111.813505"/>
      <trkpt lat="41.770636" lon="-111.813534"/>
      <trkpt lat="41.769816" lon="-111.813553"/>
      <trkpt lat="41.769326" lon="-111.813570"/>
      <trkpt lat="41.769316" lon="-111.813567"/>
      <trkpt lat="41.769305" lon="-111.813555"/>
      <trkpt lat="41.769290" lon="-111.813525"/>
      <trkpt lat="41.769287" lon="-111.812270"/>
      <trkpt lat="41.769296" lon="-111.811069"/>
      <trkpt lat="41.769300" lon="-111.809834"/>
      <trkpt lat="41.769316" lon="-111.806317"/>
      <trkpt lat="41.769320" lon="-111.804693"/>
      <trkpt lat="41.769309" lon="-111.804660"/>
      <trkpt lat="41.769291" lon="-111.804625"/>
      <trkpt lat="41.769261" lon="-111.804594"/>
      <trkpt lat="41.769200" lon="-111.804584"/>
      <trkpt lat="41.767998" lon="-111.804587"/>
      <trkpt lat="41.767353" lon="-111.804558"/>
      <trkpt lat="41.766239" lon="-111.804518"/>
      <trkpt lat="41.765018" lon="-111.804484"/>
      <trkpt lat="41.763720" lon="-111.804449"/>
      <trkpt lat="41.762466" lon="-111.804419"/>
      <trkpt lat="41.761642" lon="-111.804420"/>
      <trkpt lat="41.759858" lon="-111.804359"/>
      <trkpt lat="41.758554" lon="-111.804328"/>
      <trkpt lat="41.757240" lon="-111.804325"/>
      <trkpt lat="41.756683" lon="-111.804319"/>
      <trkpt lat="41.755981" lon="-111.804324"/>
      <trkpt lat="41.754775" lon="-111.804372"/>
      <trkpt lat="41.753602" lon="-111.804432"/>
      <trkpt lat="41.752507" lon="-111.804451"/>
      <trkpt lat="41.751628" lon="-111.804464"/>
      <trkpt lat="41.750275" lon="-111.804425"/>
      <trkpt lat="41.749182" lon="-111.804416"/>
      <trkpt lat="41.748072" lon="-111.804389"/>
      <trkpt lat="41.747129" lon="-111.804399"/>
      <trkpt lat="41.745830" lon="-111.804346"/>
      <trkpt lat="41.745006" lon="-111.804342"/>
      <trkpt lat="41.744660" lon="-111.804375"/>
      <trkpt lat="41.744459" lon="-111.804367"/>
      <trkpt lat="41.744417" lon="-111.804368"/>
      <trkpt lat="41.744405" lon="-111.804375"/>
      <trkpt lat="41.744385" lon="-111.804395"/>
      <trkpt lat="41.744368" lon="-111.804418"/>
      <trkpt lat="41.744358" lon="-111.804451"/>
      <trkpt lat="41.744353" lon="-111.804494"/>
      <trkpt lat="41.744383" lon="-111.805742"/>
      <trkpt lat="41.744392" lon="-111.806378"/>
      <trkpt lat="41.744384" lon="-111.806482"/>
      <trkpt lat="41.744435" lon="-111.807223"/>
      <trkpt lat="41.744428" lon="-111.808482"/>
      <trkpt lat="41.744463" lon="-111.810537"/>
      <trkpt lat="41.744495" lon="-111.810989"/>
      <trkpt lat="41.744526" lon="-111.812253"/>
      <trkpt lat="41.744531" lon="-111.812924"/>
      <trkpt lat="41.744522" lon="-111.813414"/>
      <trkpt lat="41.744534" lon="-111.813950"/>
      <trkpt lat="41.744555" lon="-111.815324"/>
      <trkpt lat="41.744520" lon="-111.815798"/>
      <trkpt lat="41.744479" lon="-111.816000"/>
      <trkpt lat="41.744416" lon="-111.816169"/>
      <trkpt lat="41.744308" lon="-111.816343"/>
      <trkpt lat="41.744208" lon="-111.816442"/>
      <trkpt lat="41.744053" lon="-111.816556"/>
      <trkpt lat="41.743896" lon="-111.816634"/>
      <trkpt lat="41.743739" lon="-111.816682"/>
      <trkpt lat="41.743522" lon="-111.816695"/>
      <trkpt lat="41.743197" lon="-111.816716"/>
      <trkpt lat="41.742721" lon="-111.816735"/>
      <trkpt lat="41.741730" lon="-111.816770"/>
      <trkpt lat="41.741112" lon="-111.816788"/>
      <trkpt lat="41.740950" lon="-111.816825"/>
      <trkpt lat="41.740780" lon="-111.816832"/>
      <trkpt lat="41.740742" lon="-111.816842"/>
      <trkpt lat="41.740723" lon="-111.816871"/>
      <trkpt lat="41.740713" lon="-111.816908"/>
      <trkpt lat="41.740705" lon="-111.816959"/>
      <trkpt lat="41.740688" lon="-111.817333"/>
      <trkpt lat="41.740704" lon="-111.818311"/>
      <trkpt lat="41.740715" lon="-111.818714"/>
      <trkpt lat="41.740733" lon="-111.818948"/>
      <trkpt lat="41.740778" lon="-111.819078"/>
      <trkpt lat="41.740821" lon="-111.819163"/>
      <trkpt lat="41.740857" lon="-111.819254"/>
      <trkpt lat="41.740843" lon="-111.819394"/>
      <trkpt lat="41.740792" lon="-111.819507"/>
      <trkpt lat="41.740765" lon="-111.819582"/>
      <trkpt lat="41.740752" lon="-111.819743"/>
      <trkpt lat="41.740736" lon="-111.819940"/>
      <trkpt lat="41.740761" lon="-111.821327"/>
      <trkpt lat="41.740788" lon="-111.822173"/>
      <trkpt lat="41.740790" lon="-111.823314"/>
      <trkpt lat="41.740871" lon="-111.827304"/>
      <trkpt lat="41.740889" lon="-111.828655"/>
      <trkpt lat="41.740904" lon="-111.829049"/>
      <trkpt lat="41.740911" lon="-111.829216"/>
      <trkpt lat="41.740936" lon="-111.829338"/>
      <trkpt lat="41.740969" lon="-111.829414"/>
      <trkpt lat="41.741004" lon="-111.829469"/>
      <trkpt lat="41.741021" lon="-111.829524"/>
      <trkpt lat="41.741020" lon="-111.829576"/>
      <trkpt lat="41.740999" lon="-111.829662"/>
      <trkpt lat="41.740965" lon="-111.829715"/>
      <trkpt lat="41.740943" lon="-111.829798"/>
      <trkpt lat="41.740923" lon="-111.829924"/>
      <trkpt lat="41.740915" lon="-111.830091"/>
      <trkpt lat="41.740919" lon="-111.830339"/>
      <trkpt lat="41.740917" lon="-111.830474"/>
      <trkpt lat="41.740926" lon="-111.831418"/>
      <trkpt lat="41.740904" lon="-111.831468"/>
      <trkpt lat="41.740877" lon="-111.831496"/>
      <trkpt lat="41.740852" lon="-111.831502"/>
      <trkpt lat="41.740807" lon="-111.831507"/>
      <trkpt lat="41.740740" lon="-111.831494"/>
      <trkpt lat="41.740643" lon="-111.831406"/>
      <trkpt lat="41.740514" lon="-111.831218"/>
      <trkpt lat="41.740435" lon="-111.830874"/>
    </trkseg></trk>
</gpx>
