<?xml version="1.0" encoding="UTF-8"?>
<gpx version="1.1" creator="flagstop" xmlns="http://www.topografix.com/GPX/1/1">
  <trk><name>9 </name><desc>GTFS shape 28203</desc><trkseg>
      <trkpt lat="41.740562" lon="-111.830728"/>
      <trkpt lat="41.740531" lon="-111.831086"/>
      <trkpt lat="41.740668" lon="-111.831412"/>
      <trkpt lat="41.740717" lon="-111.831461"/>
      <trkpt lat="41.740774" lon="-111.831477"/>
      <trkpt lat="41.740803" lon="-111.831482"/>
      <trkpt lat="41.740827" lon="-111.831486"/>
      <trkpt lat="41.740853" lon="-111.831492"/>
      <trkpt lat="41.740876" lon="-111.831498"/>
      <trkpt lat="41.740895" lon="-111.831505"/>
      <trkpt lat="41.740906" lon="-111.831514"/>
      <trkpt lat="41.740918" lon="-111.831529"/>
      <trkpt lat="41.740927" lon="-111.831552"/>
      <trkpt lat="41.740935" lon="-111.831889"/>
      <trkpt lat="41.740983" lon="-111.834440"/>
      <trkpt lat="41.740963" lon="-111.834961"/>
      <trkpt lat="41.740991" lon="-111.836378"/>
      <trkpt lat="41.740975" lon="-111.837447"/>
      <trkpt lat="41.741004" lon="-111.839729"/>
      <trkpt lat="41.741005" lon="-111.839762"/>
      <trkpt lat="41.741010" lon="-111.839791"/>
      <trkpt lat="41.741018" lon="-111.839810"/>
      <trkpt lat="41.741028" lon="-111.839821"/>
      <trkpt lat="41.741043" lon="-111.839831"/>
      <trkpt lat="41.742173" lon="-111.839802"/>
      <trkpt lat="41.742757" lon="-111.839795"/>
      <trkpt lat="41.744277" lon="-111.839748"/>
      <trkpt lat="41.744386" lon="-111.839735"/>
      <trkpt lat="41.744482" lon="-111.839716"/>
      <trkpt lat="41.744599" lon="-111.839683"/>
      <trkpt lat="41.744711" lon="-111.839637"/>
      <trkpt lat="41.744889" lon="-111.839574"/>
      <trkpt lat="41.744984" lon="-111.839542"/>
      <trkpt lat="41.745118" lon="-111.839523"/>
      <trkpt lat="41.745208" lon="-111.839514"/>
      <trkpt lat="41.746438" lon="-111.839482"/>
      <trkpt lat="41.748832" lon="-111.839394"/>
      <trkpt lat="41.752096" lon="-111.839341"/>
      <trkpt lat="41.752318" lon="-111.839351"/>
      <trkpt lat="41.752499" lon="-111.839370"/>
      <trkpt lat="41.752760" lon="-111.839384"/>
      <trkpt lat="41.753141" lon="-111.839353"/>
      <trkpt lat="41.754918" lon="-111.839315"/>
      <trkpt lat="41.755041" lon="-111.839296"/>
      <trkpt lat="41.755242" lon="-111.839273"/>
      <trkpt lat="41.755403" lon="-111.839250"/>
      <trkpt lat="41.755726" lon="-111.839232"/>
      <trkpt lat="41.757177" lon="-111.839192"/>
      <trkpt lat="41.757333" lon="-111.839221"/>
      <trkpt lat="41.757566" lon="-111.839218"/>
      <trkpt lat="41.757586" lon="-111.839217"/>
      <trkpt lat="41.757609" lon="-111.839218"/>
      <trkpt lat="41.757630" lon="-111.839222"/>
      <trkpt lat="41.757653" lon="-111.839232"/>
      <trkpt lat="41.757675" lon="-111.839248"/>
      <trkpt lat="41.757693" lon="-111.839266"/>
      <trkpt lat="41.757708" lon="-111.839288"/>
      <trkpt lat="41.757723" lon="-111.839325"/>
      <trkpt lat="41.757731" lon="-111.839357"/>
      <trkpt lat="41.757733" lon="-111.839398"/>
      <trkpt lat="41.757743" lon="-111.839837"/>
      <trkpt lat="41.757770" lon="-111.841184"/>
      <trkpt lat="41.757812" lon="-111.844578"/>
      <trkpt lat="41.757860" lon="-111.845376"/>
      <trkpt lat="41.757834" lon="-111.846222"/>
      <trkpt lat="41.757845" lon="-111.847402"/>
      <trkpt lat="41.757868" lon="-111.848860"/>
      <trkpt lat="41.757868" lon="-111.848890"/>
      <trkpt lat="41.757872" lon="-111.848918"/>
      <trkpt lat="41.757884" lon="-111.848934"/>
      <trkpt lat="41.757902" lon="-111.848950"/>
      <trkpt lat="41.757928" lon="-111.848954"/>
      <trkpt lat="41.757953" lon="-111.848956"/>
      <trkpt lat="41.758336" lon="-111.848947"/>
      <trkpt lat="41.759287" lon="-111.848929"/>
      <trkpt lat="41.765073" lon="-111.848817"/>
      <trkpt lat="41.765134" lon="-111.848804"/>
      <trkpt lat="41.765189" lon="-111.848777"/>
      <trkpt lat="41.765212" lon="-111.848746"/>
      <trkpt lat="41.765224" lon="-111.848726"/>
      <trkpt lat="41.765239" lon="-111.848695"/>
      <trkpt lat="41.765248" lon="-111.848652"/>
      <trkpt lat="41.765248" lon="-111.848651"/>
      <trkpt lat="41.765256" lon="-111.848596"/>
      <trkpt lat="41.765259" lon="-111.848541"/>
      <trkpt lat="41.765208" lon="-111.847732"/>
      <trkpt lat="41.765171" lon="-111.845209"/>
      <trkpt lat="41.765120" lon="-111.843281"/>
      <trkpt lat="41.765140" lon="-111.841245"/>
      <trkpt lat="41.765069" lon="-111.840943"/>
      <trkpt lat="41.765123" lon="-111.840685"/>
      <trkpt lat="41.765084" lon="-111.839242"/>
      <trkpt lat="41.765078" lon="-111.839176"/>
      <trkpt lat="41.765065" lon="-111.839130"/>
      <trkpt lat="41.765043" lon="-111.839101"/>
      <trkpt lat="41.765014" lon="-111.839093"/>
      <trkpt lat="41.764945" lon="-111.839091"/>
      <trkpt lat="41.764603" lon="-111.839091"/>
      <trkpt lat="41.763473" lon="-111.839121"/>
      <trkpt lat="41.763342" lon="-111.839125"/>
      <trkpt lat="41.761575" lon="-111.839165"/>
      <trkpt lat="41.758554" lon="-111.839252"/>
      <trkpt lat="41.757814" lon="-111.839281"/>
      <trkpt lat="41.757253" lon="-111.839287"/>
      <trkpt lat="41.756220" lon="-111.839315"/>
      <trkpt lat="41.755961" lon="-111.839308"/>
      <trkpt lat="41.755385" lon="-111.839327"/>
      <trkpt lat="41.754699" lon="-111.839426"/>
      <trkpt lat="41.754044" lon="-111.839447"/>
      <trkpt lat="41.753683" lon="-111.839453"/>
      <trkpt lat="41.752785" lon="-111.839470"/>
      <trkpt lat="41.752523" lon="-111.839467"/>
      <trkpt lat="41.752423" lon="-111.839448"/>
      <trkpt lat="41.752293" lon="-111.839416"/>
      <trkpt lat="41.751559" lon="-111.839427"/>
      <trkpt lat="41.750338" lon="-111.839468"/>
      <trkpt lat="41.749756" lon="-111.839471"/>
      <trkpt lat="41.749329" lon="-111.839488"/>
      <trkpt lat="41.748542" lon="-111.839493"/>
      <trkpt lat="41.747456" lon="-111.839554"/>
      <trkpt lat="41.746396" lon="-111.839583"/>
      <trkpt lat="41.745150" lon="-111.839621"/>
      <trkpt lat="41.744830" lon="-111.839672"/>
      <trkpt lat="41.744507" lon="-111.839803"/>
      <trkpt lat="41.744262" lon="-111.839837"/>
      <trkpt lat="41.743809" lon="-111.839849"/>
      <trkpt lat="41.743646" lon="-111.839890"/>
      <trkpt lat="41.742958" lon="-111.839861"/>
      <trkpt lat="41.742429" lon="-111.839940"/>
      <trkpt lat="41.741089" lon="-111.839959"/>
      <trkpt lat="41.741030" lon="-111.839958"/>
      <trkpt lat="41.740984" lon="-111.839953"/>
      <trkpt lat="41.740977" lon="-111.839929"/>
      <trkpt lat="41.740969" lon="-111.839878"/>
      <trkpt lat="41.740967" lon="-111.839817"/>
      <trkpt lat="41.740965" lon="-111.839752"/>
      <trkpt lat="41.740950" lon="-111.838274"/>
      <trkpt lat="41.740942" lon="-111.837484"/>
      <trkpt lat="41.740936" lon="-111.836449"/>
      <trkpt lat="41.740919" lon="-111.834961"/>
      <trkpt lat="41.740922" lon="-111.833980"/>
      <trkpt lat="41.740942" lon="-111.833809"/>
      <trkpt lat="41.740928" lon="-111.833318"/>
      <trkpt lat="41.740914" lon="-111.832242"/>
      <trkpt lat="41.740897" lon="-111.831411"/>
      <trkpt lat="41.740878" lon="-111.830478"/>
      <trkpt lat="41.740870" lon="-111.830436"/>
      <trkpt lat="41.740845" lon="-111.830422"/>
      <trkpt lat="41.740817" lon="-111.830418"/>
      <trkpt lat="41.740786" lon="-111.830417"/>
      <trkpt lat="41.740702" lon="-111.830440"/>
      <trkpt lat="41.740655" lon="-111.830472"/>
      <trkpt lat="41.740606" lon="-111.830559"/>
      <trkpt lat="41.740573" lon="-111.830708"/>
      <trkpt lat="41.740562" lon="-111.830728"/>
    </trkseg></trk>
</gpx>
