<?xml version="1.0" encoding="UTF-8"?>
<gpx version="1.1" creator="flagstop" xmlns="http://www.topografix.com/GPX/1/1">
  <trk><name>12 Hyrum, Transit Center</name><desc>GTFS shape 20937</desc><trkseg>
      <trkpt lat="41.634036" lon="-111.857147"/>
      <trkpt lat="41.634026" lon="-111.855351"/>
      <trkpt lat="41.633997" lon="-111.855289"/>
      <trkpt lat="41.633939" lon="-111.855268"/>
      <trkpt lat="41.632091" lon="-111.855336"/>
      <trkpt lat="41.631259" lon="-111.855352"/>
      <trkpt lat="41.629667" lon="-111.855416"/>
      <trkpt lat="41.628149" lon="-111.855521"/>
      <trkpt lat="41.627816" lon="-111.855518"/>
      <trkpt lat="41.627784" lon="-111.855480"/>
      <trkpt lat="41.627757" lon="-111.855396"/>
      <trkpt lat="41.627644" lon="-111.851859"/>
      <trkpt lat="41.627590" lon="-111.850308"/>
      <trkpt lat="41.627581" lon="-111.849996"/>
      <trkpt lat="41.627545" lon="-111.848097"/>
      <trkpt lat="41.627509" lon="-111.844794"/>
      <trkpt lat="41.627468" lon="-111.843594"/>
      <trkpt lat="41.627428" lon="-111.841648"/>
      <trkpt lat="41.627366" lon="-111.838390"/>
      <trkpt lat="41.627266" lon="-111.832725"/>
      <trkpt lat="41.627225" lon="-111.831968"/>
      <trkpt lat="41.627185" lon="-111.831729"/>
      <trkpt lat="41.627135" lon="-111.831341"/>
      <trkpt lat="41.627139" lon="-111.830842"/>
      <trkpt lat="41.627138" lon="-111.826855"/>
      <trkpt lat="41.627119" lon="-111.822423"/>
      <trkpt lat="41.627148" lon="-111.821146"/>
      <trkpt lat="41.627148" lon="-111.820588"/>
      <trkpt lat="41.627180" lon="-111.820162"/>
      <trkpt lat="41.627177" lon="-111.819886"/>
      <trkpt lat="41.627206" lon="-111.819851"/>
      <trkpt lat="41.627268" lon="-111.819848"/>
      <trkpt lat="41.627990" lon="-111.819831"/>
      <trkpt lat="41.628364" lon="-111.819826"/>
      <trkpt lat="41.628505" lon="-111.819800"/>
      <trkpt lat="41.628709" lon="-111.819737"/>
      <trkpt lat="41.629716" lon="-111.819231"/>
      <trkpt lat="41.630381" lon="-111.818931"/>
      <trkpt lat="41.630495" lon="-111.818896"/>
      <trkpt lat="41.631649" lon="-111.818897"/>
      <trkpt lat="41.634289" lon="-111.818926"/>
      <trkpt lat="41.634333" lon="-111.818957"/>
      <trkpt lat="41.634373" lon="-111.819034"/>
      <trkpt lat="41.634408" lon="-111.819113"/>
      <trkpt lat="41.634395" lon="-111.821235"/>
      <trkpt lat="41.634373" lon="-111.825803"/>
      <trkpt lat="41.634364" lon="-111.827299"/>
      <trkpt lat="41.634384" lon="-111.828206"/>
      <trkpt lat="41.634361" lon="-111.828745"/>
      <trkpt lat="41.634325" lon="-111.829108"/>
      <trkpt lat="41.634285" lon="-111.829374"/>
      <trkpt lat="41.634179" lon="-111.829799"/>
      <trkpt lat="41.634062" lon="-111.830213"/>
      <trkpt lat="41.633785" lon="-111.831078"/>
      <trkpt lat="41.633695" lon="-111.831615"/>
      <trkpt lat="41.633666" lon="-111.831886"/>
      <trkpt lat="41.633653" lon="-111.832124"/>
      <trkpt lat="41.633647" lon="-111.832352"/>
      <trkpt lat="41.633645" lon="-111.832417"/>
      <trkpt lat="41.633657" lon="-111.832477"/>
      <trkpt lat="41.633687" lon="-111.832530"/>
      <trkpt lat="41.633753" lon="-111.832544"/>
      <trkpt lat="41.637242" lon="-111.832569"/>
      <trkpt lat="41.639203" lon="-111.832579"/>
      <trkpt lat="41.641017" lon="-111.832602"/>
      <trkpt lat="41.645828" lon="-111.832649"/>
      <trkpt lat="41.648864" lon="-111.832663"/>
      <trkpt lat="41.652105" lon="-111.832682"/>
      <trkpt lat="41.655160" lon="-111.832690"/>
      <trkpt lat="41.657328" lon="-111.832701"/>
      <trkpt lat="41.657576" lon="-111.832713"/>
      <trkpt lat="41.657872" lon="-111.832738"/>
      <trkpt lat="41.658308" lon="-111.832804"/>
      <trkpt lat="41.658843" lon="-111.832916"/>
      <trkpt lat="41.659632" lon="-111.833158"/>
      <trkpt lat="41.660719" lon="-111.833474"/>
      <trkpt lat="41.661001" lon="-111.833531"/>
      <trkpt lat="41.661405" lon="-111.833583"/>
      <trkpt lat="41.661742" lon="-111.833613"/>
      <trkpt lat="41.662947" lon="-111.833602"/>
      <trkpt lat="41.664070" lon="-111.833544"/>
      <trkpt lat="41.665483" lon="-111.833531"/>
      <trkpt lat="41.666815" lon="-111.833483"/>
      <trkpt lat="41.670555" lon="-111.833399"/>
      <trkpt lat="41.673934" lon="-111.833302"/>
      <trkpt lat="41.675746" lon="-111.833262"/>
      <trkpt lat="41.676591" lon="-111.833259"/>
      <trkpt lat="41.677391" lon="-111.833297"/>
      <trkpt lat="41.678988" lon="-111.833392"/>
      <trkpt lat="41.680644" lon="-111.833494"/>
      <trkpt lat="41.682197" lon="-111.833594"/>
      <trkpt lat="41.683867" lon="-111.833691"/>
      <trkpt lat="41.684813" lon="-111.833739"/>
      <trkpt lat="41.686030" lon="-111.833781"/>
      <trkpt lat="41.686451" lon="-111.833794"/>
      <trkpt lat="41.687807" lon="-111.833858"/>
      <trkpt lat="41.689368" lon="-111.834000"/>
      <trkpt lat="41.690957" lon="-111.834145"/>
      <trkpt lat="41.692533" lon="-111.834293"/>
      <trkpt lat="41.694196" lon="-111.834455"/>
      <trkpt lat="41.695847" lon="-111.834607"/>
      <trkpt lat="41.697563" lon="-111.834769"/>
      <trkpt lat="41.698497" lon="-111.834843"/>
      <trkpt lat="41.699005" lon="-111.834864"/>
      <trkpt lat="41.700706" lon="-111.834820"/>
      <trkpt lat="41.702446" lon="-111.834770"/>
      <trkpt lat="41.704736" lon="-111.834694"/>
      <trkpt lat="41.707086" lon="-111.834610"/>
      <trkpt lat="41.709031" lon="-111.834541"/>
      <trkpt lat="41.710008" lon="-111.834514"/>
      <trkpt lat="41.711523" lon="-111.834464"/>
      <trkpt lat="41.711780" lon="-111.834468"/>
      <trkpt lat="41.712056" lon="-111.834490"/>
      <trkpt lat="41.712404" lon="-111.834531"/>
      <trkpt lat="41.712780" lon="-111.834593"/>
      <trkpt lat="41.713498" lon="-111.834714"/>
      <trkpt lat="41.713745" lon="-111.834736"/>
      <trkpt lat="41.713992" lon="-111.834762"/>
      <trkpt lat="41.715771" lon="-111.834755"/>
      <trkpt lat="41.715883" lon="-111.834766"/>
      <trkpt lat="41.716139" lon="-111.834810"/>
      <trkpt lat="41.716400" lon="-111.834864"/>
      <trkpt lat="41.716764" lon="-111.834974"/>
      <trkpt lat="41.717332" lon="-111.835179"/>
      <trkpt lat="41.717606" lon="-111.835243"/>
      <trkpt lat="41.718045" lon="-111.835253"/>
      <trkpt lat="41.718533" lon="-111.835239"/>
      <trkpt lat="41.719811" lon="-111.835184"/>
      <trkpt lat="41.721305" lon="-111.835160"/>
      <trkpt lat="41.723340" lon="-111.835106"/>
      <trkpt lat="41.724431" lon="-111.835056"/>
      <trkpt lat="41.727379" lon="-111.834986"/>
      <trkpt lat="41.729415" lon="-111.834931"/>
      <trkpt lat="41.732392" lon="-111.834858"/>
      <trkpt lat="41.733570" lon="-111.834827"/>
      <trkpt lat="41.736706" lon="-111.834711"/>
      <trkpt lat="41.737647" lon="-111.834697"/>
      <trkpt lat="41.740379" lon="-111.834626"/>
      <trkpt lat="41.740655" lon="-111.834574"/>
      <trkpt lat="41.740862" lon="-111.834566"/>
      <trkpt lat="41.740883" lon="-111.834549"/>
      <trkpt lat="41.740897" lon="-111.834515"/>
      <trkpt lat="41.740908" lon="-111.834461"/>
      <trkpt lat="41.740917" lon="-111.834133"/>
      <trkpt lat="41.740936" lon="-111.833855"/>
      <trkpt lat="41.740876" lon="-111.831711"/>
      <trkpt lat="41.740868" lon="-111.831577"/>
      <trkpt lat="41.740835" lon="-111.831517"/>
      <trkpt lat="41.740770" lon="-111.831464"/>
      <trkpt lat="41.740646" lon="-111.831419"/>
      <trkpt lat="41.740568" lon="-111.831324"/>
      <trkpt lat="41.740459" lon="-111.831139"/>
    </trkseg></trk>
</gpx>
