<?xml version="1.0" encoding="UTF-8"?>
<gpx version="1.1" creator="flagstop" xmlns="http://www.topografix.com/GPX/1/1">
  <trk><name>12 Southbound</name><desc>GTFS shape 31903</desc><trkseg>
      <trkpt lat="41.740459" lon="-111.831139"/>
      <trkpt lat="41.740482" lon="-111.830830"/>
      <trkpt lat="41.740518" lon="-111.830665"/>
      <trkpt lat="41.740644" lon="-111.830443"/>
      <trkpt lat="41.740801" lon="-111.830316"/>
      <trkpt lat="41.740849" lon="-111.830267"/>
      <trkpt lat="41.740859" lon="-111.830162"/>
      <trkpt lat="41.740848" lon="-111.829903"/>
      <trkpt lat="41.740807" lon="-111.829758"/>
      <trkpt lat="41.740753" lon="-111.829682"/>
      <trkpt lat="41.740626" lon="-111.829605"/>
      <trkpt lat="41.739997" lon="-111.829611"/>
      <trkpt lat="41.739151" lon="-111.829656"/>
      <trkpt lat="41.739101" lon="-111.829664"/>
      <trkpt lat="41.739074" lon="-111.829679"/>
      <trkpt lat="41.739052" lon="-111.829719"/>
      <trkpt lat="41.739039" lon="-111.829821"/>
      <trkpt lat="41.739073" lon="-111.831680"/>
      <trkpt lat="41.739062" lon="-111.832981"/>
      <trkpt lat="41.739056" lon="-111.833641"/>
      <trkpt lat="41.739066" lon="-111.834520"/>
      <trkpt lat="41.739069" lon="-111.834716"/>
      <trkpt lat="41.739056" lon="-111.834789"/>
      <trkpt lat="41.739039" lon="-111.834834"/>
      <trkpt lat="41.738973" lon="-111.834862"/>
      <trkpt lat="41.738232" lon="-111.834883"/>
      <trkpt lat="41.737855" lon="-111.834933"/>
      <trkpt lat="41.735354" lon="-111.834965"/>
      <trkpt lat="41.732193" lon="-111.835067"/>
      <trkpt lat="41.728964" lon="-111.835133"/>
      <trkpt lat="41.724815" lon="-111.835264"/>
      <trkpt lat="41.723267" lon="-111.835319"/>
      <trkpt lat="41.719542" lon="-111.835392"/>
      <trkpt lat="41.719145" lon="-111.835353"/>
      <trkpt lat="41.717829" lon="-111.835396"/>
      <trkpt lat="41.717590" lon="-111.835377"/>
      <trkpt lat="41.717374" lon="-111.835352"/>
      <trkpt lat="41.717154" lon="-111.835304"/>
      <trkpt lat="41.716815" lon="-111.835185"/>
      <trkpt lat="41.716516" lon="-111.835085"/>
      <trkpt lat="41.716202" lon="-111.835006"/>
      <trkpt lat="41.715833" lon="-111.834950"/>
      <trkpt lat="41.715375" lon="-111.834938"/>
      <trkpt lat="41.714477" lon="-111.834946"/>
      <trkpt lat="41.713928" lon="-111.834940"/>
      <trkpt lat="41.713592" lon="-111.834917"/>
      <trkpt lat="41.713305" lon="-111.834871"/>
      <trkpt lat="41.712823" lon="-111.834771"/>
      <trkpt lat="41.712581" lon="-111.834745"/>
      <trkpt lat="41.712331" lon="-111.834689"/>
      <trkpt lat="41.712056" lon="-111.834669"/>
      <trkpt lat="41.711716" lon="-111.834646"/>
      <trkpt lat="41.711329" lon="-111.834660"/>
      <trkpt lat="41.709490" lon="-111.834717"/>
      <trkpt lat="41.708557" lon="-111.834752"/>
      <trkpt lat="41.705903" lon="-111.834841"/>
      <trkpt lat="41.703259" lon="-111.834936"/>
      <trkpt lat="41.700548" lon="-111.835012"/>
      <trkpt lat="41.699206" lon="-111.835037"/>
      <trkpt lat="41.698782" lon="-111.835036"/>
      <trkpt lat="41.698251" lon="-111.835010"/>
      <trkpt lat="41.697511" lon="-111.834941"/>
      <trkpt lat="41.696497" lon="-111.834850"/>
      <trkpt lat="41.695027" lon="-111.834708"/>
      <trkpt lat="41.693426" lon="-111.834560"/>
      <trkpt lat="41.691728" lon="-111.834405"/>
      <trkpt lat="41.690076" lon="-111.834250"/>
      <trkpt lat="41.687653" lon="-111.834027"/>
      <trkpt lat="41.686670" lon="-111.833996"/>
      <trkpt lat="41.684926" lon="-111.833938"/>
      <trkpt lat="41.683895" lon="-111.833889"/>
      <trkpt lat="41.681203" lon="-111.833753"/>
      <trkpt lat="41.678001" lon="-111.833530"/>
      <trkpt lat="41.676466" lon="-111.833443"/>
      <trkpt lat="41.675708" lon="-111.833459"/>
      <trkpt lat="41.673717" lon="-111.833520"/>
      <trkpt lat="41.671809" lon="-111.833564"/>
      <trkpt lat="41.669919" lon="-111.833600"/>
      <trkpt lat="41.667912" lon="-111.833656"/>
      <trkpt lat="41.666093" lon="-111.833722"/>
      <trkpt lat="41.664788" lon="-111.833733"/>
      <trkpt lat="41.663215" lon="-111.833800"/>
      <trkpt lat="41.661830" lon="-111.833791"/>
      <trkpt lat="41.661404" lon="-111.833770"/>
      <trkpt lat="41.660919" lon="-111.833696"/>
      <trkpt lat="41.660221" lon="-111.833534"/>
      <trkpt lat="41.659405" lon="-111.833281"/>
      <trkpt lat="41.658917" lon="-111.833135"/>
      <trkpt lat="41.658499" lon="-111.833028"/>
      <trkpt lat="41.658050" lon="-111.832947"/>
      <trkpt lat="41.657529" lon="-111.832896"/>
      <trkpt lat="41.656924" lon="-111.832884"/>
      <trkpt lat="41.653871" lon="-111.832871"/>
      <trkpt lat="41.650822" lon="-111.832853"/>
      <trkpt lat="41.648082" lon="-111.832844"/>
      <trkpt lat="41.645243" lon="-111.832822"/>
      <trkpt lat="41.641644" lon="-111.832790"/>
      <trkpt lat="41.639611" lon="-111.832765"/>
      <trkpt lat="41.636171" lon="-111.832729"/>
      <trkpt lat="41.634218" lon="-111.832714"/>
      <trkpt lat="41.633740" lon="-111.832723"/>
      <trkpt lat="41.633702" lon="-111.832727"/>
      <trkpt lat="41.633664" lon="-111.832766"/>
      <trkpt lat="41.633640" lon="-111.832840"/>
      <trkpt lat="41.633638" lon="-111.832934"/>
      <trkpt lat="41.633679" lon="-111.834777"/>
      <trkpt lat="41.633796" lon="-111.841321"/>
      <trkpt lat="41.633832" lon="-111.842847"/>
      <trkpt lat="41.633967" lon="-111.849464"/>
      <trkpt lat="41.634052" lon="-111.853162"/>
      <trkpt lat="41.634174" lon="-111.857599"/>
      <trkpt lat="41.634177" lon="-111.858447"/>
      <trkpt lat="41.634213" lon="-111.860481"/>
      <trkpt lat="41.634238" lon="-111.860576"/>
      <trkpt lat="41.634302" lon="-111.860634"/>
      <trkpt lat="41.634379" lon="-111.860679"/>
      <trkpt lat="41.635016" lon="-111.860671"/>
      <trkpt lat="41.635843" lon="-111.860662"/>
      <trkpt lat="41.636784" lon="-111.860627"/>
      <trkpt lat="41.637509" lon="-111.860593"/>
      <trkpt lat="41.638129" lon="-111.860563"/>
      <trkpt lat="41.639274" lon="-111.860517"/>
      <trkpt lat="41.640249" lon="-111.860479"/>
      <trkpt lat="41.640409" lon="-111.860487"/>
      <trkpt lat="41.640433" lon="-111.860601"/>
      <trkpt lat="41.640453" lon="-111.860945"/>
      <trkpt lat="41.640443" lon="-111.861063"/>
      <trkpt lat="41.640448" lon="-111.861182"/>
      <trkpt lat="41.640455" lon="-111.861288"/>
      <trkpt lat="41.640458" lon="-111.861390"/>
      <trkpt lat="41.640463" lon="-111.861554"/>
      <trkpt lat="41.640462" lon="-111.862302"/>
      <trkpt lat="41.640474" lon="-111.862598"/>
      <trkpt lat="41.640490" lon="-111.862966"/>
      <trkpt lat="41.640488" lon="-111.863171"/>
      <trkpt lat="41.640496" lon="-111.863318"/>
      <trkpt lat="41.640503" lon="-111.863400"/>
      <trkpt lat="41.640503" lon="-111.863497"/>
      <trkpt lat="41.640507" lon="-111.863751"/>
      <trkpt lat="41.640511" lon="-111.864150"/>
      <trkpt lat="41.640531" lon="-111.864927"/>
      <trkpt lat="41.640543" lon="-111.866019"/>
      <trkpt lat="41.640538" lon="-111.866063"/>
      <trkpt lat="41.640530" lon="-111.866076"/>
      <trkpt lat="41.640519" lon="-111.866081"/>
      <trkpt lat="41.640503" lon="-111.866089"/>
      <trkpt lat="41.640467" lon="-111.866088"/>
      <trkpt lat="41.639758" lon="-111.866110"/>
      <trkpt lat="41.639346" lon="-111.866136"/>
      <trkpt lat="41.638388" lon="-111.866202"/>
      <trkpt lat="41.637158" lon="-111.866266"/>
      <trkpt lat="41.636392" lon="-111.866308"/>
      <trkpt lat="41.635176" lon="-111.866403"/>
      <trkpt lat="41.634470" lon="-111.866440"/>
      <trkpt lat="41.634327" lon="-111.866405"/>
      <trkpt lat="41.634272" lon="-111.866346"/>
      <trkpt lat="41.634238" lon="-111.866260"/>
      <trkpt lat="41.634244" lon="-111.865932"/>
      <trkpt lat="41.634198" lon="-111.863419"/>
      <trkpt lat="41.634148" lon="-111.860805"/>
      <trkpt lat="41.634075" lon="-111.858144"/>
      <trkpt lat="41.634036" lon="-111.857147"/>
    </trkseg></trk>
</gpx>
