<?xml version="1.0" encoding="UTF-8"?>
<gpx version="1.1" creator="flagstop" xmlns="http://www.topografix.com/GPX/1/1">
  <trk><name>16 PM Southbound</name><desc>GTFS shape 27489</desc><trkseg>
      <trkpt lat="42.094759" lon="-111.874098"/>
      <trkpt lat="42.092197" lon="-111.874048"/>
      <trkpt lat="42.092157" lon="-111.874075"/>
      <trkpt lat="42.092124" lon="-111.874146"/>
      <trkpt lat="42.092122" lon="-111.876101"/>
      <trkpt lat="42.092101" lon="-111.876375"/>
      <trkpt lat="42.092095" lon="-111.876543"/>
      <trkpt lat="42.092084" lon="-111.876608"/>
      <trkpt lat="42.092058" lon="-111.876650"/>
      <trkpt lat="42.092007" lon="-111.876666"/>
      <trkpt lat="42.091564" lon="-111.876674"/>
      <trkpt lat="42.091373" lon="-111.876667"/>
      <trkpt lat="42.091244" lon="-111.876650"/>
      <trkpt lat="42.091159" lon="-111.876623"/>
      <trkpt lat="42.091090" lon="-111.876589"/>
      <trkpt lat="42.091023" lon="-111.876545"/>
      <trkpt lat="42.090916" lon="-111.876453"/>
      <trkpt lat="42.090445" lon="-111.875939"/>
      <trkpt lat="42.089954" lon="-111.875345"/>
      <trkpt lat="42.089014" lon="-111.874214"/>
      <trkpt lat="42.086762" lon="-111.871491"/>
      <trkpt lat="42.085895" lon="-111.870440"/>
      <trkpt lat="42.084273" lon="-111.868494"/>
      <trkpt lat="42.082946" lon="-111.866911"/>
      <trkpt lat="42.082071" lon="-111.865847"/>
      <trkpt lat="42.081867" lon="-111.865568"/>
      <trkpt lat="42.081604" lon="-111.865194"/>
      <trkpt lat="42.081305" lon="-111.864712"/>
      <trkpt lat="42.080919" lon="-111.864026"/>
      <trkpt lat="42.080334" lon="-111.862934"/>
      <trkpt lat="42.076913" lon="-111.856658"/>
      <trkpt lat="42.075614" lon="-111.854324"/>
      <trkpt lat="42.074853" lon="-111.853034"/>
      <trkpt lat="42.074254" lon="-111.851971"/>
      <trkpt lat="42.073525" lon="-111.850683"/>
      <trkpt lat="42.072064" lon="-111.848031"/>
      <trkpt lat="42.069879" lon="-111.844029"/>
      <trkpt lat="42.068478" lon="-111.841605"/>
      <trkpt lat="42.067429" lon="-111.839925"/>
      <trkpt lat="42.065731" lon="-111.837243"/>
      <trkpt lat="42.064432" lon="-111.835091"/>
      <trkpt lat="42.063334" lon="-111.833301"/>
      <trkpt lat="42.062178" lon="-111.831402"/>
      <trkpt lat="42.060928" lon="-111.829367"/>
      <trkpt lat="42.059743" lon="-111.827436"/>
      <trkpt lat="42.058589" lon="-111.825535"/>
      <trkpt lat="42.056984" lon="-111.822925"/>
      <trkpt lat="42.055856" lon="-111.821072"/>
      <trkpt lat="42.054013" lon="-111.818093"/>
      <trkpt lat="42.053556" lon="-111.817421"/>
      <trkpt lat="42.053090" lon="-111.816869"/>
      <trkpt lat="42.052621" lon="-111.816425"/>
      <trkpt lat="42.052141" lon="-111.816079"/>
      <trkpt lat="42.051709" lon="-111.815813"/>
      <trkpt lat="42.051243" lon="-111.815587"/>
      <trkpt lat="42.050765" lon="-111.815426"/>
      <trkpt lat="42.050262" lon="-111.815335"/>
      <trkpt lat="42.049729" lon="-111.815299"/>
      <trkpt lat="42.048828" lon="-111.815219"/>
      <trkpt lat="42.047297" lon="-111.815057"/>
      <trkpt lat="42.046385" lon="-111.814925"/>
      <trkpt lat="42.045119" lon="-111.814702"/>
      <trkpt lat="42.043556" lon="-111.814402"/>
      <trkpt lat="42.042299" lon="-111.814174"/>
      <trkpt lat="42.040583" lon="-111.813805"/>
      <trkpt lat="42.038377" lon="-111.813364"/>
      <trkpt lat="42.036199" lon="-111.812934"/>
      <trkpt lat="42.034285" lon="-111.812555"/>
      <trkpt lat="42.033612" lon="-111.812416"/>
      <trkpt lat="42.032919" lon="-111.812185"/>
      <trkpt lat="42.032077" lon="-111.811792"/>
      <trkpt lat="42.031464" lon="-111.811423"/>
      <trkpt lat="42.030352" lon="-111.810747"/>
      <trkpt lat="42.029527" lon="-111.810248"/>
      <trkpt lat="42.028951" lon="-111.809926"/>
      <trkpt lat="42.027753" lon="-111.809307"/>
      <trkpt lat="42.026538" lon="-111.808612"/>
      <trkpt lat="42.025060" lon="-111.807709"/>
      <trkpt lat="42.022267" lon="-111.806028"/>
      <trkpt lat="42.021205" lon="-111.805396"/>
      <trkpt lat="42.020360" lon="-111.804902"/>
      <trkpt lat="42.019886" lon="-111.804654"/>
      <trkpt lat="42.019234" lon="-111.804442"/>
      <trkpt lat="42.018789" lon="-111.804367"/>
      <trkpt lat="42.018505" lon="-111.804338"/>
      <trkpt lat="42.016776" lon="-111.804425"/>
      <trkpt lat="42.015884" lon="-111.804440"/>
      <trkpt lat="42.015105" lon="-111.804472"/>
      <trkpt lat="42.014288" lon="-111.804500"/>
      <trkpt lat="42.014062" lon="-111.804538"/>
      <trkpt lat="42.013694" lon="-111.804632"/>
      <trkpt lat="42.013290" lon="-111.804813"/>
      <trkpt lat="42.012920" lon="-111.805013"/>
      <trkpt lat="42.012225" lon="-111.805572"/>
      <trkpt lat="42.011117" lon="-111.806589"/>
      <trkpt lat="42.008083" lon="-111.809330"/>
      <trkpt lat="42.007741" lon="-111.809584"/>
      <trkpt lat="42.006870" lon="-111.810238"/>
      <trkpt lat="42.004600" lon="-111.811919"/>
      <trkpt lat="42.004334" lon="-111.812093"/>
      <trkpt lat="42.003977" lon="-111.812295"/>
      <trkpt lat="42.003520" lon="-111.812510"/>
      <trkpt lat="42.003087" lon="-111.812671"/>
      <trkpt lat="42.002582" lon="-111.812791"/>
      <trkpt lat="42.001871" lon="-111.812894"/>
      <trkpt lat="42.001277" lon="-111.812899"/>
      <trkpt lat="41.999897" lon="-111.812893"/>
      <trkpt lat="41.992222" lon="-111.812867"/>
      <trkpt lat="41.985549" lon="-111.812858"/>
      <trkpt lat="41.976147" lon="-111.812931"/>
      <trkpt lat="41.976098" lon="-111.812956"/>
      <trkpt lat="41.976058" lon="-111.813032"/>
      <trkpt lat="41.976061" lon="-111.813347"/>
      <trkpt lat="41.976080" lon="-111.814872"/>
      <trkpt lat="41.976099" lon="-111.815610"/>
      <trkpt lat="41.976116" lon="-111.816400"/>
      <trkpt lat="41.976129" lon="-111.818416"/>
      <trkpt lat="41.976135" lon="-111.820652"/>
      <trkpt lat="41.976143" lon="-111.823131"/>
      <trkpt lat="41.976153" lon="-111.825741"/>
      <trkpt lat="41.976150" lon="-111.826756"/>
      <trkpt lat="41.976133" lon="-111.828402"/>
      <trkpt lat="41.976111" lon="-111.830971"/>
      <trkpt lat="41.976084" lon="-111.833575"/>
      <trkpt lat="41.976060" lon="-111.836137"/>
      <trkpt lat="41.976035" lon="-111.838744"/>
      <trkpt lat="41.976015" lon="-111.841281"/>
      <trkpt lat="41.975998" lon="-111.843874"/>
      <trkpt lat="41.975977" lon="-111.846445"/>
      <trkpt lat="41.975960" lon="-111.848973"/>
      <trkpt lat="41.975955" lon="-111.851103"/>
      <trkpt lat="41.975953" lon="-111.851378"/>
      <trkpt lat="41.975942" lon="-111.853900"/>
      <trkpt lat="41.975935" lon="-111.856609"/>
      <trkpt lat="41.975912" lon="-111.856689"/>
      <trkpt lat="41.975867" lon="-111.856724"/>
      <trkpt lat="41.973863" lon="-111.856727"/>
      <trkpt lat="41.973834" lon="-111.856762"/>
      <trkpt lat="41.973826" lon="-111.856833"/>
      <trkpt lat="41.973809" lon="-111.859374"/>
      <trkpt lat="41.973821" lon="-111.859421"/>
      <trkpt lat="41.973856" lon="-111.859451"/>
      <trkpt lat="41.974436" lon="-111.859462"/>
      <trkpt lat="41.975801" lon="-111.859479"/>
      <trkpt lat="41.975837" lon="-111.859470"/>
      <trkpt lat="41.975851" lon="-111.859442"/>
      <trkpt lat="41.975880" lon="-111.857975"/>
      <trkpt lat="41.975874" lon="-111.856767"/>
      <trkpt lat="41.975914" lon="-111.852103"/>
      <trkpt lat="41.975934" lon="-111.848850"/>
      <trkpt lat="41.975946" lon="-111.846079"/>
      <trkpt lat="41.975966" lon="-111.843530"/>
      <trkpt lat="41.975987" lon="-111.841232"/>
      <trkpt lat="41.976010" lon="-111.838829"/>
      <trkpt lat="41.976028" lon="-111.837472"/>
      <trkpt lat="41.976013" lon="-111.837369"/>
      <trkpt lat="41.975982" lon="-111.837314"/>
      <trkpt lat="41.975954" lon="-111.837293"/>
      <trkpt lat="41.975895" lon="-111.837285"/>
      <trkpt lat="41.971971" lon="-111.837245"/>
      <trkpt lat="41.971931" lon="-111.837243"/>
      <trkpt lat="41.971899" lon="-111.837234"/>
      <trkpt lat="41.971875" lon="-111.837193"/>
      <trkpt lat="41.971867" lon="-111.837128"/>
      <trkpt lat="41.971922" lon="-111.831021"/>
      <trkpt lat="41.971920" lon="-111.830850"/>
      <trkpt lat="41.971933" lon="-111.830588"/>
      <trkpt lat="41.971947" lon="-111.830553"/>
      <trkpt lat="41.971976" lon="-111.830534"/>
      <trkpt lat="41.972048" lon="-111.830521"/>
      <trkpt lat="41.976005" lon="-111.830575"/>
      <trkpt lat="41.976042" lon="-111.830569"/>
      <trkpt lat="41.976071" lon="-111.830543"/>
      <trkpt lat="41.976091" lon="-111.830506"/>
      <trkpt lat="41.976100" lon="-111.830464"/>
      <trkpt lat="41.976111" lon="-111.828056"/>
      <trkpt lat="41.976126" lon="-111.826496"/>
      <trkpt lat="41.976125" lon="-111.824899"/>
      <trkpt lat="41.976117" lon="-111.823251"/>
      <trkpt lat="41.976105" lon="-111.820116"/>
      <trkpt lat="41.976099" lon="-111.817861"/>
      <trkpt lat="41.976082" lon="-111.816227"/>
      <trkpt lat="41.976000" lon="-111.814231"/>
      <trkpt lat="41.975986" lon="-111.813064"/>
      <trkpt lat="41.975956" lon="-111.812986"/>
      <trkpt lat="41.975901" lon="-111.812951"/>
      <trkpt lat="41.975841" lon="-111.812933"/>
      <trkpt lat="41.974677" lon="-111.812940"/>
      <trkpt lat="41.973556" lon="-111.812938"/>
      <trkpt lat="41.970572" lon="-111.812900"/>
      <trkpt lat="41.967209" lon="-111.812923"/>
      <trkpt lat="41.964683" lon="-111.812933"/>
      <trkpt lat="41.962410" lon="-111.812942"/>
      <trkpt lat="41.960194" lon="-111.812951"/>
      <trkpt lat="41.958361" lon="-111.812993"/>
      <trkpt lat="41.956838" lon="-111.813049"/>
      <trkpt lat="41.955039" lon="-111.813173"/>
      <trkpt lat="41.953149" lon="-111.813334"/>
      <trkpt lat="41.952159" lon="-111.813385"/>
      <trkpt lat="41.949895" lon="-111.813468"/>
      <trkpt lat="41.947761" lon="-111.813579"/>
      <trkpt lat="41.945416" lon="-111.813720"/>
      <trkpt lat="41.942954" lon="-111.813866"/>
      <trkpt lat="41.941243" lon="-111.813967"/>
      <trkpt lat="41.941191" lon="-111.814042"/>
      <trkpt lat="41.941187" lon="-111.814190"/>
      <trkpt lat="41.941137" lon="-111.814247"/>
      <trkpt lat="41.939939" lon="-111.814333"/>
      <trkpt lat="41.938765" lon="-111.814334"/>
      <trkpt lat="41.938723" lon="-111.814214"/>
      <trkpt lat="41.938705" lon="-111.814123"/>
      <trkpt lat="41.938659" lon="-111.814043"/>
      <trkpt lat="41.938515" lon="-111.814005"/>
      <trkpt lat="41.938165" lon="-111.814018"/>
      <trkpt lat="41.935730" lon="-111.814038"/>
      <trkpt lat="41.933288" lon="-111.814109"/>
      <trkpt lat="41.930877" lon="-111.814179"/>
      <trkpt lat="41.928513" lon="-111.814245"/>
      <trkpt lat="41.926135" lon="-111.814308"/>
      <trkpt lat="41.923825" lon="-111.814389"/>
      <trkpt lat="41.922843" lon="-111.814414"/>
      <trkpt lat="41.919978" lon="-111.814514"/>
      <trkpt lat="41.917063" lon="-111.814538"/>
      <trkpt lat="41.914726" lon="-111.814608"/>
      <trkpt lat="41.912437" lon="-111.814660"/>
      <trkpt lat="41.910016" lon="-111.814712"/>
      <trkpt lat="41.908304" lon="-111.814735"/>
      <trkpt lat="41.906002" lon="-111.814763"/>
      <trkpt lat="41.903670" lon="-111.814823"/>
      <trkpt lat="41.901309" lon="-111.814863"/>
      <trkpt lat="41.898890" lon="-111.814890"/>
      <trkpt lat="41.896598" lon="-111.814906"/>
      <trkpt lat="41.894706" lon="-111.814947"/>
      <trkpt lat="41.892425" lon="-111.814998"/>
      <trkpt lat="41.891868" lon="-111.815037"/>
      <trkpt lat="41.890977" lon="-111.815173"/>
      <trkpt lat="41.890441" lon="-111.815298"/>
      <trkpt lat="41.889798" lon="-111.815492"/>
      <trkpt lat="41.889118" lon="-111.815774"/>
      <trkpt lat="41.888310" lon="-111.816186"/>
      <trkpt lat="41.885741" lon="-111.817893"/>
      <trkpt lat="41.883436" lon="-111.819425"/>
      <trkpt lat="41.881098" lon="-111.820948"/>
      <trkpt lat="41.878829" lon="-111.822400"/>
      <trkpt lat="41.876484" lon="-111.823894"/>
      <trkpt lat="41.874112" lon="-111.825398"/>
      <trkpt lat="41.872408" lon="-111.826512"/>
      <trkpt lat="41.871834" lon="-111.826864"/>
      <trkpt lat="41.870837" lon="-111.827421"/>
      <trkpt lat="41.870013" lon="-111.827808"/>
      <trkpt lat="41.869628" lon="-111.827979"/>
      <trkpt lat="41.868980" lon="-111.828217"/>
      <trkpt lat="41.866707" lon="-111.828957"/>
      <trkpt lat="41.865733" lon="-111.829258"/>
      <trkpt lat="41.864883" lon="-111.829501"/>
      <trkpt lat="41.862583" lon="-111.830102"/>
      <trkpt lat="41.861528" lon="-111.830365"/>
      <trkpt lat="41.859299" lon="-111.830824"/>
      <trkpt lat="41.856996" lon="-111.831278"/>
      <trkpt lat="41.855871" lon="-111.831497"/>
      <trkpt lat="41.854994" lon="-111.831664"/>
      <trkpt lat="41.854003" lon="-111.831793"/>
      <trkpt lat="41.852024" lon="-111.831981"/>
      <trkpt lat="41.849957" lon="-111.832190"/>
      <trkpt lat="41.849258" lon="-111.832230"/>
      <trkpt lat="41.847688" lon="-111.832420"/>
      <trkpt lat="41.846596" lon="-111.832494"/>
      <trkpt lat="41.845847" lon="-111.832528"/>
      <trkpt lat="41.844152" lon="-111.832575"/>
      <trkpt lat="41.841811" lon="-111.832627"/>
      <trkpt lat="41.840411" lon="-111.832712"/>
      <trkpt lat="41.837088" lon="-111.832753"/>
      <trkpt lat="41.834766" lon="-111.832805"/>
      <trkpt lat="41.832471" lon="-111.832861"/>
      <trkpt lat="41.830385" lon="-111.832925"/>
      <trkpt lat="41.828046" lon="-111.832988"/>
      <trkpt lat="41.825704" lon="-111.833036"/>
      <trkpt lat="41.823256" lon="-111.833081"/>
      <trkpt lat="41.820501" lon="-111.833190"/>
      <trkpt lat="41.817948" lon="-111.833179"/>
      <trkpt lat="41.815340" lon="-111.833224"/>
      <trkpt lat="41.812688" lon="-111.833286"/>
      <trkpt lat="41.809943" lon="-111.833347"/>
      <trkpt lat="41.807253" lon="-111.833403"/>
      <trkpt lat="41.803484" lon="-111.833483"/>
      <trkpt lat="41.801304" lon="-111.833544"/>
      <trkpt lat="41.796626" lon="-111.833621"/>
      <trkpt lat="41.793857" lon="-111.833692"/>
      <trkpt lat="41.790960" lon="-111.833745"/>
      <trkpt lat="41.788166" lon="-111.833814"/>
      <trkpt lat="41.785380" lon="-111.833858"/>
      <trkpt lat="41.782628" lon="-111.833928"/>
      <trkpt lat="41.780010" lon="-111.833999"/>
      <trkpt lat="41.777071" lon="-111.834070"/>
      <trkpt lat="41.774709" lon="-111.834121"/>
      <trkpt lat="41.773637" lon="-111.834140"/>
      <trkpt lat="41.771966" lon="-111.834159"/>
      <trkpt lat="41.769236" lon="-111.834210"/>
      <trkpt lat="41.766445" lon="-111.834273"/>
      <trkpt lat="41.764282" lon="-111.834335"/>
      <trkpt lat="41.760949" lon="-111.834411"/>
      <trkpt lat="41.758250" lon="-111.834478"/>
      <trkpt lat="41.757766" lon="-111.834483"/>
      <trkpt lat="41.756109" lon="-111.834514"/>
      <trkpt lat="41.752850" lon="-111.834557"/>
      <trkpt lat="41.751512" lon="-111.834579"/>
      <trkpt lat="41.750286" lon="-111.834569"/>
      <trkpt lat="41.747653" lon="-111.834616"/>
      <trkpt lat="41.745500" lon="-111.834705"/>
      <trkpt lat="41.742898" lon="-111.834743"/>
      <trkpt lat="41.742428" lon="-111.834749"/>
      <trkpt lat="41.742257" lon="-111.834711"/>
      <trkpt lat="41.741557" lon="-111.834731"/>
      <trkpt lat="41.741512" lon="-111.834710"/>
      <trkpt lat="41.741385" lon="-111.834700"/>
      <trkpt lat="41.741162" lon="-111.834712"/>
      <trkpt lat="41.741087" lon="-111.834713"/>
      <trkpt lat="41.741029" lon="-111.834708"/>
      <trkpt lat="41.740993" lon="-111.834696"/>
      <trkpt lat="41.740967" lon="-111.834669"/>
      <trkpt lat="41.740951" lon="-111.834641"/>
      <trkpt lat="41.740937" lon="-111.834548"/>
      <trkpt lat="41.740933" lon="-111.834424"/>
      <trkpt lat="41.740930" lon="-111.834043"/>
      <trkpt lat="41.740942" lon="-111.833875"/>
      <trkpt lat="41.740934" lon="-111.833580"/>
      <trkpt lat="41.740916" lon="-111.832886"/>
      <trkpt lat="41.740903" lon="-111.832458"/>
      <trkpt lat="41.740894" lon="-111.832288"/>
      <trkpt lat="41.740896" lon="-111.831873"/>
      <trkpt lat="41.740889" lon="-111.831709"/>
      <trkpt lat="41.740878" lon="-111.831616"/>
      <trkpt lat="41.740850" lon="-111.831553"/>
      <trkpt lat="41.740814" lon="-111.831526"/>
      <trkpt lat="41.740773" lon="-111.831511"/>
      <trkpt lat="41.740716" lon="-111.831498"/>
      <trkpt lat="41.740641" lon="-111.831510"/>
    </trkseg></trk>
</gpx>
