<?xml version="1.0" encoding="UTF-8"?>
<gpx version="1.1" creator="flagstop" xmlns="http://www.topografix.com/GPX/1/1">
  <trk><name>G GREEN LOOP</name><desc>GTFS shape 19792</desc><trkseg>
      <trkpt lat="41.745855" lon="-111.834482"/>
      <trkpt lat="41.747080" lon="-111.834461"/>
      <trkpt lat="41.748949" lon="-111.834425"/>
      <trkpt lat="41.751405" lon="-111.834386"/>
      <trkpt lat="41.751809" lon="-111.834366"/>
      <trkpt lat="41.753664" lon="-111.834356"/>
      <trkpt lat="41.755340" lon="-111.834318"/>
      <trkpt lat="41.756638" lon="-111.834305"/>
      <trkpt lat="41.757381" lon="-111.834287"/>
      <trkpt lat="41.759167" lon="-111.834252"/>
      <trkpt lat="41.760675" lon="-111.834188"/>
      <trkpt lat="41.761143" lon="-111.834189"/>
      <trkpt lat="41.761199" lon="-111.834127"/>
      <trkpt lat="41.761226" lon="-111.834007"/>
      <trkpt lat="41.761222" lon="-111.833832"/>
      <trkpt lat="41.761199" lon="-111.833422"/>
      <trkpt lat="41.761188" lon="-111.832874"/>
      <trkpt lat="41.761181" lon="-111.831877"/>
      <trkpt lat="41.761181" lon="-111.831877"/>
      <trkpt lat="41.761181" lon="-111.830976"/>
      <trkpt lat="41.761175" lon="-111.829699"/>
      <trkpt lat="41.761170" lon="-111.829288"/>
      <trkpt lat="41.761164" lon="-111.829103"/>
      <trkpt lat="41.761144" lon="-111.829020"/>
      <trkpt lat="41.761094" lon="-111.828984"/>
      <trkpt lat="41.760825" lon="-111.829001"/>
      <trkpt lat="41.759437" lon="-111.829035"/>
      <trkpt lat="41.758068" lon="-111.829089"/>
      <trkpt lat="41.757946" lon="-111.829108"/>
      <trkpt lat="41.757818" lon="-111.829118"/>
      <trkpt lat="41.757629" lon="-111.829142"/>
      <trkpt lat="41.757595" lon="-111.829153"/>
      <trkpt lat="41.757571" lon="-111.829164"/>
      <trkpt lat="41.757547" lon="-111.829191"/>
      <trkpt lat="41.757537" lon="-111.829226"/>
      <trkpt lat="41.757529" lon="-111.829277"/>
      <trkpt lat="41.757525" lon="-111.829349"/>
      <trkpt lat="41.757541" lon="-111.830245"/>
      <trkpt lat="41.757527" lon="-111.831243"/>
      <trkpt lat="41.757572" lon="-111.832791"/>
      <trkpt lat="41.757564" lon="-111.833623"/>
      <trkpt lat="41.757576" lon="-111.834147"/>
      <trkpt lat="41.757572" lon="-111.834268"/>
      <trkpt lat="41.757572" lon="-111.834346"/>
      <trkpt lat="41.757556" lon="-111.834408"/>
      <trkpt lat="41.757524" lon="-111.834464"/>
      <trkpt lat="41.757476" lon="-111.834486"/>
      <trkpt lat="41.757386" lon="-111.834491"/>
      <trkpt lat="41.756642" lon="-111.834498"/>
      <trkpt lat="41.756109" lon="-111.834514"/>
      <trkpt lat="41.755693" lon="-111.834507"/>
      <trkpt lat="41.754492" lon="-111.834534"/>
      <trkpt lat="41.753372" lon="-111.834544"/>
      <trkpt lat="41.752091" lon="-111.834563"/>
      <trkpt lat="41.751512" lon="-111.834579"/>
      <trkpt lat="41.750271" lon="-111.834583"/>
      <trkpt lat="41.748785" lon="-111.834622"/>
      <trkpt lat="41.747271" lon="-111.834647"/>
      <trkpt lat="41.745500" lon="-111.834705"/>
      <trkpt lat="41.744748" lon="-111.834707"/>
      <trkpt lat="41.742832" lon="-111.834759"/>
      <trkpt lat="41.741053" lon="-111.834801"/>
      <trkpt lat="41.741009" lon="-111.834793"/>
      <trkpt lat="41.740979" lon="-111.834780"/>
      <trkpt lat="41.740957" lon="-111.834726"/>
      <trkpt lat="41.740941" lon="-111.834675"/>
      <trkpt lat="41.740933" lon="-111.834603"/>
      <trkpt lat="41.740927" lon="-111.834527"/>
      <trkpt lat="41.740923" lon="-111.833983"/>
      <trkpt lat="41.740935" lon="-111.833833"/>
      <trkpt lat="41.740933" lon="-111.833715"/>
      <trkpt lat="41.740923" lon="-111.832921"/>
      <trkpt lat="41.740909" lon="-111.832262"/>
      <trkpt lat="41.740897" lon="-111.831811"/>
      <trkpt lat="41.740897" lon="-111.831447"/>
      <trkpt lat="41.740873" lon="-111.831095"/>
      <trkpt lat="41.740812" lon="-111.830808"/>
      <trkpt lat="41.740877" lon="-111.830669"/>
      <trkpt lat="41.740869" lon="-111.830417"/>
      <trkpt lat="41.740867" lon="-111.830262"/>
      <trkpt lat="41.740862" lon="-111.830101"/>
      <trkpt lat="41.740856" lon="-111.829988"/>
      <trkpt lat="41.740850" lon="-111.829918"/>
      <trkpt lat="41.740830" lon="-111.829835"/>
      <trkpt lat="41.740792" lon="-111.829760"/>
      <trkpt lat="41.740762" lon="-111.829704"/>
      <trkpt lat="41.740734" lon="-111.829634"/>
      <trkpt lat="41.740722" lon="-111.829559"/>
      <trkpt lat="41.740734" lon="-111.829479"/>
      <trkpt lat="41.740758" lon="-111.829409"/>
      <trkpt lat="41.740784" lon="-111.829361"/>
      <trkpt lat="41.740816" lon="-111.829323"/>
      <trkpt lat="41.740836" lon="-111.829256"/>
      <trkpt lat="41.740842" lon="-111.829181"/>
      <trkpt lat="41.740847" lon="-111.829020"/>
      <trkpt lat="41.740853" lon="-111.828760"/>
      <trkpt lat="41.740837" lon="-111.827859"/>
      <trkpt lat="41.740822" lon="-111.826607"/>
      <trkpt lat="41.740795" lon="-111.825229"/>
      <trkpt lat="41.740772" lon="-111.824068"/>
      <trkpt lat="41.740738" lon="-111.822040"/>
      <trkpt lat="41.740727" lon="-111.821491"/>
      <trkpt lat="41.740706" lon="-111.820332"/>
      <trkpt lat="41.740700" lon="-111.819924"/>
      <trkpt lat="41.740690" lon="-111.819790"/>
      <trkpt lat="41.740678" lon="-111.819691"/>
      <trkpt lat="41.740664" lon="-111.819613"/>
      <trkpt lat="41.740638" lon="-111.819525"/>
      <trkpt lat="41.740602" lon="-111.819466"/>
      <trkpt lat="41.740576" lon="-111.819407"/>
      <trkpt lat="41.740554" lon="-111.819323"/>
      <trkpt lat="41.740558" lon="-111.819259"/>
      <trkpt lat="41.740578" lon="-111.819189"/>
      <trkpt lat="41.740602" lon="-111.819154"/>
      <trkpt lat="41.740654" lon="-111.819120"/>
      <trkpt lat="41.740706" lon="-111.819101"/>
      <trkpt lat="41.740750" lon="-111.819106"/>
      <trkpt lat="41.740794" lon="-111.819138"/>
      <trkpt lat="41.740840" lon="-111.819176"/>
      <trkpt lat="41.740880" lon="-111.819227"/>
      <trkpt lat="41.740930" lon="-111.819248"/>
      <trkpt lat="41.741029" lon="-111.819257"/>
      <trkpt lat="41.741253" lon="-111.819268"/>
      <trkpt lat="41.741978" lon="-111.819240"/>
      <trkpt lat="41.742363" lon="-111.819207"/>
      <trkpt lat="41.743809" lon="-111.819154"/>
      <trkpt lat="41.744808" lon="-111.819124"/>
      <trkpt lat="41.745502" lon="-111.819099"/>
      <trkpt lat="41.746344" lon="-111.819081"/>
      <trkpt lat="41.747770" lon="-111.819043"/>
      <trkpt lat="41.748197" lon="-111.819034"/>
      <trkpt lat="41.748778" lon="-111.819016"/>
      <trkpt lat="41.749268" lon="-111.819006"/>
      <trkpt lat="41.749758" lon="-111.818955"/>
      <trkpt lat="41.749790" lon="-111.818956"/>
      <trkpt lat="41.749817" lon="-111.818951"/>
      <trkpt lat="41.749832" lon="-111.818924"/>
      <trkpt lat="41.749843" lon="-111.818880"/>
      <trkpt lat="41.749843" lon="-111.818833"/>
      <trkpt lat="41.749843" lon="-111.818648"/>
      <trkpt lat="41.749855" lon="-111.818328"/>
      <trkpt lat="41.749866" lon="-111.817949"/>
      <trkpt lat="41.749879" lon="-111.817596"/>
      <trkpt lat="41.749888" lon="-111.817381"/>
      <trkpt lat="41.749894" lon="-111.817249"/>
      <trkpt lat="41.749907" lon="-111.817130"/>
      <trkpt lat="41.749923" lon="-111.817009"/>
      <trkpt lat="41.749945" lon="-111.816859"/>
      <trkpt lat="41.750054" lon="-111.816242"/>
      <trkpt lat="41.750078" lon="-111.816079"/>
      <trkpt lat="41.750096" lon="-111.815968"/>
      <trkpt lat="41.750098" lon="-111.815855"/>
      <trkpt lat="41.750105" lon="-111.815766"/>
      <trkpt lat="41.750105" lon="-111.815378"/>
      <trkpt lat="41.750100" lon="-111.815020"/>
      <trkpt lat="41.750079" lon="-111.814446"/>
      <trkpt lat="41.750076" lon="-111.814177"/>
      <trkpt lat="41.750073" lon="-111.814126"/>
      <trkpt lat="41.750060" lon="-111.814086"/>
      <trkpt lat="41.750040" lon="-111.814052"/>
      <trkpt lat="41.750011" lon="-111.814027"/>
      <trkpt lat="41.749965" lon="-111.814019"/>
      <trkpt lat="41.749894" lon="-111.814017"/>
      <trkpt lat="41.749462" lon="-111.814018"/>
      <trkpt lat="41.749260" lon="-111.814000"/>
      <trkpt lat="41.748291" lon="-111.814053"/>
      <trkpt lat="41.746671" lon="-111.814103"/>
      <trkpt lat="41.745139" lon="-111.814149"/>
      <trkpt lat="41.744643" lon="-111.814143"/>
      <trkpt lat="41.744589" lon="-111.814143"/>
      <trkpt lat="41.744535" lon="-111.814130"/>
      <trkpt lat="41.744497" lon="-111.814096"/>
      <trkpt lat="41.744476" lon="-111.814064"/>
      <trkpt lat="41.744456" lon="-111.813985"/>
      <trkpt lat="41.744450" lon="-111.813925"/>
      <trkpt lat="41.744445" lon="-111.813616"/>
      <trkpt lat="41.744436" lon="-111.812653"/>
      <trkpt lat="41.744441" lon="-111.811931"/>
      <trkpt lat="41.744433" lon="-111.810937"/>
      <trkpt lat="41.744412" lon="-111.809280"/>
      <trkpt lat="41.744381" lon="-111.808252"/>
      <trkpt lat="41.744330" lon="-111.806131"/>
      <trkpt lat="41.744299" lon="-111.805122"/>
      <trkpt lat="41.744255" lon="-111.804511"/>
      <trkpt lat="41.744252" lon="-111.804455"/>
      <trkpt lat="41.744244" lon="-111.804419"/>
      <trkpt lat="41.744224" lon="-111.804388"/>
      <trkpt lat="41.744204" lon="-111.804368"/>
      <trkpt lat="41.744165" lon="-111.804360"/>
      <trkpt lat="41.744091" lon="-111.804358"/>
      <trkpt lat="41.743435" lon="-111.804327"/>
      <trkpt lat="41.742970" lon="-111.804309"/>
      <trkpt lat="41.742790" lon="-111.804313"/>
      <trkpt lat="41.742703" lon="-111.804309"/>
      <trkpt lat="41.742666" lon="-111.804313"/>
      <trkpt lat="41.742629" lon="-111.804321"/>
      <trkpt lat="41.742594" lon="-111.804343"/>
      <trkpt lat="41.742562" lon="-111.804384"/>
      <trkpt lat="41.742104" lon="-111.805170"/>
      <trkpt lat="41.741781" lon="-111.805704"/>
      <trkpt lat="41.741474" lon="-111.806216"/>
      <trkpt lat="41.741285" lon="-111.806551"/>
      <trkpt lat="41.741227" lon="-111.806672"/>
      <trkpt lat="41.741149" lon="-111.806830"/>
      <trkpt lat="41.741077" lon="-111.806995"/>
      <trkpt lat="41.741004" lon="-111.807169"/>
      <trkpt lat="41.740952" lon="-111.807310"/>
      <trkpt lat="41.740882" lon="-111.807530"/>
      <trkpt lat="41.740818" lon="-111.807772"/>
      <trkpt lat="41.740770" lon="-111.807999"/>
      <trkpt lat="41.740582" lon="-111.808836"/>
      <trkpt lat="41.740350" lon="-111.809902"/>
      <trkpt lat="41.740263" lon="-111.810248"/>
      <trkpt lat="41.739992" lon="-111.811265"/>
      <trkpt lat="41.739913" lon="-111.811418"/>
      <trkpt lat="41.739866" lon="-111.811540"/>
      <trkpt lat="41.739755" lon="-111.811827"/>
      <trkpt lat="41.739491" lon="-111.812477"/>
      <trkpt lat="41.739093" lon="-111.813443"/>
      <trkpt lat="41.738951" lon="-111.813799"/>
      <trkpt lat="41.738851" lon="-111.814063"/>
      <trkpt lat="41.738819" lon="-111.814157"/>
      <trkpt lat="41.738783" lon="-111.814267"/>
      <trkpt lat="41.738744" lon="-111.814424"/>
      <trkpt lat="41.738715" lon="-111.814565"/>
      <trkpt lat="41.738687" lon="-111.814734"/>
      <trkpt lat="41.738664" lon="-111.814897"/>
      <trkpt lat="41.738643" lon="-111.815129"/>
      <trkpt lat="41.738641" lon="-111.815275"/>
      <trkpt lat="41.738644" lon="-111.815449"/>
      <trkpt lat="41.738661" lon="-111.815680"/>
      <trkpt lat="41.738684" lon="-111.815887"/>
      <trkpt lat="41.738734" lon="-111.816182"/>
      <trkpt lat="41.738784" lon="-111.816496"/>
      <trkpt lat="41.738804" lon="-111.816611"/>
      <trkpt lat="41.738816" lon="-111.816734"/>
      <trkpt lat="41.738820" lon="-111.816893"/>
      <trkpt lat="41.738851" lon="-111.818014"/>
      <trkpt lat="41.738855" lon="-111.818739"/>
      <trkpt lat="41.738896" lon="-111.820995"/>
      <trkpt lat="41.738926" lon="-111.822730"/>
      <trkpt lat="41.738974" lon="-111.824904"/>
      <trkpt lat="41.738979" lon="-111.826265"/>
      <trkpt lat="41.739016" lon="-111.828389"/>
      <trkpt lat="41.739051" lon="-111.830257"/>
      <trkpt lat="41.739036" lon="-111.830747"/>
      <trkpt lat="41.739043" lon="-111.831975"/>
      <trkpt lat="41.739064" lon="-111.833173"/>
      <trkpt lat="41.739068" lon="-111.834526"/>
      <trkpt lat="41.739068" lon="-111.834603"/>
      <trkpt lat="41.739061" lon="-111.834678"/>
      <trkpt lat="41.739051" lon="-111.834741"/>
      <trkpt lat="41.739034" lon="-111.834805"/>
      <trkpt lat="41.738996" lon="-111.834852"/>
      <trkpt lat="41.738946" lon="-111.834871"/>
      <trkpt lat="41.738910" lon="-111.834871"/>
      <trkpt lat="41.738640" lon="-111.834876"/>
      <trkpt lat="41.737855" lon="-111.834933"/>
      <trkpt lat="41.735732" lon="-111.834954"/>
      <trkpt lat="41.733457" lon="-111.835032"/>
      <trkpt lat="41.732193" lon="-111.835067"/>
      <trkpt lat="41.731538" lon="-111.835074"/>
      <trkpt lat="41.729362" lon="-111.835132"/>
      <trkpt lat="41.727816" lon="-111.835192"/>
      <trkpt lat="41.725711" lon="-111.835240"/>
      <trkpt lat="41.724815" lon="-111.835264"/>
      <trkpt lat="41.723267" lon="-111.835319"/>
      <trkpt lat="41.722652" lon="-111.835328"/>
      <trkpt lat="41.721371" lon="-111.835360"/>
      <trkpt lat="41.720369" lon="-111.835383"/>
      <trkpt lat="41.719307" lon="-111.835411"/>
      <trkpt lat="41.718394" lon="-111.835399"/>
      <trkpt lat="41.717838" lon="-111.835417"/>
      <trkpt lat="41.717755" lon="-111.835416"/>
      <trkpt lat="41.717671" lon="-111.835412"/>
      <trkpt lat="41.717582" lon="-111.835400"/>
      <trkpt lat="41.717500" lon="-111.835390"/>
      <trkpt lat="41.717398" lon="-111.835368"/>
      <trkpt lat="41.717179" lon="-111.835327"/>
      <trkpt lat="41.717003" lon="-111.835265"/>
      <trkpt lat="41.716830" lon="-111.835199"/>
      <trkpt lat="41.716400" lon="-111.835063"/>
      <trkpt lat="41.716325" lon="-111.835041"/>
      <trkpt lat="41.716237" lon="-111.835023"/>
      <trkpt lat="41.716120" lon="-111.834999"/>
      <trkpt lat="41.716013" lon="-111.834982"/>
      <trkpt lat="41.715865" lon="-111.834961"/>
      <trkpt lat="41.715754" lon="-111.834952"/>
      <trkpt lat="41.715624" lon="-111.834955"/>
      <trkpt lat="41.714626" lon="-111.834957"/>
      <trkpt lat="41.714072" lon="-111.834961"/>
      <trkpt lat="41.713950" lon="-111.834958"/>
      <trkpt lat="41.713826" lon="-111.834950"/>
      <trkpt lat="41.713652" lon="-111.834934"/>
      <trkpt lat="41.713524" lon="-111.834920"/>
      <trkpt lat="41.713410" lon="-111.834901"/>
      <trkpt lat="41.713292" lon="-111.834877"/>
      <trkpt lat="41.713136" lon="-111.834848"/>
      <trkpt lat="41.712581" lon="-111.834745"/>
      <trkpt lat="41.712486" lon="-111.834728"/>
      <trkpt lat="41.712390" lon="-111.834717"/>
      <trkpt lat="41.712119" lon="-111.834687"/>
      <trkpt lat="41.711830" lon="-111.834664"/>
      <trkpt lat="41.711662" lon="-111.834664"/>
      <trkpt lat="41.711556" lon="-111.834664"/>
      <trkpt lat="41.711434" lon="-111.834666"/>
      <trkpt lat="41.710863" lon="-111.834720"/>
      <trkpt lat="41.710366" lon="-111.834743"/>
      <trkpt lat="41.710317" lon="-111.834745"/>
      <trkpt lat="41.710287" lon="-111.834758"/>
      <trkpt lat="41.710262" lon="-111.834790"/>
      <trkpt lat="41.710254" lon="-111.834861"/>
      <trkpt lat="41.710249" lon="-111.834946"/>
      <trkpt lat="41.710274" lon="-111.835822"/>
      <trkpt lat="41.710289" lon="-111.837041"/>
      <trkpt lat="41.710288" lon="-111.837872"/>
      <trkpt lat="41.710299" lon="-111.837962"/>
      <trkpt lat="41.710323" lon="-111.838097"/>
      <trkpt lat="41.710355" lon="-111.838218"/>
      <trkpt lat="41.710418" lon="-111.838373"/>
      <trkpt lat="41.710463" lon="-111.838443"/>
      <trkpt lat="41.710522" lon="-111.838542"/>
      <trkpt lat="41.710604" lon="-111.838636"/>
      <trkpt lat="41.710699" lon="-111.838717"/>
      <trkpt lat="41.710810" lon="-111.838776"/>
      <trkpt lat="41.710911" lon="-111.838814"/>
      <trkpt lat="41.711020" lon="-111.838837"/>
      <trkpt lat="41.711199" lon="-111.838847"/>
      <trkpt lat="41.711367" lon="-111.838841"/>
      <trkpt lat="41.711690" lon="-111.838847"/>
      <trkpt lat="41.711792" lon="-111.838869"/>
      <trkpt lat="41.711871" lon="-111.838887"/>
      <trkpt lat="41.711973" lon="-111.838928"/>
      <trkpt lat="41.712050" lon="-111.838973"/>
      <trkpt lat="41.712132" lon="-111.839040"/>
      <trkpt lat="41.712210" lon="-111.839119"/>
      <trkpt lat="41.712275" lon="-111.839208"/>
      <trkpt lat="41.712302" lon="-111.839235"/>
      <trkpt lat="41.712332" lon="-111.839249"/>
      <trkpt lat="41.712367" lon="-111.839244"/>
      <trkpt lat="41.712407" lon="-111.839232"/>
      <trkpt lat="41.712441" lon="-111.839196"/>
      <trkpt lat="41.712874" lon="-111.838629"/>
      <trkpt lat="41.713324" lon="-111.838047"/>
      <trkpt lat="41.713477" lon="-111.837861"/>
      <trkpt lat="41.713641" lon="-111.837677"/>
      <trkpt lat="41.713987" lon="-111.837319"/>
      <trkpt lat="41.714334" lon="-111.836992"/>
      <trkpt lat="41.714761" lon="-111.836661"/>
      <trkpt lat="41.715594" lon="-111.836100"/>
      <trkpt lat="41.716289" lon="-111.835743"/>
      <trkpt lat="41.717071" lon="-111.835417"/>
      <trkpt lat="41.717392" lon="-111.835283"/>
      <trkpt lat="41.717544" lon="-111.835254"/>
      <trkpt lat="41.717637" lon="-111.835250"/>
      <trkpt lat="41.717827" lon="-111.835250"/>
      <trkpt lat="41.718230" lon="-111.835248"/>
      <trkpt lat="41.719033" lon="-111.835234"/>
      <trkpt lat="41.719811" lon="-111.835184"/>
      <trkpt lat="41.721129" lon="-111.835181"/>
      <trkpt lat="41.722168" lon="-111.835147"/>
      <trkpt lat="41.723235" lon="-111.835125"/>
      <trkpt lat="41.724431" lon="-111.835056"/>
      <trkpt lat="41.725968" lon="-111.835047"/>
      <trkpt lat="41.726996" lon="-111.835021"/>
      <trkpt lat="41.728424" lon="-111.834986"/>
      <trkpt lat="41.730030" lon="-111.834937"/>
      <trkpt lat="41.732392" lon="-111.834858"/>
      <trkpt lat="41.734722" lon="-111.834801"/>
      <trkpt lat="41.736000" lon="-111.834762"/>
      <trkpt lat="41.736706" lon="-111.834711"/>
      <trkpt lat="41.738136" lon="-111.834704"/>
      <trkpt lat="41.739546" lon="-111.834663"/>
      <trkpt lat="41.740448" lon="-111.834617"/>
      <trkpt lat="41.741728" lon="-111.834612"/>
      <trkpt lat="41.743472" lon="-111.834562"/>
      <trkpt lat="41.745390" lon="-111.834510"/>
      <trkpt lat="41.745837" lon="-111.834489"/>
      <trkpt lat="41.745855" lon="-111.834482"/>
    </trkseg></trk>
</gpx>
