<?xml version="1.0" encoding="UTF-8"?>
<gpx version="1.1" creator="flagstop" xmlns="http://www.topografix.com/GPX/1/1">
  <trk><name>11 Southbound</name><desc>GTFS shape 30386+31365</desc><trkseg>
      <trkpt lat="41.740642" lon="-111.831508"/>
      <trkpt lat="41.740641" lon="-111.831510"/>
      <trkpt lat="41.740610" lon="-111.831379"/>
      <trkpt lat="41.740499" lon="-111.831011"/>
      <trkpt lat="41.740546" lon="-111.830606"/>
      <trkpt lat="41.740866" lon="-111.830220"/>
      <trkpt lat="41.740814" lon="-111.829794"/>
      <trkpt lat="41.740718" lon="-111.829595"/>
      <trkpt lat="41.740507" lon="-111.829570"/>
      <trkpt lat="41.739107" lon="-111.829640"/>
      <trkpt lat="41.737080" lon="-111.829687"/>
      <trkpt lat="41.735295" lon="-111.829761"/>
      <trkpt lat="41.735178" lon="-111.829792"/>
      <trkpt lat="41.735160" lon="-111.829874"/>
      <trkpt lat="41.735176" lon="-111.832176"/>
      <trkpt lat="41.735166" lon="-111.832280"/>
      <trkpt lat="41.735150" lon="-111.832300"/>
      <trkpt lat="41.732252" lon="-111.832409"/>
      <trkpt lat="41.732256" lon="-111.832428"/>
      <trkpt lat="41.731483" lon="-111.832409"/>
      <trkpt lat="41.725302" lon="-111.832666"/>
      <trkpt lat="41.725292" lon="-111.832667"/>
      <trkpt lat="41.724052" lon="-111.832709"/>
      <trkpt lat="41.721842" lon="-111.832752"/>
      <trkpt lat="41.720817" lon="-111.831894"/>
      <trkpt lat="41.720813" lon="-111.831891"/>
      <trkpt lat="41.720721" lon="-111.831765"/>
      <trkpt lat="41.718511" lon="-111.831250"/>
      <trkpt lat="41.718510" lon="-111.831230"/>
      <trkpt lat="41.718319" lon="-111.831079"/>
      <trkpt lat="41.717326" lon="-111.830091"/>
      <trkpt lat="41.715051" lon="-111.830091"/>
      <trkpt lat="41.715036" lon="-111.830100"/>
      <trkpt lat="41.714891" lon="-111.830134"/>
      <trkpt lat="41.713514" lon="-111.830349"/>
      <trkpt lat="41.712200" lon="-111.829276"/>
      <trkpt lat="41.711207" lon="-111.829147"/>
      <trkpt lat="41.710214" lon="-111.829319"/>
      <trkpt lat="41.710182" lon="-111.830564"/>
      <trkpt lat="41.710165" lon="-111.830576"/>
      <trkpt lat="41.710214" lon="-111.833138"/>
      <trkpt lat="41.710278" lon="-111.837044"/>
      <trkpt lat="41.710289" lon="-111.837041"/>
      <trkpt lat="41.710278" lon="-111.837645"/>
      <trkpt lat="41.710534" lon="-111.838717"/>
      <trkpt lat="41.710214" lon="-111.839190"/>
      <trkpt lat="41.709509" lon="-111.839662"/>
      <trkpt lat="41.708035" lon="-111.841550"/>
      <trkpt lat="41.707427" lon="-111.841249"/>
      <trkpt lat="41.707423" lon="-111.841228"/>
      <trkpt lat="41.707266" lon="-111.841207"/>
      <trkpt lat="41.704127" lon="-111.841207"/>
      <trkpt lat="41.704134" lon="-111.841218"/>
      <trkpt lat="41.702909" lon="-111.841207"/>
      <trkpt lat="41.702653" lon="-111.845069"/>
      <trkpt lat="41.703037" lon="-111.848030"/>
      <trkpt lat="41.703043" lon="-111.848009"/>
      <trkpt lat="41.703101" lon="-111.848330"/>
      <trkpt lat="41.703229" lon="-111.851206"/>
      <trkpt lat="41.704255" lon="-111.852708"/>
      <trkpt lat="41.705216" lon="-111.853051"/>
      <trkpt lat="41.705024" lon="-111.856270"/>
      <trkpt lat="41.705012" lon="-111.856266"/>
      <trkpt lat="41.704895" lon="-111.856399"/>
      <trkpt lat="41.703710" lon="-111.858373"/>
      <trkpt lat="41.701852" lon="-111.856055"/>
      <trkpt lat="41.701843" lon="-111.856071"/>
      <trkpt lat="41.701403" lon="-111.855497"/>
      <trkpt lat="41.700922" lon="-111.855111"/>
      <trkpt lat="41.697686" lon="-111.859703"/>
      <trkpt lat="41.697714" lon="-111.859887"/>
      <trkpt lat="41.697836" lon="-111.860036"/>
      <trkpt lat="41.698023" lon="-111.860179"/>
      <trkpt lat="41.698327" lon="-111.860304"/>
      <trkpt lat="41.700121" lon="-111.860390"/>
      <trkpt lat="41.700153" lon="-111.862793"/>
      <trkpt lat="41.700135" lon="-111.862796"/>
      <trkpt lat="41.700121" lon="-111.863608"/>
      <trkpt lat="41.700121" lon="-111.866655"/>
      <trkpt lat="41.700698" lon="-111.866655"/>
      <trkpt lat="41.700709" lon="-111.866670"/>
      <trkpt lat="41.701115" lon="-111.866698"/>
      <trkpt lat="41.703293" lon="-111.866698"/>
      <trkpt lat="41.703390" lon="-111.866312"/>
      <trkpt lat="41.703402" lon="-111.866308"/>
      <trkpt lat="41.703390" lon="-111.866183"/>
      <trkpt lat="41.703326" lon="-111.865926"/>
      <trkpt lat="41.701307" lon="-111.865926"/>
      <trkpt lat="41.701051" lon="-111.865582"/>
      <trkpt lat="41.701051" lon="-111.864853"/>
      <trkpt lat="41.700666" lon="-111.864810"/>
      <trkpt lat="41.700668" lon="-111.864827"/>
      <trkpt lat="41.700282" lon="-111.864810"/>
      <trkpt lat="41.700089" lon="-111.864810"/>
      <trkpt lat="41.700057" lon="-111.860561"/>
      <trkpt lat="41.700130" lon="-111.860560"/>
      <trkpt lat="41.700130" lon="-111.860430"/>
      <trkpt lat="41.700130" lon="-111.860430"/>
      <trkpt lat="41.699230" lon="-111.860420"/>
      <trkpt lat="41.698900" lon="-111.860340"/>
      <trkpt lat="41.698300" lon="-111.860350"/>
      <trkpt lat="41.698250" lon="-111.860350"/>
      <trkpt lat="41.698060" lon="-111.860280"/>
      <trkpt lat="41.697890" lon="-111.860170"/>
      <trkpt lat="41.697850" lon="-111.860130"/>
      <trkpt lat="41.697850" lon="-111.860130"/>
      <trkpt lat="41.697850" lon="-111.860130"/>
      <trkpt lat="41.697720" lon="-111.860000"/>
      <trkpt lat="41.697620" lon="-111.859860"/>
      <trkpt lat="41.697620" lon="-111.859860"/>
      <trkpt lat="41.697342" lon="-111.859531"/>
      <trkpt lat="41.697328" lon="-111.859512"/>
      <trkpt lat="41.696940" lon="-111.859020"/>
      <trkpt lat="41.696900" lon="-111.858980"/>
      <trkpt lat="41.696900" lon="-111.858980"/>
      <trkpt lat="41.696900" lon="-111.858980"/>
      <trkpt lat="41.696770" lon="-111.858850"/>
      <trkpt lat="41.696590" lon="-111.858750"/>
      <trkpt lat="41.696330" lon="-111.858700"/>
      <trkpt lat="41.695530" lon="-111.858720"/>
      <trkpt lat="41.695480" lon="-111.858720"/>
      <trkpt lat="41.695480" lon="-111.858720"/>
      <trkpt lat="41.695480" lon="-111.858720"/>
      <trkpt lat="41.695360" lon="-111.858740"/>
      <trkpt lat="41.695170" lon="-111.858800"/>
      <trkpt lat="41.694910" lon="-111.858910"/>
      <trkpt lat="41.694910" lon="-111.858910"/>
      <trkpt lat="41.694910" lon="-111.858910"/>
      <trkpt lat="41.694890" lon="-111.858920"/>
      <trkpt lat="41.694640" lon="-111.858950"/>
      <trkpt lat="41.693770" lon="-111.858950"/>
      <trkpt lat="41.692970" lon="-111.858940"/>
      <trkpt lat="41.692907" lon="-111.858955"/>
      <trkpt lat="41.692848" lon="-111.858957"/>
      <trkpt lat="41.692617" lon="-111.858967"/>
      <trkpt lat="41.692036" lon="-111.858968"/>
      <trkpt lat="41.691134" lon="-111.859060"/>
      <trkpt lat="41.690816" lon="-111.859084"/>
      <trkpt lat="41.690531" lon="-111.859184"/>
      <trkpt lat="41.689535" lon="-111.860378"/>
      <trkpt lat="41.689451" lon="-111.860421"/>
      <trkpt lat="41.689395" lon="-111.860360"/>
      <trkpt lat="41.688948" lon="-111.859760"/>
      <trkpt lat="41.688578" lon="-111.859130"/>
      <trkpt lat="41.688535" lon="-111.858974"/>
      <trkpt lat="41.688494" lon="-111.858724"/>
      <trkpt lat="41.688507" lon="-111.857342"/>
      <trkpt lat="41.688528" lon="-111.856854"/>
      <trkpt lat="41.688607" lon="-111.856469"/>
      <trkpt lat="41.688776" lon="-111.856034"/>
      <trkpt lat="41.688792" lon="-111.855640"/>
      <trkpt lat="41.688788" lon="-111.854634"/>
      <trkpt lat="41.688532" lon="-111.854003"/>
      <trkpt lat="41.688466" lon="-111.853859"/>
      <trkpt lat="41.688206" lon="-111.853236"/>
      <trkpt lat="41.688147" lon="-111.852892"/>
      <trkpt lat="41.688141" lon="-111.852556"/>
      <trkpt lat="41.688119" lon="-111.852496"/>
      <trkpt lat="41.688029" lon="-111.852474"/>
      <trkpt lat="41.685593" lon="-111.852429"/>
      <trkpt lat="41.685534" lon="-111.852379"/>
      <trkpt lat="41.685508" lon="-111.852324"/>
      <trkpt lat="41.685476" lon="-111.850777"/>
      <trkpt lat="41.685486" lon="-111.850782"/>
      <trkpt lat="41.685476" lon="-111.847515"/>
      <trkpt lat="41.685405" lon="-111.847426"/>
      <trkpt lat="41.684547" lon="-111.847429"/>
      <trkpt lat="41.684543" lon="-111.847422"/>
      <trkpt lat="41.682560" lon="-111.847429"/>
      <trkpt lat="41.682559" lon="-111.847434"/>
      <trkpt lat="41.681534" lon="-111.847429"/>
      <trkpt lat="41.679291" lon="-111.847258"/>
      <trkpt lat="41.679296" lon="-111.847247"/>
      <trkpt lat="41.678746" lon="-111.847258"/>
      <trkpt lat="41.678297" lon="-111.847086"/>
      <trkpt lat="41.677175" lon="-111.845412"/>
      <trkpt lat="41.676149" lon="-111.845112"/>
      <trkpt lat="41.676137" lon="-111.845102"/>
      <trkpt lat="41.676137" lon="-111.845102"/>
      <trkpt lat="41.675872" lon="-111.845034"/>
      <trkpt lat="41.675784" lon="-111.845008"/>
      <trkpt lat="41.675654" lon="-111.844992"/>
      <trkpt lat="41.674980" lon="-111.844983"/>
      <trkpt lat="41.674916" lon="-111.845001"/>
      <trkpt lat="41.674875" lon="-111.845058"/>
      <trkpt lat="41.674898" lon="-111.847018"/>
      <trkpt lat="41.674921" lon="-111.847416"/>
      <trkpt lat="41.674944" lon="-111.847648"/>
      <trkpt lat="41.674945" lon="-111.848493"/>
      <trkpt lat="41.674928" lon="-111.849310"/>
      <trkpt lat="41.675038" lon="-111.856294"/>
      <trkpt lat="41.675028" lon="-111.857560"/>
      <trkpt lat="41.675062" lon="-111.857612"/>
      <trkpt lat="41.675109" lon="-111.857622"/>
      <trkpt lat="41.676347" lon="-111.857630"/>
      <trkpt lat="41.676494" lon="-111.857665"/>
      <trkpt lat="41.676624" lon="-111.857706"/>
      <trkpt lat="41.676759" lon="-111.857770"/>
      <trkpt lat="41.677022" lon="-111.857907"/>
      <trkpt lat="41.677134" lon="-111.857942"/>
      <trkpt lat="41.677233" lon="-111.857971"/>
      <trkpt lat="41.677388" lon="-111.857987"/>
      <trkpt lat="41.678566" lon="-111.857997"/>
      <trkpt lat="41.678862" lon="-111.857946"/>
      <trkpt lat="41.679252" lon="-111.857897"/>
      <trkpt lat="41.679487" lon="-111.857822"/>
      <trkpt lat="41.679960" lon="-111.857524"/>
      <trkpt lat="41.680330" lon="-111.857292"/>
      <trkpt lat="41.680556" lon="-111.857201"/>
      <trkpt lat="41.680713" lon="-111.857163"/>
      <trkpt lat="41.681177" lon="-111.857187"/>
      <trkpt lat="41.681879" lon="-111.857181"/>
      <trkpt lat="41.682533" lon="-111.857188"/>
      <trkpt lat="41.683380" lon="-111.857195"/>
      <trkpt lat="41.683670" lon="-111.857192"/>
      <trkpt lat="41.684910" lon="-111.857217"/>
      <trkpt lat="41.685428" lon="-111.857230"/>
      <trkpt lat="41.686117" lon="-111.857225"/>
      <trkpt lat="41.686458" lon="-111.857228"/>
      <trkpt lat="41.687598" lon="-111.857235"/>
      <trkpt lat="41.688188" lon="-111.857251"/>
      <trkpt lat="41.688372" lon="-111.857262"/>
      <trkpt lat="41.688427" lon="-111.857260"/>
      <trkpt lat="41.688514" lon="-111.857269"/>
      <trkpt lat="41.688540" lon="-111.857294"/>
      <trkpt lat="41.688547" lon="-111.857387"/>
      <trkpt lat="41.688550" lon="-111.857529"/>
      <trkpt lat="41.688537" lon="-111.858052"/>
      <trkpt lat="41.688533" lon="-111.858580"/>
      <trkpt lat="41.688539" lon="-111.858797"/>
      <trkpt lat="41.688557" lon="-111.858929"/>
      <trkpt lat="41.688602" lon="-111.859093"/>
      <trkpt lat="41.689017" lon="-111.859765"/>
      <trkpt lat="41.690162" lon="-111.861466"/>
      <trkpt lat="41.690229" lon="-111.861597"/>
      <trkpt lat="41.690260" lon="-111.861702"/>
      <trkpt lat="41.690294" lon="-111.861846"/>
      <trkpt lat="41.690315" lon="-111.862058"/>
      <trkpt lat="41.690312" lon="-111.862532"/>
      <trkpt lat="41.690284" lon="-111.862720"/>
      <trkpt lat="41.690239" lon="-111.862909"/>
      <trkpt lat="41.689476" lon="-111.864560"/>
      <trkpt lat="41.689437" lon="-111.864739"/>
      <trkpt lat="41.689420" lon="-111.865102"/>
      <trkpt lat="41.689414" lon="-111.865846"/>
      <trkpt lat="41.689455" lon="-111.866047"/>
      <trkpt lat="41.689498" lon="-111.866156"/>
      <trkpt lat="41.689541" lon="-111.866196"/>
      <trkpt lat="41.689589" lon="-111.866203"/>
      <trkpt lat="41.689626" lon="-111.866195"/>
      <trkpt lat="41.689792" lon="-111.866090"/>
      <trkpt lat="41.689930" lon="-111.866027"/>
      <trkpt lat="41.690018" lon="-111.866007"/>
      <trkpt lat="41.690142" lon="-111.866003"/>
      <trkpt lat="41.690270" lon="-111.866025"/>
      <trkpt lat="41.690419" lon="-111.866090"/>
      <trkpt lat="41.690551" lon="-111.866178"/>
      <trkpt lat="41.690690" lon="-111.866339"/>
      <trkpt lat="41.690817" lon="-111.866536"/>
      <trkpt lat="41.690988" lon="-111.866898"/>
      <trkpt lat="41.691101" lon="-111.867052"/>
      <trkpt lat="41.691168" lon="-111.867130"/>
      <trkpt lat="41.691209" lon="-111.867156"/>
      <trkpt lat="41.691253" lon="-111.867148"/>
      <trkpt lat="41.691305" lon="-111.867130"/>
      <trkpt lat="41.692054" lon="-111.866382"/>
      <trkpt lat="41.692785" lon="-111.865616"/>
      <trkpt lat="41.693286" lon="-111.865074"/>
      <trkpt lat="41.694145" lon="-111.864059"/>
      <trkpt lat="41.694633" lon="-111.863452"/>
      <trkpt lat="41.695066" lon="-111.862890"/>
      <trkpt lat="41.695777" lon="-111.861923"/>
      <trkpt lat="41.695971" lon="-111.861679"/>
      <trkpt lat="41.696868" lon="-111.860450"/>
      <trkpt lat="41.697046" lon="-111.860204"/>
      <trkpt lat="41.697613" lon="-111.859423"/>
      <trkpt lat="41.699973" lon="-111.856252"/>
      <trkpt lat="41.700495" lon="-111.855524"/>
      <trkpt lat="41.702084" lon="-111.853300"/>
      <trkpt lat="41.703221" lon="-111.851690"/>
      <trkpt lat="41.703278" lon="-111.851524"/>
      <trkpt lat="41.703255" lon="-111.851384"/>
      <trkpt lat="41.703190" lon="-111.851226"/>
      <trkpt lat="41.703160" lon="-111.851116"/>
      <trkpt lat="41.703141" lon="-111.850940"/>
      <trkpt lat="41.703096" lon="-111.848802"/>
      <trkpt lat="41.703085" lon="-111.848523"/>
      <trkpt lat="41.703067" lon="-111.848402"/>
      <trkpt lat="41.703027" lon="-111.848196"/>
      <trkpt lat="41.702932" lon="-111.847881"/>
      <trkpt lat="41.702874" lon="-111.847635"/>
      <trkpt lat="41.702821" lon="-111.847319"/>
      <trkpt lat="41.702608" lon="-111.845270"/>
      <trkpt lat="41.702601" lon="-111.845084"/>
      <trkpt lat="41.702619" lon="-111.844825"/>
      <trkpt lat="41.702757" lon="-111.842830"/>
      <trkpt lat="41.702822" lon="-111.842063"/>
      <trkpt lat="41.702818" lon="-111.841215"/>
      <trkpt lat="41.702794" lon="-111.840438"/>
      <trkpt lat="41.702786" lon="-111.839279"/>
      <trkpt lat="41.702752" lon="-111.838870"/>
      <trkpt lat="41.702758" lon="-111.838384"/>
      <trkpt lat="41.702716" lon="-111.836501"/>
      <trkpt lat="41.702701" lon="-111.835661"/>
      <trkpt lat="41.702691" lon="-111.835173"/>
      <trkpt lat="41.702692" lon="-111.834847"/>
      <trkpt lat="41.702811" lon="-111.834806"/>
      <trkpt lat="41.703317" lon="-111.834793"/>
      <trkpt lat="41.703693" lon="-111.834777"/>
      <trkpt lat="41.705000" lon="-111.834759"/>
      <trkpt lat="41.705710" lon="-111.834715"/>
      <trkpt lat="41.706008" lon="-111.834706"/>
      <trkpt lat="41.706310" lon="-111.834696"/>
      <trkpt lat="41.709031" lon="-111.834541"/>
      <trkpt lat="41.709360" lon="-111.834599"/>
      <trkpt lat="41.709557" lon="-111.834613"/>
      <trkpt lat="41.709735" lon="-111.834598"/>
      <trkpt lat="41.709860" lon="-111.834603"/>
      <trkpt lat="41.710030" lon="-111.834564"/>
      <trkpt lat="41.710168" lon="-111.834537"/>
      <trkpt lat="41.710170" lon="-111.834354"/>
      <trkpt lat="41.710112" lon="-111.832255"/>
      <trkpt lat="41.710114" lon="-111.831687"/>
      <trkpt lat="41.710088" lon="-111.829734"/>
      <trkpt lat="41.710083" lon="-111.829627"/>
      <trkpt lat="41.710074" lon="-111.829524"/>
      <trkpt lat="41.710064" lon="-111.829438"/>
      <trkpt lat="41.710011" lon="-111.829309"/>
      <trkpt lat="41.709988" lon="-111.829238"/>
      <trkpt lat="41.709975" lon="-111.829178"/>
      <trkpt lat="41.709980" lon="-111.829121"/>
      <trkpt lat="41.710003" lon="-111.829046"/>
      <trkpt lat="41.710043" lon="-111.829002"/>
      <trkpt lat="41.710083" lon="-111.828984"/>
      <trkpt lat="41.710145" lon="-111.828987"/>
      <trkpt lat="41.710208" lon="-111.829025"/>
      <trkpt lat="41.710280" lon="-111.829072"/>
      <trkpt lat="41.710333" lon="-111.829093"/>
      <trkpt lat="41.710369" lon="-111.829103"/>
      <trkpt lat="41.710431" lon="-111.829110"/>
      <trkpt lat="41.710506" lon="-111.829107"/>
      <trkpt lat="41.710905" lon="-111.829097"/>
      <trkpt lat="41.711796" lon="-111.829070"/>
      <trkpt lat="41.711894" lon="-111.829084"/>
      <trkpt lat="41.712017" lon="-111.829114"/>
      <trkpt lat="41.712158" lon="-111.829171"/>
      <trkpt lat="41.712296" lon="-111.829246"/>
      <trkpt lat="41.712386" lon="-111.829309"/>
      <trkpt lat="41.712563" lon="-111.829467"/>
      <trkpt lat="41.712724" lon="-111.829658"/>
      <trkpt lat="41.712924" lon="-111.829898"/>
      <trkpt lat="41.713097" lon="-111.830079"/>
      <trkpt lat="41.713287" lon="-111.830189"/>
      <trkpt lat="41.713498" lon="-111.830257"/>
      <trkpt lat="41.713748" lon="-111.830274"/>
      <trkpt lat="41.713873" lon="-111.830269"/>
      <trkpt lat="41.714248" lon="-111.830254"/>
      <trkpt lat="41.714362" lon="-111.830226"/>
      <trkpt lat="41.714493" lon="-111.830187"/>
      <trkpt lat="41.714631" lon="-111.830124"/>
      <trkpt lat="41.714747" lon="-111.830074"/>
      <trkpt lat="41.714977" lon="-111.830007"/>
      <trkpt lat="41.715112" lon="-111.830003"/>
      <trkpt lat="41.715361" lon="-111.830002"/>
      <trkpt lat="41.716871" lon="-111.829975"/>
      <trkpt lat="41.717085" lon="-111.829976"/>
      <trkpt lat="41.717257" lon="-111.829998"/>
      <trkpt lat="41.717421" lon="-111.830052"/>
      <trkpt lat="41.717556" lon="-111.830119"/>
      <trkpt lat="41.717660" lon="-111.830175"/>
      <trkpt lat="41.717822" lon="-111.830300"/>
      <trkpt lat="41.717823" lon="-111.830302"/>
      <trkpt lat="41.717970" lon="-111.830446"/>
      <trkpt lat="41.718085" lon="-111.830597"/>
      <trkpt lat="41.718185" lon="-111.830720"/>
      <trkpt lat="41.718236" lon="-111.830827"/>
      <trkpt lat="41.718309" lon="-111.830902"/>
      <trkpt lat="41.718413" lon="-111.831013"/>
      <trkpt lat="41.718470" lon="-111.831067"/>
      <trkpt lat="41.718535" lon="-111.831119"/>
      <trkpt lat="41.718678" lon="-111.831220"/>
      <trkpt lat="41.718815" lon="-111.831282"/>
      <trkpt lat="41.718917" lon="-111.831315"/>
      <trkpt lat="41.719054" lon="-111.831346"/>
      <trkpt lat="41.719179" lon="-111.831358"/>
      <trkpt lat="41.719380" lon="-111.831356"/>
      <trkpt lat="41.720159" lon="-111.831379"/>
      <trkpt lat="41.720287" lon="-111.831409"/>
      <trkpt lat="41.720518" lon="-111.831515"/>
      <trkpt lat="41.720743" lon="-111.831674"/>
      <trkpt lat="41.720930" lon="-111.831871"/>
      <trkpt lat="41.721194" lon="-111.832184"/>
      <trkpt lat="41.721334" lon="-111.832353"/>
      <trkpt lat="41.721446" lon="-111.832446"/>
      <trkpt lat="41.721559" lon="-111.832527"/>
      <trkpt lat="41.721693" lon="-111.832600"/>
      <trkpt lat="41.721789" lon="-111.832638"/>
      <trkpt lat="41.721888" lon="-111.832667"/>
      <trkpt lat="41.722024" lon="-111.832688"/>
      <trkpt lat="41.722122" lon="-111.832692"/>
      <trkpt lat="41.722194" lon="-111.832692"/>
      <trkpt lat="41.722360" lon="-111.832691"/>
      <trkpt lat="41.723135" lon="-111.832662"/>
      <trkpt lat="41.723413" lon="-111.832651"/>
      <trkpt lat="41.723676" lon="-111.832637"/>
      <trkpt lat="41.723851" lon="-111.832624"/>
      <trkpt lat="41.724242" lon="-111.832605"/>
      <trkpt lat="41.725296" lon="-111.832567"/>
      <trkpt lat="41.725785" lon="-111.832534"/>
      <trkpt lat="41.725996" lon="-111.832507"/>
      <trkpt lat="41.726160" lon="-111.832448"/>
      <trkpt lat="41.726590" lon="-111.832467"/>
      <trkpt lat="41.727044" lon="-111.832444"/>
      <trkpt lat="41.727456" lon="-111.832436"/>
      <trkpt lat="41.727803" lon="-111.832422"/>
      <trkpt lat="41.728516" lon="-111.832405"/>
      <trkpt lat="41.729097" lon="-111.832390"/>
      <trkpt lat="41.729325" lon="-111.832374"/>
      <trkpt lat="41.729663" lon="-111.832356"/>
      <trkpt lat="41.729888" lon="-111.832358"/>
      <trkpt lat="41.730072" lon="-111.832356"/>
      <trkpt lat="41.730308" lon="-111.832351"/>
      <trkpt lat="41.730782" lon="-111.832306"/>
      <trkpt lat="41.730992" lon="-111.832328"/>
      <trkpt lat="41.731191" lon="-111.832325"/>
      <trkpt lat="41.731484" lon="-111.832318"/>
      <trkpt lat="41.731841" lon="-111.832305"/>
      <trkpt lat="41.732128" lon="-111.832296"/>
      <trkpt lat="41.732414" lon="-111.832290"/>
      <trkpt lat="41.732642" lon="-111.832281"/>
      <trkpt lat="41.732930" lon="-111.832274"/>
      <trkpt lat="41.733111" lon="-111.832271"/>
      <trkpt lat="41.733404" lon="-111.832265"/>
      <trkpt lat="41.733689" lon="-111.832252"/>
      <trkpt lat="41.734186" lon="-111.832243"/>
      <trkpt lat="41.734288" lon="-111.832242"/>
      <trkpt lat="41.734599" lon="-111.832228"/>
      <trkpt lat="41.734884" lon="-111.832226"/>
      <trkpt lat="41.735174" lon="-111.832210"/>
      <trkpt lat="41.735381" lon="-111.832208"/>
      <trkpt lat="41.735913" lon="-111.832166"/>
      <trkpt lat="41.736099" lon="-111.832193"/>
      <trkpt lat="41.736836" lon="-111.832171"/>
      <trkpt lat="41.736966" lon="-111.832164"/>
      <trkpt lat="41.737250" lon="-111.832163"/>
      <trkpt lat="41.737489" lon="-111.832156"/>
      <trkpt lat="41.737759" lon="-111.832144"/>
      <trkpt lat="41.737900" lon="-111.832140"/>
      <trkpt lat="41.738101" lon="-111.832133"/>
      <trkpt lat="41.738306" lon="-111.832128"/>
      <trkpt lat="41.738541" lon="-111.832116"/>
      <trkpt lat="41.738871" lon="-111.832110"/>
      <trkpt lat="41.739174" lon="-111.832099"/>
      <trkpt lat="41.740241" lon="-111.832060"/>
      <trkpt lat="41.740599" lon="-111.832049"/>
      <trkpt lat="41.740715" lon="-111.832014"/>
      <trkpt lat="41.740781" lon="-111.832014"/>
      <trkpt lat="41.740810" lon="-111.832010"/>
      <trkpt lat="41.740838" lon="-111.832002"/>
      <trkpt lat="41.740857" lon="-111.831990"/>
      <trkpt lat="41.740871" lon="-111.831955"/>
      <trkpt lat="41.740877" lon="-111.831913"/>
      <trkpt lat="41.740871" lon="-111.831847"/>
      <trkpt lat="41.740866" lon="-111.831790"/>
      <trkpt lat="41.740857" lon="-111.831589"/>
      <trkpt lat="41.740834" lon="-111.831552"/>
      <trkpt lat="41.740763" lon="-111.831527"/>
      <trkpt lat="41.740701" lon="-111.831513"/>
      <trkpt lat="41.740641" lon="-111.831510"/>
    </trkseg></trk>
</gpx>
