<?xml version="1.0" encoding="UTF-8"?>
<gpx version="1.1" creator="flagstop" xmlns="http://www.topografix.com/GPX/1/1">
  <trk><name>6 </name><desc>GTFS shape 27006</desc><trkseg>
      <trkpt lat="41.740815" lon="-111.831269"/>
      <trkpt lat="41.740894" lon="-111.831025"/>
      <trkpt lat="41.740877" lon="-111.830265"/>
      <trkpt lat="41.740855" lon="-111.829952"/>
      <trkpt lat="41.740827" lon="-111.829795"/>
      <trkpt lat="41.740774" lon="-111.829706"/>
      <trkpt lat="41.740679" lon="-111.829625"/>
      <trkpt lat="41.740498" lon="-111.829607"/>
      <trkpt lat="41.739699" lon="-111.829628"/>
      <trkpt lat="41.739372" lon="-111.829658"/>
      <trkpt lat="41.739122" lon="-111.829662"/>
      <trkpt lat="41.739084" lon="-111.829667"/>
      <trkpt lat="41.739060" lon="-111.829703"/>
      <trkpt lat="41.739045" lon="-111.829783"/>
      <trkpt lat="41.739049" lon="-111.830104"/>
      <trkpt lat="41.739081" lon="-111.831968"/>
      <trkpt lat="41.739098" lon="-111.833094"/>
      <trkpt lat="41.739133" lon="-111.834519"/>
      <trkpt lat="41.739149" lon="-111.835045"/>
      <trkpt lat="41.739173" lon="-111.836520"/>
      <trkpt lat="41.739142" lon="-111.837216"/>
      <trkpt lat="41.739158" lon="-111.838820"/>
      <trkpt lat="41.739173" lon="-111.839780"/>
      <trkpt lat="41.739172" lon="-111.839936"/>
      <trkpt lat="41.739125" lon="-111.839995"/>
      <trkpt lat="41.739071" lon="-111.840020"/>
      <trkpt lat="41.738928" lon="-111.840030"/>
      <trkpt lat="41.737376" lon="-111.840069"/>
      <trkpt lat="41.736171" lon="-111.840081"/>
      <trkpt lat="41.735929" lon="-111.840095"/>
      <trkpt lat="41.735447" lon="-111.840127"/>
      <trkpt lat="41.735387" lon="-111.840135"/>
      <trkpt lat="41.735347" lon="-111.840167"/>
      <trkpt lat="41.735339" lon="-111.840221"/>
      <trkpt lat="41.735358" lon="-111.841030"/>
      <trkpt lat="41.735390" lon="-111.842928"/>
      <trkpt lat="41.735434" lon="-111.845475"/>
      <trkpt lat="41.735471" lon="-111.847537"/>
      <trkpt lat="41.735498" lon="-111.848744"/>
      <trkpt lat="41.735475" lon="-111.849460"/>
      <trkpt lat="41.735470" lon="-111.849665"/>
      <trkpt lat="41.735417" lon="-111.849735"/>
      <trkpt lat="41.735342" lon="-111.849766"/>
      <trkpt lat="41.735250" lon="-111.849772"/>
      <trkpt lat="41.734791" lon="-111.849773"/>
      <trkpt lat="41.734493" lon="-111.849761"/>
      <trkpt lat="41.733773" lon="-111.849761"/>
      <trkpt lat="41.732257" lon="-111.849820"/>
      <trkpt lat="41.729788" lon="-111.849919"/>
      <trkpt lat="41.729150" lon="-111.849932"/>
      <trkpt lat="41.728061" lon="-111.849970"/>
      <trkpt lat="41.728013" lon="-111.849977"/>
      <trkpt lat="41.727985" lon="-111.850009"/>
      <trkpt lat="41.727976" lon="-111.850091"/>
      <trkpt lat="41.728001" lon="-111.852276"/>
      <trkpt lat="41.728029" lon="-111.853236"/>
      <trkpt lat="41.728066" lon="-111.854828"/>
      <trkpt lat="41.728062" lon="-111.855660"/>
      <trkpt lat="41.728069" lon="-111.857095"/>
      <trkpt lat="41.728086" lon="-111.858202"/>
      <trkpt lat="41.728108" lon="-111.859621"/>
      <trkpt lat="41.728098" lon="-111.859863"/>
      <trkpt lat="41.728073" lon="-111.859935"/>
      <trkpt lat="41.728023" lon="-111.859960"/>
      <trkpt lat="41.727955" lon="-111.859969"/>
      <trkpt lat="41.725649" lon="-111.860023"/>
      <trkpt lat="41.721979" lon="-111.860059"/>
      <trkpt lat="41.721633" lon="-111.859993"/>
      <trkpt lat="41.720878" lon="-111.859953"/>
      <trkpt lat="41.720783" lon="-111.859952"/>
      <trkpt lat="41.720720" lon="-111.859910"/>
      <trkpt lat="41.720699" lon="-111.859839"/>
      <trkpt lat="41.720696" lon="-111.859682"/>
      <trkpt lat="41.720693" lon="-111.859080"/>
      <trkpt lat="41.720697" lon="-111.858770"/>
      <trkpt lat="41.720697" lon="-111.858381"/>
      <trkpt lat="41.720678" lon="-111.858139"/>
      <trkpt lat="41.720679" lon="-111.857657"/>
      <trkpt lat="41.720619" lon="-111.854754"/>
      <trkpt lat="41.720578" lon="-111.854088"/>
      <trkpt lat="41.720585" lon="-111.853348"/>
      <trkpt lat="41.720587" lon="-111.853240"/>
      <trkpt lat="41.720613" lon="-111.853203"/>
      <trkpt lat="41.720652" lon="-111.853189"/>
      <trkpt lat="41.721074" lon="-111.853174"/>
      <trkpt lat="41.721997" lon="-111.853136"/>
      <trkpt lat="41.723439" lon="-111.853106"/>
      <trkpt lat="41.723559" lon="-111.853092"/>
      <trkpt lat="41.723645" lon="-111.853055"/>
      <trkpt lat="41.723745" lon="-111.852981"/>
      <trkpt lat="41.724270" lon="-111.852436"/>
      <trkpt lat="41.724286" lon="-111.852372"/>
      <trkpt lat="41.724286" lon="-111.852291"/>
      <trkpt lat="41.724254" lon="-111.851261"/>
      <trkpt lat="41.724195" lon="-111.850888"/>
      <trkpt lat="41.724238" lon="-111.850719"/>
      <trkpt lat="41.724217" lon="-111.849222"/>
      <trkpt lat="41.724143" lon="-111.848541"/>
      <trkpt lat="41.724194" lon="-111.848233"/>
      <trkpt lat="41.724212" lon="-111.848120"/>
      <trkpt lat="41.724248" lon="-111.848053"/>
      <trkpt lat="41.724322" lon="-111.848019"/>
      <trkpt lat="41.724553" lon="-111.848023"/>
      <trkpt lat="41.724635" lon="-111.848028"/>
      <trkpt lat="41.724723" lon="-111.848047"/>
      <trkpt lat="41.725254" lon="-111.848025"/>
      <trkpt lat="41.726066" lon="-111.848005"/>
      <trkpt lat="41.727623" lon="-111.847968"/>
      <trkpt lat="41.727703" lon="-111.847960"/>
      <trkpt lat="41.727737" lon="-111.847912"/>
      <trkpt lat="41.727751" lon="-111.847845"/>
      <trkpt lat="41.727734" lon="-111.845586"/>
      <trkpt lat="41.727736" lon="-111.845498"/>
      <trkpt lat="41.727782" lon="-111.845417"/>
      <trkpt lat="41.727852" lon="-111.845407"/>
      <trkpt lat="41.728006" lon="-111.845389"/>
      <trkpt lat="41.728152" lon="-111.845406"/>
      <trkpt lat="41.729523" lon="-111.845365"/>
      <trkpt lat="41.729879" lon="-111.845327"/>
      <trkpt lat="41.730140" lon="-111.845342"/>
      <trkpt lat="41.731475" lon="-111.845312"/>
      <trkpt lat="41.733346" lon="-111.845241"/>
      <trkpt lat="41.734698" lon="-111.845212"/>
      <trkpt lat="41.735042" lon="-111.845132"/>
      <trkpt lat="41.735254" lon="-111.845137"/>
      <trkpt lat="41.735327" lon="-111.845106"/>
      <trkpt lat="41.735361" lon="-111.845028"/>
      <trkpt lat="41.735351" lon="-111.844819"/>
      <trkpt lat="41.735309" lon="-111.842271"/>
      <trkpt lat="41.735305" lon="-111.840772"/>
      <trkpt lat="41.735303" lon="-111.840243"/>
      <trkpt lat="41.735303" lon="-111.840139"/>
      <trkpt lat="41.735345" lon="-111.840061"/>
      <trkpt lat="41.735403" lon="-111.840018"/>
      <trkpt lat="41.735485" lon="-111.840013"/>
      <trkpt lat="41.735948" lon="-111.839979"/>
      <trkpt lat="41.736230" lon="-111.839975"/>
      <trkpt lat="41.737094" lon="-111.839968"/>
      <trkpt lat="41.739009" lon="-111.839911"/>
      <trkpt lat="41.739082" lon="-111.839898"/>
      <trkpt lat="41.739110" lon="-111.839853"/>
      <trkpt lat="41.739118" lon="-111.839770"/>
      <trkpt lat="41.739082" lon="-111.837584"/>
      <trkpt lat="41.739070" lon="-111.836833"/>
      <trkpt lat="41.738996" lon="-111.836284"/>
      <trkpt lat="41.739019" lon="-111.836105"/>
      <trkpt lat="41.739051" lon="-111.835711"/>
      <trkpt lat="41.739061" lon="-111.835351"/>
      <trkpt lat="41.739054" lon="-111.835025"/>
      <trkpt lat="41.739055" lon="-111.834911"/>
      <trkpt lat="41.739064" lon="-111.834795"/>
      <trkpt lat="41.739106" lon="-111.834717"/>
      <trkpt lat="41.739156" lon="-111.834686"/>
      <trkpt lat="41.739231" lon="-111.834674"/>
      <trkpt lat="41.739940" lon="-111.834664"/>
      <trkpt lat="41.740469" lon="-111.834644"/>
      <trkpt lat="41.740831" lon="-111.834591"/>
      <trkpt lat="41.740878" lon="-111.834586"/>
      <trkpt lat="41.740907" lon="-111.834552"/>
      <trkpt lat="41.740927" lon="-111.834491"/>
      <trkpt lat="41.740924" lon="-111.834206"/>
      <trkpt lat="41.740940" lon="-111.833890"/>
      <trkpt lat="41.740938" lon="-111.833578"/>
      <trkpt lat="41.740915" lon="-111.832255"/>
      <trkpt lat="41.740908" lon="-111.831788"/>
      <trkpt lat="41.740894" lon="-111.831230"/>
      <trkpt lat="41.740850" lon="-111.830486"/>
      <trkpt lat="41.740805" lon="-111.830406"/>
      <trkpt lat="41.740748" lon="-111.830395"/>
      <trkpt lat="41.740700" lon="-111.830409"/>
      <trkpt lat="41.740635" lon="-111.830460"/>
      <trkpt lat="41.740581" lon="-111.830548"/>
      <trkpt lat="41.740535" lon="-111.830673"/>
      <trkpt lat="41.740489" lon="-111.830839"/>
      <trkpt lat="41.740492" lon="-111.831025"/>
      <trkpt lat="41.740526" lon="-111.831189"/>
      <trkpt lat="41.740615" lon="-111.831237"/>
    </trkseg></trk>
</gpx>
