<?xml version="1.0" encoding="UTF-8"?>
<gpx version="1.1" creator="flagstop" xmlns="http://www.topografix.com/GPX/1/1">
  <trk><name>2 L.R. Hospital - 800 E</name><desc>GTFS shape 19753</desc><trkseg>
      <trkpt lat="41.740788" lon="-111.830626"/>
      <trkpt lat="41.740863" lon="-111.830421"/>
      <trkpt lat="41.740864" lon="-111.830174"/>
      <trkpt lat="41.740857" lon="-111.830040"/>
      <trkpt lat="41.740847" lon="-111.829939"/>
      <trkpt lat="41.740838" lon="-111.829827"/>
      <trkpt lat="41.740797" lon="-111.829740"/>
      <trkpt lat="41.740745" lon="-111.829639"/>
      <trkpt lat="41.740734" lon="-111.829552"/>
      <trkpt lat="41.740759" lon="-111.829426"/>
      <trkpt lat="41.740825" lon="-111.829364"/>
      <trkpt lat="41.740921" lon="-111.829358"/>
      <trkpt lat="41.740976" lon="-111.829410"/>
      <trkpt lat="41.740999" lon="-111.829441"/>
      <trkpt lat="41.741065" lon="-111.829477"/>
      <trkpt lat="41.741266" lon="-111.829507"/>
      <trkpt lat="41.741345" lon="-111.829507"/>
      <trkpt lat="41.742358" lon="-111.829465"/>
      <trkpt lat="41.742996" lon="-111.829456"/>
      <trkpt lat="41.744068" lon="-111.829450"/>
      <trkpt lat="41.744938" lon="-111.829430"/>
      <trkpt lat="41.746235" lon="-111.829391"/>
      <trkpt lat="41.747472" lon="-111.829352"/>
      <trkpt lat="41.748844" lon="-111.829305"/>
      <trkpt lat="41.749992" lon="-111.829284"/>
      <trkpt lat="41.752354" lon="-111.829184"/>
      <trkpt lat="41.753042" lon="-111.829156"/>
      <trkpt lat="41.754311" lon="-111.829138"/>
      <trkpt lat="41.754490" lon="-111.829123"/>
      <trkpt lat="41.755266" lon="-111.829098"/>
      <trkpt lat="41.756343" lon="-111.829057"/>
      <trkpt lat="41.757302" lon="-111.829010"/>
      <trkpt lat="41.757325" lon="-111.829003"/>
      <trkpt lat="41.757331" lon="-111.828995"/>
      <trkpt lat="41.757339" lon="-111.828990"/>
      <trkpt lat="41.757344" lon="-111.828979"/>
      <trkpt lat="41.757346" lon="-111.828971"/>
      <trkpt lat="41.757348" lon="-111.828960"/>
      <trkpt lat="41.757348" lon="-111.828949"/>
      <trkpt lat="41.757352" lon="-111.828938"/>
      <trkpt lat="41.757352" lon="-111.828924"/>
      <trkpt lat="41.757354" lon="-111.828914"/>
      <trkpt lat="41.757357" lon="-111.828903"/>
      <trkpt lat="41.757359" lon="-111.828892"/>
      <trkpt lat="41.757359" lon="-111.828881"/>
      <trkpt lat="41.757359" lon="-111.828868"/>
      <trkpt lat="41.757359" lon="-111.828860"/>
      <trkpt lat="41.757376" lon="-111.826404"/>
      <trkpt lat="41.757393" lon="-111.824717"/>
      <trkpt lat="41.757381" lon="-111.823206"/>
      <trkpt lat="41.757335" lon="-111.822304"/>
      <trkpt lat="41.757381" lon="-111.821457"/>
      <trkpt lat="41.757388" lon="-111.820103"/>
      <trkpt lat="41.757415" lon="-111.819300"/>
      <trkpt lat="41.757412" lon="-111.819250"/>
      <trkpt lat="41.757412" lon="-111.819235"/>
      <trkpt lat="41.757414" lon="-111.819225"/>
      <trkpt lat="41.757414" lon="-111.819215"/>
      <trkpt lat="41.757416" lon="-111.819205"/>
      <trkpt lat="41.757418" lon="-111.819195"/>
      <trkpt lat="41.757418" lon="-111.819185"/>
      <trkpt lat="41.757420" lon="-111.819175"/>
      <trkpt lat="41.757420" lon="-111.819162"/>
      <trkpt lat="41.757422" lon="-111.819152"/>
      <trkpt lat="41.757424" lon="-111.819142"/>
      <trkpt lat="41.757430" lon="-111.819132"/>
      <trkpt lat="41.757434" lon="-111.819122"/>
      <trkpt lat="41.757437" lon="-111.819115"/>
      <trkpt lat="41.757443" lon="-111.819105"/>
      <trkpt lat="41.757449" lon="-111.819095"/>
      <trkpt lat="41.757453" lon="-111.819085"/>
      <trkpt lat="41.757458" lon="-111.819078"/>
      <trkpt lat="41.757464" lon="-111.819070"/>
      <trkpt lat="41.757470" lon="-111.819063"/>
      <trkpt lat="41.757478" lon="-111.819055"/>
      <trkpt lat="41.757485" lon="-111.819048"/>
      <trkpt lat="41.757493" lon="-111.819043"/>
      <trkpt lat="41.757500" lon="-111.819038"/>
      <trkpt lat="41.757508" lon="-111.819034"/>
      <trkpt lat="41.757515" lon="-111.819029"/>
      <trkpt lat="41.757523" lon="-111.819026"/>
      <trkpt lat="41.757531" lon="-111.819022"/>
      <trkpt lat="41.757538" lon="-111.819019"/>
      <trkpt lat="41.757546" lon="-111.819017"/>
      <trkpt lat="41.757553" lon="-111.819012"/>
      <trkpt lat="41.757561" lon="-111.819010"/>
      <trkpt lat="41.757568" lon="-111.819010"/>
      <trkpt lat="41.757576" lon="-111.819008"/>
      <trkpt lat="41.757585" lon="-111.819008"/>
      <trkpt lat="41.757593" lon="-111.819005"/>
      <trkpt lat="41.757599" lon="-111.819003"/>
      <trkpt lat="41.758161" lon="-111.818978"/>
      <trkpt lat="41.758787" lon="-111.818958"/>
      <trkpt lat="41.759607" lon="-111.818964"/>
      <trkpt lat="41.760487" lon="-111.818932"/>
      <trkpt lat="41.761083" lon="-111.818925"/>
      <trkpt lat="41.762077" lon="-111.818904"/>
      <trkpt lat="41.762117" lon="-111.818915"/>
      <trkpt lat="41.762139" lon="-111.818931"/>
      <trkpt lat="41.762160" lon="-111.818958"/>
      <trkpt lat="41.762164" lon="-111.818983"/>
      <trkpt lat="41.762164" lon="-111.818998"/>
      <trkpt lat="41.762166" lon="-111.819025"/>
      <trkpt lat="41.762165" lon="-111.819055"/>
      <trkpt lat="41.762162" lon="-111.819104"/>
      <trkpt lat="41.762165" lon="-111.819128"/>
      <trkpt lat="41.762161" lon="-111.819228"/>
      <trkpt lat="41.762169" lon="-111.819365"/>
      <trkpt lat="41.762168" lon="-111.819445"/>
      <trkpt lat="41.762170" lon="-111.819655"/>
      <trkpt lat="41.762167" lon="-111.819907"/>
      <trkpt lat="41.762172" lon="-111.820609"/>
      <trkpt lat="41.762174" lon="-111.820662"/>
      <trkpt lat="41.762176" lon="-111.820686"/>
      <trkpt lat="41.762178" lon="-111.820699"/>
      <trkpt lat="41.762180" lon="-111.820711"/>
      <trkpt lat="41.762180" lon="-111.820724"/>
      <trkpt lat="41.762184" lon="-111.820739"/>
      <trkpt lat="41.762184" lon="-111.820748"/>
      <trkpt lat="41.762188" lon="-111.820764"/>
      <trkpt lat="41.762191" lon="-111.820776"/>
      <trkpt lat="41.762190" lon="-111.820789"/>
      <trkpt lat="41.762192" lon="-111.820801"/>
      <trkpt lat="41.762197" lon="-111.820814"/>
      <trkpt lat="41.762199" lon="-111.820826"/>
      <trkpt lat="41.762201" lon="-111.820839"/>
      <trkpt lat="41.762203" lon="-111.820851"/>
      <trkpt lat="41.762205" lon="-111.820864"/>
      <trkpt lat="41.762207" lon="-111.820873"/>
      <trkpt lat="41.762212" lon="-111.820888"/>
      <trkpt lat="41.762216" lon="-111.820898"/>
      <trkpt lat="41.762223" lon="-111.820911"/>
      <trkpt lat="41.762227" lon="-111.820923"/>
      <trkpt lat="41.762234" lon="-111.820936"/>
      <trkpt lat="41.762238" lon="-111.820948"/>
      <trkpt lat="41.762243" lon="-111.820961"/>
      <trkpt lat="41.762247" lon="-111.820973"/>
      <trkpt lat="41.762249" lon="-111.820986"/>
      <trkpt lat="41.762256" lon="-111.820998"/>
      <trkpt lat="41.762263" lon="-111.821011"/>
      <trkpt lat="41.762270" lon="-111.821021"/>
      <trkpt lat="41.762276" lon="-111.821033"/>
      <trkpt lat="41.762283" lon="-111.821043"/>
      <trkpt lat="41.762290" lon="-111.821055"/>
      <trkpt lat="41.762299" lon="-111.821068"/>
      <trkpt lat="41.762306" lon="-111.821078"/>
      <trkpt lat="41.762312" lon="-111.821084"/>
      <trkpt lat="41.762319" lon="-111.821097"/>
      <trkpt lat="41.762326" lon="-111.821103"/>
      <trkpt lat="41.762333" lon="-111.821116"/>
      <trkpt lat="41.762340" lon="-111.821122"/>
      <trkpt lat="41.762346" lon="-111.821135"/>
      <trkpt lat="41.762353" lon="-111.821144"/>
      <trkpt lat="41.762358" lon="-111.821154"/>
      <trkpt lat="41.762367" lon="-111.821164"/>
      <trkpt lat="41.762376" lon="-111.821173"/>
      <trkpt lat="41.762383" lon="-111.821183"/>
      <trkpt lat="41.762389" lon="-111.821192"/>
      <trkpt lat="41.762398" lon="-111.821202"/>
      <trkpt lat="41.762405" lon="-111.821212"/>
      <trkpt lat="41.762414" lon="-111.821218"/>
      <trkpt lat="41.762421" lon="-111.821225"/>
      <trkpt lat="41.762430" lon="-111.821234"/>
      <trkpt lat="41.762439" lon="-111.821244"/>
      <trkpt lat="41.762449" lon="-111.821251"/>
      <trkpt lat="41.762458" lon="-111.821257"/>
      <trkpt lat="41.762469" lon="-111.821264"/>
      <trkpt lat="41.762478" lon="-111.821267"/>
      <trkpt lat="41.762488" lon="-111.821270"/>
      <trkpt lat="41.762497" lon="-111.821274"/>
      <trkpt lat="41.762506" lon="-111.821284"/>
      <trkpt lat="41.762515" lon="-111.821290"/>
      <trkpt lat="41.762517" lon="-111.821293"/>
      <trkpt lat="41.762538" lon="-111.821313"/>
      <trkpt lat="41.762547" lon="-111.821319"/>
      <trkpt lat="41.762556" lon="-111.821323"/>
      <trkpt lat="41.762566" lon="-111.821323"/>
      <trkpt lat="41.762577" lon="-111.821330"/>
      <trkpt lat="41.762584" lon="-111.821333"/>
      <trkpt lat="41.762598" lon="-111.821340"/>
      <trkpt lat="41.762607" lon="-111.821343"/>
      <trkpt lat="41.762616" lon="-111.821346"/>
      <trkpt lat="41.762626" lon="-111.821353"/>
      <trkpt lat="41.762635" lon="-111.821356"/>
      <trkpt lat="41.762644" lon="-111.821360"/>
      <trkpt lat="41.762653" lon="-111.821363"/>
      <trkpt lat="41.762665" lon="-111.821367"/>
      <trkpt lat="41.762674" lon="-111.821367"/>
      <trkpt lat="41.762683" lon="-111.821371"/>
      <trkpt lat="41.762693" lon="-111.821374"/>
      <trkpt lat="41.762704" lon="-111.821374"/>
      <trkpt lat="41.762714" lon="-111.821375"/>
      <trkpt lat="41.762723" lon="-111.821378"/>
      <trkpt lat="41.762734" lon="-111.821379"/>
      <trkpt lat="41.762746" lon="-111.821379"/>
      <trkpt lat="41.762760" lon="-111.821379"/>
      <trkpt lat="41.762769" lon="-111.821380"/>
      <trkpt lat="41.762779" lon="-111.821383"/>
      <trkpt lat="41.762790" lon="-111.821387"/>
      <trkpt lat="41.762799" lon="-111.821387"/>
      <trkpt lat="41.762811" lon="-111.821387"/>
      <trkpt lat="41.762823" lon="-111.821388"/>
      <trkpt lat="41.762834" lon="-111.821388"/>
      <trkpt lat="41.762844" lon="-111.821382"/>
      <trkpt lat="41.762853" lon="-111.821379"/>
      <trkpt lat="41.762860" lon="-111.821380"/>
      <trkpt lat="41.762890" lon="-111.821365"/>
      <trkpt lat="41.762900" lon="-111.821359"/>
      <trkpt lat="41.762909" lon="-111.821353"/>
      <trkpt lat="41.762919" lon="-111.821350"/>
      <trkpt lat="41.762928" lon="-111.821350"/>
      <trkpt lat="41.762937" lon="-111.821344"/>
      <trkpt lat="41.762947" lon="-111.821345"/>
      <trkpt lat="41.762956" lon="-111.821342"/>
      <trkpt lat="41.762965" lon="-111.821339"/>
      <trkpt lat="41.762975" lon="-111.821340"/>
      <trkpt lat="41.762984" lon="-111.821334"/>
      <trkpt lat="41.762993" lon="-111.821331"/>
      <trkpt lat="41.763005" lon="-111.821331"/>
      <trkpt lat="41.763012" lon="-111.821325"/>
      <trkpt lat="41.763021" lon="-111.821322"/>
      <trkpt lat="41.763031" lon="-111.821316"/>
      <trkpt lat="41.763033" lon="-111.821313"/>
      <trkpt lat="41.763576" lon="-111.821057"/>
      <trkpt lat="41.763835" lon="-111.820931"/>
      <trkpt lat="41.763950" lon="-111.820887"/>
      <trkpt lat="41.764094" lon="-111.820866"/>
      <trkpt lat="41.764827" lon="-111.820838"/>
      <trkpt lat="41.764852" lon="-111.820816"/>
      <trkpt lat="41.764862" lon="-111.820810"/>
      <trkpt lat="41.764866" lon="-111.820798"/>
      <trkpt lat="41.764871" lon="-111.820789"/>
      <trkpt lat="41.764874" lon="-111.820773"/>
      <trkpt lat="41.764876" lon="-111.820758"/>
      <trkpt lat="41.764878" lon="-111.820742"/>
      <trkpt lat="41.764879" lon="-111.820730"/>
      <trkpt lat="41.764879" lon="-111.820717"/>
      <trkpt lat="41.764879" lon="-111.820702"/>
      <trkpt lat="41.764877" lon="-111.820692"/>
      <trkpt lat="41.764831" lon="-111.819169"/>
      <trkpt lat="41.764817" lon="-111.816724"/>
      <trkpt lat="41.764767" lon="-111.814240"/>
      <trkpt lat="41.764746" lon="-111.813884"/>
      <trkpt lat="41.764744" lon="-111.813845"/>
      <trkpt lat="41.764740" lon="-111.813834"/>
      <trkpt lat="41.764736" lon="-111.813822"/>
      <trkpt lat="41.764729" lon="-111.813813"/>
      <trkpt lat="41.764725" lon="-111.813801"/>
      <trkpt lat="41.764721" lon="-111.813789"/>
      <trkpt lat="41.764714" lon="-111.813780"/>
      <trkpt lat="41.764708" lon="-111.813771"/>
      <trkpt lat="41.764699" lon="-111.813765"/>
      <trkpt lat="41.764690" lon="-111.813762"/>
      <trkpt lat="41.764681" lon="-111.813762"/>
      <trkpt lat="41.764673" lon="-111.813759"/>
      <trkpt lat="41.764664" lon="-111.813756"/>
      <trkpt lat="41.764655" lon="-111.813752"/>
      <trkpt lat="41.764646" lon="-111.813752"/>
      <trkpt lat="41.764635" lon="-111.813752"/>
      <trkpt lat="41.764624" lon="-111.813749"/>
      <trkpt lat="41.764616" lon="-111.813746"/>
      <trkpt lat="41.764607" lon="-111.813746"/>
      <trkpt lat="41.764596" lon="-111.813745"/>
      <trkpt lat="41.764592" lon="-111.813742"/>
      <trkpt lat="41.764130" lon="-111.813752"/>
      <trkpt lat="41.763817" lon="-111.813758"/>
      <trkpt lat="41.762213" lon="-111.813798"/>
      <trkpt lat="41.760289" lon="-111.813934"/>
      <trkpt lat="41.759017" lon="-111.813904"/>
      <trkpt lat="41.757554" lon="-111.813933"/>
      <trkpt lat="41.756688" lon="-111.813978"/>
      <trkpt lat="41.754960" lon="-111.813966"/>
      <trkpt lat="41.753348" lon="-111.814010"/>
      <trkpt lat="41.751392" lon="-111.814032"/>
      <trkpt lat="41.751120" lon="-111.814029"/>
      <trkpt lat="41.750738" lon="-111.814042"/>
      <trkpt lat="41.750328" lon="-111.814034"/>
      <trkpt lat="41.750254" lon="-111.814034"/>
      <trkpt lat="41.750212" lon="-111.814048"/>
      <trkpt lat="41.750178" lon="-111.814083"/>
      <trkpt lat="41.750178" lon="-111.814152"/>
      <trkpt lat="41.750172" lon="-111.815595"/>
      <trkpt lat="41.750179" lon="-111.815888"/>
      <trkpt lat="41.750172" lon="-111.816032"/>
      <trkpt lat="41.750139" lon="-111.816189"/>
      <trkpt lat="41.750086" lon="-111.816546"/>
      <trkpt lat="41.750015" lon="-111.816894"/>
      <trkpt lat="41.749964" lon="-111.817226"/>
      <trkpt lat="41.749940" lon="-111.817749"/>
      <trkpt lat="41.749937" lon="-111.818317"/>
      <trkpt lat="41.749942" lon="-111.818877"/>
      <trkpt lat="41.749941" lon="-111.818935"/>
      <trkpt lat="41.749944" lon="-111.818964"/>
      <trkpt lat="41.749953" lon="-111.818978"/>
      <trkpt lat="41.749965" lon="-111.818987"/>
      <trkpt lat="41.749996" lon="-111.818986"/>
      <trkpt lat="41.750042" lon="-111.818982"/>
      <trkpt lat="41.750110" lon="-111.818975"/>
      <trkpt lat="41.750174" lon="-111.818981"/>
      <trkpt lat="41.750240" lon="-111.818993"/>
      <trkpt lat="41.750299" lon="-111.819013"/>
      <trkpt lat="41.750376" lon="-111.819048"/>
      <trkpt lat="41.750518" lon="-111.819139"/>
      <trkpt lat="41.750626" lon="-111.819194"/>
      <trkpt lat="41.750704" lon="-111.819226"/>
      <trkpt lat="41.750843" lon="-111.819248"/>
      <trkpt lat="41.751189" lon="-111.819221"/>
      <trkpt lat="41.751904" lon="-111.819208"/>
      <trkpt lat="41.752530" lon="-111.819197"/>
      <trkpt lat="41.753573" lon="-111.819146"/>
      <trkpt lat="41.755213" lon="-111.819106"/>
      <trkpt lat="41.755328" lon="-111.819090"/>
      <trkpt lat="41.756454" lon="-111.819059"/>
      <trkpt lat="41.756778" lon="-111.819046"/>
      <trkpt lat="41.757234" lon="-111.819058"/>
      <trkpt lat="41.757302" lon="-111.819066"/>
      <trkpt lat="41.757374" lon="-111.819083"/>
      <trkpt lat="41.757406" lon="-111.819093"/>
      <trkpt lat="41.757468" lon="-111.819166"/>
      <trkpt lat="41.757494" lon="-111.819238"/>
      <trkpt lat="41.757498" lon="-111.819332"/>
      <trkpt lat="41.757518" lon="-111.820094"/>
      <trkpt lat="41.757556" lon="-111.820466"/>
      <trkpt lat="41.757516" lon="-111.820579"/>
      <trkpt lat="41.757514" lon="-111.821092"/>
      <trkpt lat="41.757540" lon="-111.822025"/>
      <trkpt lat="41.757540" lon="-111.823173"/>
      <trkpt lat="41.757544" lon="-111.823940"/>
      <trkpt lat="41.757542" lon="-111.824849"/>
      <trkpt lat="41.757540" lon="-111.825343"/>
      <trkpt lat="41.757546" lon="-111.825818"/>
      <trkpt lat="41.757594" lon="-111.826093"/>
      <trkpt lat="41.757548" lon="-111.826185"/>
      <trkpt lat="41.757524" lon="-111.826654"/>
      <trkpt lat="41.757500" lon="-111.826931"/>
      <trkpt lat="41.757478" lon="-111.827703"/>
      <trkpt lat="41.757452" lon="-111.828020"/>
      <trkpt lat="41.757446" lon="-111.828913"/>
      <trkpt lat="41.757450" lon="-111.829028"/>
      <trkpt lat="41.757436" lon="-111.829127"/>
      <trkpt lat="41.757410" lon="-111.829157"/>
      <trkpt lat="41.757362" lon="-111.829168"/>
      <trkpt lat="41.757306" lon="-111.829176"/>
      <trkpt lat="41.757094" lon="-111.829178"/>
      <trkpt lat="41.756191" lon="-111.829195"/>
      <trkpt lat="41.755412" lon="-111.829216"/>
      <trkpt lat="41.754744" lon="-111.829206"/>
      <trkpt lat="41.754010" lon="-111.829233"/>
      <trkpt lat="41.753115" lon="-111.829254"/>
      <trkpt lat="41.752818" lon="-111.829308"/>
      <trkpt lat="41.752469" lon="-111.829281"/>
      <trkpt lat="41.751697" lon="-111.829340"/>
      <trkpt lat="41.751565" lon="-111.829339"/>
      <trkpt lat="41.751140" lon="-111.829341"/>
      <trkpt lat="41.750526" lon="-111.829363"/>
      <trkpt lat="41.749851" lon="-111.829385"/>
      <trkpt lat="41.749646" lon="-111.829440"/>
      <trkpt lat="41.749327" lon="-111.829399"/>
      <trkpt lat="41.749149" lon="-111.829397"/>
      <trkpt lat="41.748748" lon="-111.829383"/>
      <trkpt lat="41.748059" lon="-111.829420"/>
      <trkpt lat="41.746230" lon="-111.829470"/>
      <trkpt lat="41.745015" lon="-111.829492"/>
      <trkpt lat="41.744805" lon="-111.829492"/>
      <trkpt lat="41.744739" lon="-111.829497"/>
      <trkpt lat="41.744707" lon="-111.829521"/>
      <trkpt lat="41.744695" lon="-111.829613"/>
      <trkpt lat="41.744699" lon="-111.829849"/>
      <trkpt lat="41.744707" lon="-111.830187"/>
      <trkpt lat="41.744741" lon="-111.830496"/>
      <trkpt lat="41.744749" lon="-111.831761"/>
      <trkpt lat="41.744741" lon="-111.831833"/>
      <trkpt lat="41.744735" lon="-111.831911"/>
      <trkpt lat="41.744725" lon="-111.831965"/>
      <trkpt lat="41.744681" lon="-111.831989"/>
      <trkpt lat="41.744567" lon="-111.831986"/>
      <trkpt lat="41.744028" lon="-111.831974"/>
      <trkpt lat="41.743297" lon="-111.831997"/>
      <trkpt lat="41.742583" lon="-111.832021"/>
      <trkpt lat="41.741452" lon="-111.832045"/>
      <trkpt lat="41.741044" lon="-111.832071"/>
      <trkpt lat="41.740976" lon="-111.832071"/>
      <trkpt lat="41.740926" lon="-111.832042"/>
      <trkpt lat="41.740900" lon="-111.831983"/>
      <trkpt lat="41.740890" lon="-111.831876"/>
      <trkpt lat="41.740874" lon="-111.831312"/>
      <trkpt lat="41.740868" lon="-111.831077"/>
      <trkpt lat="41.740853" lon="-111.830885"/>
      <trkpt lat="41.740852" lon="-111.830644"/>
      <trkpt lat="41.740846" lon="-111.830547"/>
      <trkpt lat="41.740824" lon="-111.830449"/>
      <trkpt lat="41.740780" lon="-111.830435"/>
      <trkpt lat="41.740726" lon="-111.830442"/>
      <trkpt lat="41.740640" lon="-111.830545"/>
    </trkseg></trk>
</gpx>
