<?xml version="1.0" encoding="UTF-8"?>
<gpx version="1.1" creator="flagstop" xmlns="http://www.topografix.com/GPX/1/1">
  <trk><name>15 USU, Smithfield, Richmond</name><desc>GTFS shape 19035+19036</desc><trkseg>
      <trkpt lat="41.740435" lon="-111.830874"/>
      <trkpt lat="41.740485" lon="-111.830813"/>
      <trkpt lat="41.740528" lon="-111.830614"/>
      <trkpt lat="41.740616" lon="-111.830489"/>
      <trkpt lat="41.740699" lon="-111.830370"/>
      <trkpt lat="41.740761" lon="-111.830342"/>
      <trkpt lat="41.740837" lon="-111.830300"/>
      <trkpt lat="41.740851" lon="-111.830279"/>
      <trkpt lat="41.740864" lon="-111.830235"/>
      <trkpt lat="41.740865" lon="-111.830187"/>
      <trkpt lat="41.740859" lon="-111.830081"/>
      <trkpt lat="41.740850" lon="-111.829982"/>
      <trkpt lat="41.740842" lon="-111.829900"/>
      <trkpt lat="41.740833" lon="-111.829835"/>
      <trkpt lat="41.740800" lon="-111.829760"/>
      <trkpt lat="41.740757" lon="-111.829672"/>
      <trkpt lat="41.740735" lon="-111.829605"/>
      <trkpt lat="41.740723" lon="-111.829546"/>
      <trkpt lat="41.740738" lon="-111.829479"/>
      <trkpt lat="41.740765" lon="-111.829418"/>
      <trkpt lat="41.740791" lon="-111.829358"/>
      <trkpt lat="41.740808" lon="-111.829276"/>
      <trkpt lat="41.740825" lon="-111.829210"/>
      <trkpt lat="41.740834" lon="-111.829086"/>
      <trkpt lat="41.740839" lon="-111.828980"/>
      <trkpt lat="41.740847" lon="-111.828765"/>
      <trkpt lat="41.740851" lon="-111.828621"/>
      <trkpt lat="41.740821" lon="-111.827051"/>
      <trkpt lat="41.740822" lon="-111.826607"/>
      <trkpt lat="41.740764" lon="-111.823692"/>
      <trkpt lat="41.740727" lon="-111.821491"/>
      <trkpt lat="41.740700" lon="-111.819942"/>
      <trkpt lat="41.740672" lon="-111.819653"/>
      <trkpt lat="41.740625" lon="-111.819483"/>
      <trkpt lat="41.740577" lon="-111.819401"/>
      <trkpt lat="41.740553" lon="-111.819280"/>
      <trkpt lat="41.740580" lon="-111.819168"/>
      <trkpt lat="41.740643" lon="-111.819058"/>
      <trkpt lat="41.740661" lon="-111.818836"/>
      <trkpt lat="41.740676" lon="-111.818692"/>
      <trkpt lat="41.740671" lon="-111.818300"/>
      <trkpt lat="41.740668" lon="-111.818184"/>
      <trkpt lat="41.740650" lon="-111.817326"/>
      <trkpt lat="41.740657" lon="-111.817157"/>
      <trkpt lat="41.740657" lon="-111.816788"/>
      <trkpt lat="41.740668" lon="-111.816751"/>
      <trkpt lat="41.740690" lon="-111.816730"/>
      <trkpt lat="41.740732" lon="-111.816718"/>
      <trkpt lat="41.742177" lon="-111.816690"/>
      <trkpt lat="41.743365" lon="-111.816656"/>
      <trkpt lat="41.743503" lon="-111.816647"/>
      <trkpt lat="41.743622" lon="-111.816631"/>
      <trkpt lat="41.743738" lon="-111.816598"/>
      <trkpt lat="41.743886" lon="-111.816560"/>
      <trkpt lat="41.743999" lon="-111.816524"/>
      <trkpt lat="41.744185" lon="-111.816388"/>
      <trkpt lat="41.744373" lon="-111.816201"/>
      <trkpt lat="41.744447" lon="-111.816045"/>
      <trkpt lat="41.744493" lon="-111.815916"/>
      <trkpt lat="41.744520" lon="-111.815776"/>
      <trkpt lat="41.744528" lon="-111.815650"/>
      <trkpt lat="41.744545" lon="-111.815505"/>
      <trkpt lat="41.744510" lon="-111.814617"/>
      <trkpt lat="41.744490" lon="-111.814279"/>
      <trkpt lat="41.744432" lon="-111.811321"/>
      <trkpt lat="41.744418" lon="-111.810308"/>
      <trkpt lat="41.744412" lon="-111.809280"/>
      <trkpt lat="41.744350" lon="-111.806867"/>
      <trkpt lat="41.744343" lon="-111.806558"/>
      <trkpt lat="41.744322" lon="-111.806276"/>
      <trkpt lat="41.744318" lon="-111.805873"/>
      <trkpt lat="41.744314" lon="-111.805125"/>
      <trkpt lat="41.744297" lon="-111.804490"/>
      <trkpt lat="41.744307" lon="-111.804313"/>
      <trkpt lat="41.744314" lon="-111.804280"/>
      <trkpt lat="41.744325" lon="-111.804258"/>
      <trkpt lat="41.744347" lon="-111.804247"/>
      <trkpt lat="41.744379" lon="-111.804242"/>
      <trkpt lat="41.744499" lon="-111.804242"/>
      <trkpt lat="41.744954" lon="-111.804265"/>
      <trkpt lat="41.745467" lon="-111.804277"/>
      <trkpt lat="41.746094" lon="-111.804286"/>
      <trkpt lat="41.747197" lon="-111.804308"/>
      <trkpt lat="41.747316" lon="-111.804318"/>
      <trkpt lat="41.748015" lon="-111.804332"/>
      <trkpt lat="41.748753" lon="-111.804341"/>
      <trkpt lat="41.749491" lon="-111.804358"/>
      <trkpt lat="41.750239" lon="-111.804368"/>
      <trkpt lat="41.750982" lon="-111.804387"/>
      <trkpt lat="41.751619" lon="-111.804376"/>
      <trkpt lat="41.752456" lon="-111.804378"/>
      <trkpt lat="41.752964" lon="-111.804378"/>
      <trkpt lat="41.753412" lon="-111.804365"/>
      <trkpt lat="41.754166" lon="-111.804339"/>
      <trkpt lat="41.754592" lon="-111.804325"/>
      <trkpt lat="41.755764" lon="-111.804255"/>
      <trkpt lat="41.756676" lon="-111.804244"/>
      <trkpt lat="41.757643" lon="-111.804261"/>
      <trkpt lat="41.757834" lon="-111.804228"/>
      <trkpt lat="41.758623" lon="-111.804283"/>
      <trkpt lat="41.759651" lon="-111.804314"/>
      <trkpt lat="41.760653" lon="-111.804331"/>
      <trkpt lat="41.761710" lon="-111.804346"/>
      <trkpt lat="41.762753" lon="-111.804378"/>
      <trkpt lat="41.763711" lon="-111.804406"/>
      <trkpt lat="41.764714" lon="-111.804430"/>
      <trkpt lat="41.766022" lon="-111.804463"/>
      <trkpt lat="41.767066" lon="-111.804497"/>
      <trkpt lat="41.768325" lon="-111.804500"/>
      <trkpt lat="41.769313" lon="-111.804520"/>
      <trkpt lat="41.769335" lon="-111.804533"/>
      <trkpt lat="41.769352" lon="-111.804564"/>
      <trkpt lat="41.769371" lon="-111.804666"/>
      <trkpt lat="41.769358" lon="-111.806386"/>
      <trkpt lat="41.769355" lon="-111.806969"/>
      <trkpt lat="41.769333" lon="-111.808879"/>
      <trkpt lat="41.769328" lon="-111.810634"/>
      <trkpt lat="41.769312" lon="-111.813431"/>
      <trkpt lat="41.769332" lon="-111.813492"/>
      <trkpt lat="41.769363" lon="-111.813512"/>
      <trkpt lat="41.770311" lon="-111.813491"/>
      <trkpt lat="41.771279" lon="-111.813459"/>
      <trkpt lat="41.772527" lon="-111.813409"/>
      <trkpt lat="41.773919" lon="-111.813366"/>
      <trkpt lat="41.775257" lon="-111.813323"/>
      <trkpt lat="41.777373" lon="-111.813266"/>
      <trkpt lat="41.777984" lon="-111.813248"/>
      <trkpt lat="41.779373" lon="-111.813198"/>
      <trkpt lat="41.780763" lon="-111.813166"/>
      <trkpt lat="41.781887" lon="-111.813142"/>
      <trkpt lat="41.783590" lon="-111.813102"/>
      <trkpt lat="41.785084" lon="-111.813067"/>
      <trkpt lat="41.786146" lon="-111.813034"/>
      <trkpt lat="41.787998" lon="-111.812996"/>
      <trkpt lat="41.790257" lon="-111.812926"/>
      <trkpt lat="41.791836" lon="-111.812883"/>
      <trkpt lat="41.793399" lon="-111.812843"/>
      <trkpt lat="41.794573" lon="-111.812793"/>
      <trkpt lat="41.794843" lon="-111.812826"/>
      <trkpt lat="41.794900" lon="-111.812846"/>
      <trkpt lat="41.794942" lon="-111.812881"/>
      <trkpt lat="41.794960" lon="-111.812938"/>
      <trkpt lat="41.794989" lon="-111.814174"/>
      <trkpt lat="41.795056" lon="-111.816723"/>
      <trkpt lat="41.795085" lon="-111.816769"/>
      <trkpt lat="41.795135" lon="-111.816804"/>
      <trkpt lat="41.795181" lon="-111.816815"/>
      <trkpt lat="41.796903" lon="-111.816799"/>
      <trkpt lat="41.797921" lon="-111.816774"/>
      <trkpt lat="41.798957" lon="-111.816756"/>
      <trkpt lat="41.799025" lon="-111.816766"/>
      <trkpt lat="41.799050" lon="-111.816786"/>
      <trkpt lat="41.799069" lon="-111.816828"/>
      <trkpt lat="41.799078" lon="-111.816880"/>
      <trkpt lat="41.799080" lon="-111.817155"/>
      <trkpt lat="41.799098" lon="-111.817812"/>
      <trkpt lat="41.799119" lon="-111.818920"/>
      <trkpt lat="41.799185" lon="-111.823735"/>
      <trkpt lat="41.799187" lon="-111.826121"/>
      <trkpt lat="41.799211" lon="-111.829062"/>
      <trkpt lat="41.799262" lon="-111.831263"/>
      <trkpt lat="41.799314" lon="-111.832247"/>
      <trkpt lat="41.799325" lon="-111.832643"/>
      <trkpt lat="41.799337" lon="-111.833242"/>
      <trkpt lat="41.799359" lon="-111.833310"/>
      <trkpt lat="41.799391" lon="-111.833348"/>
      <trkpt lat="41.799430" lon="-111.833369"/>
      <trkpt lat="41.799909" lon="-111.833365"/>
      <trkpt lat="41.800609" lon="-111.833368"/>
      <trkpt lat="41.801355" lon="-111.833353"/>
      <trkpt lat="41.802209" lon="-111.833330"/>
      <trkpt lat="41.803776" lon="-111.833304"/>
      <trkpt lat="41.805334" lon="-111.833272"/>
      <trkpt lat="41.806030" lon="-111.833255"/>
      <trkpt lat="41.808523" lon="-111.833208"/>
      <trkpt lat="41.810538" lon="-111.833160"/>
      <trkpt lat="41.812147" lon="-111.833127"/>
      <trkpt lat="41.813891" lon="-111.833091"/>
      <trkpt lat="41.815536" lon="-111.833055"/>
      <trkpt lat="41.817065" lon="-111.833028"/>
      <trkpt lat="41.818603" lon="-111.833004"/>
      <trkpt lat="41.819598" lon="-111.832966"/>
      <trkpt lat="41.820148" lon="-111.832954"/>
      <trkpt lat="41.821910" lon="-111.832940"/>
      <trkpt lat="41.822933" lon="-111.832913"/>
      <trkpt lat="41.823815" lon="-111.832892"/>
      <trkpt lat="41.823856" lon="-111.832868"/>
      <trkpt lat="41.823876" lon="-111.832826"/>
      <trkpt lat="41.823907" lon="-111.832656"/>
      <trkpt lat="41.823918" lon="-111.832494"/>
      <trkpt lat="41.823924" lon="-111.831877"/>
      <trkpt lat="41.823925" lon="-111.831575"/>
      <trkpt lat="41.823927" lon="-111.830365"/>
      <trkpt lat="41.823938" lon="-111.828572"/>
      <trkpt lat="41.823937" lon="-111.827947"/>
      <trkpt lat="41.823931" lon="-111.826418"/>
      <trkpt lat="41.823951" lon="-111.826358"/>
      <trkpt lat="41.823981" lon="-111.826321"/>
      <trkpt lat="41.824014" lon="-111.826301"/>
      <trkpt lat="41.824541" lon="-111.826284"/>
      <trkpt lat="41.825313" lon="-111.826254"/>
      <trkpt lat="41.826109" lon="-111.826228"/>
      <trkpt lat="41.826555" lon="-111.826210"/>
      <trkpt lat="41.826952" lon="-111.826189"/>
      <trkpt lat="41.827767" lon="-111.826164"/>
      <trkpt lat="41.827961" lon="-111.826152"/>
      <trkpt lat="41.827988" lon="-111.826127"/>
      <trkpt lat="41.828003" lon="-111.826095"/>
      <trkpt lat="41.828010" lon="-111.826016"/>
      <trkpt lat="41.827993" lon="-111.824705"/>
      <trkpt lat="41.828012" lon="-111.824615"/>
      <trkpt lat="41.828054" lon="-111.824538"/>
      <trkpt lat="41.828113" lon="-111.824475"/>
      <trkpt lat="41.828187" lon="-111.824439"/>
      <trkpt lat="41.828838" lon="-111.824413"/>
      <trkpt lat="41.829549" lon="-111.824402"/>
      <trkpt lat="41.830236" lon="-111.824382"/>
      <trkpt lat="41.832108" lon="-111.824301"/>
      <trkpt lat="41.833892" lon="-111.824238"/>
      <trkpt lat="41.834069" lon="-111.824256"/>
      <trkpt lat="41.834140" lon="-111.824296"/>
      <trkpt lat="41.834193" lon="-111.824343"/>
      <trkpt lat="41.834220" lon="-111.824396"/>
      <trkpt lat="41.834246" lon="-111.824515"/>
      <trkpt lat="41.834271" lon="-111.825089"/>
      <trkpt lat="41.834326" lon="-111.826089"/>
      <trkpt lat="41.834349" lon="-111.826993"/>
      <trkpt lat="41.834381" lon="-111.828518"/>
      <trkpt lat="41.834393" lon="-111.829548"/>
      <trkpt lat="41.834393" lon="-111.829760"/>
      <trkpt lat="41.834415" lon="-111.829812"/>
      <trkpt lat="41.834446" lon="-111.829837"/>
      <trkpt lat="41.834487" lon="-111.829844"/>
      <trkpt lat="41.836369" lon="-111.829786"/>
      <trkpt lat="41.837776" lon="-111.829758"/>
      <trkpt lat="41.838545" lon="-111.829739"/>
      <trkpt lat="41.838576" lon="-111.829759"/>
      <trkpt lat="41.838597" lon="-111.829799"/>
      <trkpt lat="41.838599" lon="-111.829845"/>
      <trkpt lat="41.838635" lon="-111.831633"/>
      <trkpt lat="41.838636" lon="-111.831924"/>
      <trkpt lat="41.838644" lon="-111.832069"/>
      <trkpt lat="41.838648" lon="-111.832371"/>
      <trkpt lat="41.838654" lon="-111.832430"/>
      <trkpt lat="41.838671" lon="-111.832475"/>
      <trkpt lat="41.838699" lon="-111.832502"/>
      <trkpt lat="41.838742" lon="-111.832523"/>
      <trkpt lat="41.838832" lon="-111.832531"/>
      <trkpt lat="41.840099" lon="-111.832491"/>
      <trkpt lat="41.841309" lon="-111.832458"/>
      <trkpt lat="41.842378" lon="-111.832435"/>
      <trkpt lat="41.843545" lon="-111.832396"/>
      <trkpt lat="41.844692" lon="-111.832369"/>
      <trkpt lat="41.845877" lon="-111.832337"/>
      <trkpt lat="41.846650" lon="-111.832296"/>
      <trkpt lat="41.847474" lon="-111.832224"/>
      <trkpt lat="41.848464" lon="-111.832121"/>
      <trkpt lat="41.849427" lon="-111.832046"/>
      <trkpt lat="41.850078" lon="-111.831988"/>
      <trkpt lat="41.850558" lon="-111.831948"/>
      <trkpt lat="41.851688" lon="-111.831840"/>
      <trkpt lat="41.852738" lon="-111.831746"/>
      <trkpt lat="41.853834" lon="-111.831654"/>
      <trkpt lat="41.854937" lon="-111.831499"/>
      <trkpt lat="41.856007" lon="-111.831297"/>
      <trkpt lat="41.857113" lon="-111.831080"/>
      <trkpt lat="41.858234" lon="-111.830858"/>
      <trkpt lat="41.859361" lon="-111.830627"/>
      <trkpt lat="41.860445" lon="-111.830408"/>
      <trkpt lat="41.861625" lon="-111.830156"/>
      <trkpt lat="41.863914" lon="-111.829568"/>
      <trkpt lat="41.865059" lon="-111.829267"/>
      <trkpt lat="41.866259" lon="-111.828915"/>
      <trkpt lat="41.867379" lon="-111.828558"/>
      <trkpt lat="41.868545" lon="-111.828179"/>
      <trkpt lat="41.869251" lon="-111.827937"/>
      <trkpt lat="41.869866" lon="-111.827691"/>
      <trkpt lat="41.870992" lon="-111.827155"/>
      <trkpt lat="41.871474" lon="-111.826888"/>
      <trkpt lat="41.872636" lon="-111.826161"/>
      <trkpt lat="41.873665" lon="-111.825484"/>
      <trkpt lat="41.874874" lon="-111.824721"/>
      <trkpt lat="41.876074" lon="-111.823951"/>
      <trkpt lat="41.877172" lon="-111.823254"/>
      <trkpt lat="41.878241" lon="-111.822574"/>
      <trkpt lat="41.879284" lon="-111.821907"/>
      <trkpt lat="41.880376" lon="-111.821220"/>
      <trkpt lat="41.881481" lon="-111.820513"/>
      <trkpt lat="41.882631" lon="-111.819766"/>
      <trkpt lat="41.883874" lon="-111.818944"/>
      <trkpt lat="41.885104" lon="-111.818126"/>
      <trkpt lat="41.886291" lon="-111.817323"/>
      <trkpt lat="41.887406" lon="-111.816579"/>
      <trkpt lat="41.888150" lon="-111.816113"/>
      <trkpt lat="41.888983" lon="-111.815654"/>
      <trkpt lat="41.889869" lon="-111.815300"/>
      <trkpt lat="41.890791" lon="-111.815036"/>
      <trkpt lat="41.891779" lon="-111.814872"/>
      <trkpt lat="41.892926" lon="-111.814813"/>
      <trkpt lat="41.894040" lon="-111.814784"/>
      <trkpt lat="41.895167" lon="-111.814750"/>
      <trkpt lat="41.896359" lon="-111.814741"/>
      <trkpt lat="41.897445" lon="-111.814728"/>
      <trkpt lat="41.898558" lon="-111.814718"/>
      <trkpt lat="41.899745" lon="-111.814702"/>
      <trkpt lat="41.900858" lon="-111.814692"/>
      <trkpt lat="41.902004" lon="-111.814675"/>
      <trkpt lat="41.903168" lon="-111.814657"/>
      <trkpt lat="41.904320" lon="-111.814634"/>
      <trkpt lat="41.905477" lon="-111.814605"/>
      <trkpt lat="41.906637" lon="-111.814586"/>
      <trkpt lat="41.907782" lon="-111.814578"/>
      <trkpt lat="41.908977" lon="-111.814567"/>
      <trkpt lat="41.910513" lon="-111.814527"/>
      <trkpt lat="41.910603" lon="-111.814432"/>
      <trkpt lat="41.910577" lon="-111.813917"/>
      <trkpt lat="41.910593" lon="-111.813807"/>
      <trkpt lat="41.910565" lon="-111.809672"/>
      <trkpt lat="41.910574" lon="-111.809555"/>
      <trkpt lat="41.910634" lon="-111.809517"/>
      <trkpt lat="41.911320" lon="-111.809484"/>
      <trkpt lat="41.911846" lon="-111.809254"/>
      <trkpt lat="41.912433" lon="-111.809050"/>
      <trkpt lat="41.913033" lon="-111.808960"/>
      <trkpt lat="41.915826" lon="-111.808869"/>
      <trkpt lat="41.915934" lon="-111.808854"/>
      <trkpt lat="41.916003" lon="-111.808869"/>
      <trkpt lat="41.918522" lon="-111.808789"/>
      <trkpt lat="41.918645" lon="-111.808773"/>
      <trkpt lat="41.918706" lon="-111.808801"/>
      <trkpt lat="41.921954" lon="-111.808669"/>
      <trkpt lat="41.922022" lon="-111.808650"/>
      <trkpt lat="41.922625" lon="-111.808649"/>
      <trkpt lat="41.922693" lon="-111.812206"/>
      <trkpt lat="41.922706" lon="-111.812250"/>
      <trkpt lat="41.922706" lon="-111.812250"/>
      <trkpt lat="41.922732" lon="-111.814173"/>
      <trkpt lat="41.922734" lon="-111.814288"/>
      <trkpt lat="41.922730" lon="-111.814369"/>
      <trkpt lat="41.922697" lon="-111.814418"/>
      <trkpt lat="41.922069" lon="-111.814422"/>
      <trkpt lat="41.921057" lon="-111.814479"/>
      <trkpt lat="41.920104" lon="-111.814492"/>
      <trkpt lat="41.919978" lon="-111.814514"/>
      <trkpt lat="41.919841" lon="-111.814498"/>
      <trkpt lat="41.910058" lon="-111.814721"/>
      <trkpt lat="41.909725" lon="-111.814732"/>
      <trkpt lat="41.908926" lon="-111.814739"/>
      <trkpt lat="41.908195" lon="-111.814747"/>
      <trkpt lat="41.906093" lon="-111.814757"/>
      <trkpt lat="41.904046" lon="-111.814818"/>
      <trkpt lat="41.901955" lon="-111.814856"/>
      <trkpt lat="41.899729" lon="-111.814885"/>
      <trkpt lat="41.897474" lon="-111.814909"/>
      <trkpt lat="41.895218" lon="-111.814924"/>
      <trkpt lat="41.893023" lon="-111.814985"/>
      <trkpt lat="41.891990" lon="-111.815029"/>
      <trkpt lat="41.891901" lon="-111.815040"/>
      <trkpt lat="41.891723" lon="-111.815058"/>
      <trkpt lat="41.891527" lon="-111.815083"/>
      <trkpt lat="41.891229" lon="-111.815128"/>
      <trkpt lat="41.890798" lon="-111.815216"/>
      <trkpt lat="41.890421" lon="-111.815304"/>
      <trkpt lat="41.889662" lon="-111.815551"/>
      <trkpt lat="41.888879" lon="-111.815894"/>
      <trkpt lat="41.888125" lon="-111.816313"/>
      <trkpt lat="41.887179" lon="-111.816942"/>
      <trkpt lat="41.886106" lon="-111.817652"/>
      <trkpt lat="41.885054" lon="-111.818358"/>
      <trkpt lat="41.883851" lon="-111.819159"/>
      <trkpt lat="41.882691" lon="-111.819931"/>
      <trkpt lat="41.881463" lon="-111.820729"/>
      <trkpt lat="41.880228" lon="-111.821509"/>
      <trkpt lat="41.879034" lon="-111.822266"/>
      <trkpt lat="41.878170" lon="-111.822824"/>
      <trkpt lat="41.877136" lon="-111.823483"/>
      <trkpt lat="41.875967" lon="-111.824224"/>
      <trkpt lat="41.874792" lon="-111.824975"/>
      <trkpt lat="41.873599" lon="-111.825732"/>
      <trkpt lat="41.872429" lon="-111.826495"/>
      <trkpt lat="41.871285" lon="-111.827196"/>
      <trkpt lat="41.870176" lon="-111.827745"/>
      <trkpt lat="41.869039" lon="-111.828197"/>
      <trkpt lat="41.867835" lon="-111.828598"/>
      <trkpt lat="41.866599" lon="-111.829002"/>
      <trkpt lat="41.865437" lon="-111.829359"/>
      <trkpt lat="41.864254" lon="-111.829668"/>
      <trkpt lat="41.863110" lon="-111.829973"/>
      <trkpt lat="41.861877" lon="-111.830281"/>
      <trkpt lat="41.861079" lon="-111.830465"/>
      <trkpt lat="41.859994" lon="-111.830687"/>
      <trkpt lat="41.858910" lon="-111.830910"/>
      <trkpt lat="41.857797" lon="-111.831129"/>
      <trkpt lat="41.856715" lon="-111.831347"/>
      <trkpt lat="41.855649" lon="-111.831548"/>
      <trkpt lat="41.854554" lon="-111.831731"/>
      <trkpt lat="41.853734" lon="-111.831832"/>
      <trkpt lat="41.852783" lon="-111.831917"/>
      <trkpt lat="41.851744" lon="-111.832023"/>
      <trkpt lat="41.850625" lon="-111.832113"/>
      <trkpt lat="41.849957" lon="-111.832190"/>
      <trkpt lat="41.848454" lon="-111.832324"/>
      <trkpt lat="41.847386" lon="-111.832424"/>
      <trkpt lat="41.846279" lon="-111.832495"/>
      <trkpt lat="41.845847" lon="-111.832528"/>
      <trkpt lat="41.844287" lon="-111.832565"/>
      <trkpt lat="41.842883" lon="-111.832602"/>
      <trkpt lat="41.841402" lon="-111.832647"/>
      <trkpt lat="41.840496" lon="-111.832684"/>
      <trkpt lat="41.840411" lon="-111.832712"/>
      <trkpt lat="41.839815" lon="-111.832687"/>
      <trkpt lat="41.839548" lon="-111.832645"/>
      <trkpt lat="41.839252" lon="-111.832648"/>
      <trkpt lat="41.839048" lon="-111.832613"/>
      <trkpt lat="41.838658" lon="-111.832619"/>
      <trkpt lat="41.838614" lon="-111.832583"/>
      <trkpt lat="41.838581" lon="-111.832533"/>
      <trkpt lat="41.838556" lon="-111.832481"/>
      <trkpt lat="41.838548" lon="-111.832404"/>
      <trkpt lat="41.838548" lon="-111.832076"/>
      <trkpt lat="41.838564" lon="-111.831892"/>
      <trkpt lat="41.838560" lon="-111.831468"/>
      <trkpt lat="41.838534" lon="-111.831262"/>
      <trkpt lat="41.838570" lon="-111.830877"/>
      <trkpt lat="41.838550" lon="-111.829890"/>
      <trkpt lat="41.838536" lon="-111.829837"/>
      <trkpt lat="41.838499" lon="-111.829818"/>
      <trkpt lat="41.838432" lon="-111.829813"/>
      <trkpt lat="41.837405" lon="-111.829827"/>
      <trkpt lat="41.836543" lon="-111.829846"/>
      <trkpt lat="41.835595" lon="-111.829873"/>
      <trkpt lat="41.834578" lon="-111.829898"/>
      <trkpt lat="41.834401" lon="-111.829905"/>
      <trkpt lat="41.834366" lon="-111.829884"/>
      <trkpt lat="41.834346" lon="-111.829846"/>
      <trkpt lat="41.834336" lon="-111.829777"/>
      <trkpt lat="41.834338" lon="-111.829353"/>
      <trkpt lat="41.834321" lon="-111.828074"/>
      <trkpt lat="41.834298" lon="-111.827025"/>
      <trkpt lat="41.834283" lon="-111.826130"/>
      <trkpt lat="41.834246" lon="-111.825449"/>
      <trkpt lat="41.834214" lon="-111.824650"/>
      <trkpt lat="41.834202" lon="-111.824477"/>
      <trkpt lat="41.834175" lon="-111.824425"/>
      <trkpt lat="41.834138" lon="-111.824379"/>
      <trkpt lat="41.834079" lon="-111.824339"/>
      <trkpt lat="41.833997" lon="-111.824313"/>
      <trkpt lat="41.833530" lon="-111.824312"/>
      <trkpt lat="41.832908" lon="-111.824325"/>
      <trkpt lat="41.832325" lon="-111.824362"/>
      <trkpt lat="41.831245" lon="-111.824396"/>
      <trkpt lat="41.830240" lon="-111.824432"/>
      <trkpt lat="41.829292" lon="-111.824475"/>
      <trkpt lat="41.828242" lon="-111.824505"/>
      <trkpt lat="41.828157" lon="-111.824534"/>
      <trkpt lat="41.828106" lon="-111.824570"/>
      <trkpt lat="41.828069" lon="-111.824644"/>
      <trkpt lat="41.828047" lon="-111.824736"/>
      <trkpt lat="41.828064" lon="-111.826112"/>
      <trkpt lat="41.828046" lon="-111.826192"/>
      <trkpt lat="41.828000" lon="-111.826230"/>
      <trkpt lat="41.827938" lon="-111.826231"/>
      <trkpt lat="41.826792" lon="-111.826269"/>
      <trkpt lat="41.826387" lon="-111.826287"/>
      <trkpt lat="41.825693" lon="-111.826311"/>
      <trkpt lat="41.824561" lon="-111.826351"/>
      <trkpt lat="41.824033" lon="-111.826361"/>
      <trkpt lat="41.823997" lon="-111.826373"/>
      <trkpt lat="41.823982" lon="-111.826404"/>
      <trkpt lat="41.823983" lon="-111.826473"/>
      <trkpt lat="41.823980" lon="-111.827935"/>
      <trkpt lat="41.823975" lon="-111.828531"/>
      <trkpt lat="41.823965" lon="-111.830429"/>
      <trkpt lat="41.823974" lon="-111.831417"/>
      <trkpt lat="41.823963" lon="-111.832828"/>
      <trkpt lat="41.823960" lon="-111.832902"/>
      <trkpt lat="41.823948" lon="-111.832981"/>
      <trkpt lat="41.823923" lon="-111.833024"/>
      <trkpt lat="41.823871" lon="-111.833041"/>
      <trkpt lat="41.823492" lon="-111.833051"/>
      <trkpt lat="41.823163" lon="-111.833103"/>
      <trkpt lat="41.822095" lon="-111.833112"/>
      <trkpt lat="41.820845" lon="-111.833142"/>
      <trkpt lat="41.820501" lon="-111.833190"/>
      <trkpt lat="41.819686" lon="-111.833148"/>
      <trkpt lat="41.818421" lon="-111.833172"/>
      <trkpt lat="41.817184" lon="-111.833197"/>
      <trkpt lat="41.816007" lon="-111.833221"/>
      <trkpt lat="41.814773" lon="-111.833247"/>
      <trkpt lat="41.812725" lon="-111.833287"/>
      <trkpt lat="41.810468" lon="-111.833336"/>
      <trkpt lat="41.808238" lon="-111.833385"/>
      <trkpt lat="41.806098" lon="-111.833427"/>
      <trkpt lat="41.803734" lon="-111.833477"/>
      <trkpt lat="41.801497" lon="-111.833542"/>
      <trkpt lat="41.800965" lon="-111.833547"/>
      <trkpt lat="41.800472" lon="-111.833497"/>
      <trkpt lat="41.800084" lon="-111.833479"/>
      <trkpt lat="41.799836" lon="-111.833470"/>
      <trkpt lat="41.799312" lon="-111.833471"/>
      <trkpt lat="41.799269" lon="-111.833447"/>
      <trkpt lat="41.799239" lon="-111.833404"/>
      <trkpt lat="41.799222" lon="-111.833344"/>
      <trkpt lat="41.799224" lon="-111.832286"/>
      <trkpt lat="41.799205" lon="-111.830129"/>
      <trkpt lat="41.799178" lon="-111.828134"/>
      <trkpt lat="41.799145" lon="-111.826045"/>
      <trkpt lat="41.799111" lon="-111.823067"/>
      <trkpt lat="41.799074" lon="-111.819508"/>
      <trkpt lat="41.799050" lon="-111.818175"/>
      <trkpt lat="41.799019" lon="-111.816888"/>
      <trkpt lat="41.799006" lon="-111.816856"/>
      <trkpt lat="41.798990" lon="-111.816829"/>
      <trkpt lat="41.798970" lon="-111.816808"/>
      <trkpt lat="41.798940" lon="-111.816799"/>
      <trkpt lat="41.797467" lon="-111.816832"/>
      <trkpt lat="41.796749" lon="-111.816852"/>
      <trkpt lat="41.795122" lon="-111.816860"/>
      <trkpt lat="41.795078" lon="-111.816847"/>
      <trkpt lat="41.795050" lon="-111.816820"/>
      <trkpt lat="41.795035" lon="-111.816788"/>
      <trkpt lat="41.795028" lon="-111.816723"/>
      <trkpt lat="41.794975" lon="-111.814717"/>
      <trkpt lat="41.794944" lon="-111.813459"/>
      <trkpt lat="41.794929" lon="-111.813017"/>
      <trkpt lat="41.794908" lon="-111.812952"/>
      <trkpt lat="41.794882" lon="-111.812925"/>
      <trkpt lat="41.794835" lon="-111.812894"/>
      <trkpt lat="41.794780" lon="-111.812882"/>
      <trkpt lat="41.794738" lon="-111.812879"/>
      <trkpt lat="41.794457" lon="-111.812878"/>
      <trkpt lat="41.793635" lon="-111.812879"/>
      <trkpt lat="41.793016" lon="-111.812897"/>
      <trkpt lat="41.792138" lon="-111.812922"/>
      <trkpt lat="41.791189" lon="-111.812952"/>
      <trkpt lat="41.790272" lon="-111.812974"/>
      <trkpt lat="41.789210" lon="-111.813002"/>
      <trkpt lat="41.788278" lon="-111.813038"/>
      <trkpt lat="41.787334" lon="-111.813055"/>
      <trkpt lat="41.786398" lon="-111.813092"/>
      <trkpt lat="41.785416" lon="-111.813133"/>
      <trkpt lat="41.784389" lon="-111.813144"/>
      <trkpt lat="41.783076" lon="-111.813185"/>
      <trkpt lat="41.782485" lon="-111.813198"/>
      <trkpt lat="41.781524" lon="-111.813204"/>
      <trkpt lat="41.780611" lon="-111.813217"/>
      <trkpt lat="41.779783" lon="-111.813247"/>
      <trkpt lat="41.778870" lon="-111.813279"/>
      <trkpt lat="41.777921" lon="-111.813306"/>
      <trkpt lat="41.777246" lon="-111.813331"/>
      <trkpt lat="41.776168" lon="-111.813357"/>
      <trkpt lat="41.775319" lon="-111.813384"/>
      <trkpt lat="41.774437" lon="-111.813412"/>
      <trkpt lat="41.773626" lon="-111.813431"/>
      <trkpt lat="41.772795" lon="-111.813459"/>
      <trkpt lat="41.772318" lon="-111.813467"/>
      <trkpt lat="41.771542" lon="-111.813505"/>
      <trkpt lat="41.770636" lon="-111.813534"/>
      <trkpt lat="41.769816" lon="-111.813553"/>
      <trkpt lat="41.769326" lon="-111.813570"/>
      <trkpt lat="41.769316" lon="-111.813567"/>
      <trkpt lat="41.769305" lon="-111.813555"/>
      <trkpt lat="41.769290" lon="-111.813525"/>
      <trkpt lat="41.769287" lon="-111.812270"/>
      <trkpt lat="41.769296" lon="-111.811069"/>
      <trkpt lat="41.769300" lon="-111.809834"/>
      <trkpt lat="41.769316" lon="-111.806317"/>
      <trkpt lat="41.769320" lon="-111.804693"/>
      <trkpt lat="41.769309" lon="-111.804660"/>
      <trkpt lat="41.769291" lon="-111.804625"/>
      <trkpt lat="41.769261" lon="-111.804594"/>
      <trkpt lat="41.769200" lon="-111.804584"/>
      <trkpt lat="41.767998" lon="-111.804587"/>
      <trkpt lat="41.767353" lon="-111.804558"/>
      <trkpt lat="41.766239" lon="-111.804518"/>
      <trkpt lat="41.765018" lon="-111.804484"/>
      <trkpt lat="41.763720" lon="-111.804449"/>
      <trkpt lat="41.762466" lon="-111.804419"/>
      <trkpt lat="41.761642" lon="-111.804420"/>
      <trkpt lat="41.759858" lon="-111.804359"/>
      <trkpt lat="41.758554" lon="-111.804328"/>
      <trkpt lat="41.757240" lon="-111.804325"/>
      <trkpt lat="41.756683" lon="-111.804319"/>
      <trkpt lat="41.755981" lon="-111.804324"/>
      <trkpt lat="41.754775" lon="-111.804372"/>
      <trkpt lat="41.753602" lon="-111.804432"/>
      <trkpt lat="41.752507" lon="-111.804451"/>
      <trkpt lat="41.751628" lon="-111.804464"/>
      <trkpt lat="41.750275" lon="-111.804425"/>
      <trkpt lat="41.749182" lon="-111.804416"/>
      <trkpt lat="41.748072" lon="-111.804389"/>
      <trkpt lat="41.747129" lon="-111.804399"/>
      <trkpt lat="41.745830" lon="-111.804346"/>
      <trkpt lat="41.745006" lon="-111.804342"/>
      <trkpt lat="41.744660" lon="-111.804375"/>
      <trkpt lat="41.744459" lon="-111.804367"/>
      <trkpt lat="41.744417" lon="-111.804368"/>
      <trkpt lat="41.744405" lon="-111.804375"/>
      <trkpt lat="41.744385" lon="-111.804395"/>
      <trkpt lat="41.744368" lon="-111.804418"/>
      <trkpt lat="41.744358" lon="-111.804451"/>
      <trkpt lat="41.744353" lon="-111.804494"/>
      <trkpt lat="41.744383" lon="-111.805742"/>
      <trkpt lat="41.744392" lon="-111.806378"/>
      <trkpt lat="41.744384" lon="-111.806482"/>
      <trkpt lat="41.744435" lon="-111.807223"/>
      <trkpt lat="41.744428" lon="-111.808482"/>
      <trkpt lat="41.744463" lon="-111.810537"/>
      <trkpt lat="41.744495" lon="-111.810989"/>
      <trkpt lat="41.744526" lon="-111.812253"/>
      <trkpt lat="41.744531" lon="-111.812924"/>
      <trkpt lat="41.744522" lon="-111.813414"/>
      <trkpt lat="41.744534" lon="-111.813950"/>
      <trkpt lat="41.744555" lon="-111.815324"/>
      <trkpt lat="41.744520" lon="-111.815798"/>
      <trkpt lat="41.744479" lon="-111.816000"/>
      <trkpt lat="41.744416" lon="-111.816169"/>
      <trkpt lat="41.744308" lon="-111.816343"/>
      <trkpt lat="41.744208" lon="-111.816442"/>
      <trkpt lat="41.744053" lon="-111.816556"/>
      <trkpt lat="41.743896" lon="-111.816634"/>
      <trkpt lat="41.743739" lon="-111.816682"/>
      <trkpt lat="41.743522" lon="-111.816695"/>
      <trkpt lat="41.743197" lon="-111.816716"/>
      <trkpt lat="41.742721" lon="-111.816735"/>
      <trkpt lat="41.741730" lon="-111.816770"/>
      <trkpt lat="41.741112" lon="-111.816788"/>
      <trkpt lat="41.740950" lon="-111.816825"/>
      <trkpt lat="41.740780" lon="-111.816832"/>
      <trkpt lat="41.740742" lon="-111.816842"/>
      <trkpt lat="41.740723" lon="-111.816871"/>
      <trkpt lat="41.740713" lon="-111.816908"/>
      <trkpt lat="41.740705" lon="-111.816959"/>
      <trkpt lat="41.740688" lon="-111.817333"/>
      <trkpt lat="41.740704" lon="-111.818311"/>
      <trkpt lat="41.740715" lon="-111.818714"/>
      <trkpt lat="41.740733" lon="-111.818948"/>
      <trkpt lat="41.740778" lon="-111.819078"/>
      <trkpt lat="41.740821" lon="-111.819163"/>
      <trkpt lat="41.740857" lon="-111.819254"/>
      <trkpt lat="41.740843" lon="-111.819394"/>
      <trkpt lat="41.740792" lon="-111.819507"/>
      <trkpt lat="41.740765" lon="-111.819582"/>
      <trkpt lat="41.740752" lon="-111.819743"/>
      <trkpt lat="41.740736" lon="-111.819940"/>
      <trkpt lat="41.740761" lon="-111.821327"/>
      <trkpt lat="41.740788" lon="-111.822173"/>
      <trkpt lat="41.740790" lon="-111.823314"/>
      <trkpt lat="41.740871" lon="-111.827304"/>
      <trkpt lat="41.740889" lon="-111.828655"/>
      <trkpt lat="41.740904" lon="-111.829049"/>
      <trkpt lat="41.740911" lon="-111.829216"/>
      <trkpt lat="41.740936" lon="-111.829338"/>
      <trkpt lat="41.740969" lon="-111.829414"/>
      <trkpt lat="41.741004" lon="-111.829469"/>
      <trkpt lat="41.741021" lon="-111.829524"/>
      <trkpt lat="41.741020" lon="-111.829576"/>
      <trkpt lat="41.740999" lon="-111.829662"/>
      <trkpt lat="41.740965" lon="-111.829715"/>
      <trkpt lat="41.740943" lon="-111.829798"/>
      <trkpt lat="41.740923" lon="-111.829924"/>
      <trkpt lat="41.740915" lon="-111.830091"/>
      <trkpt lat="41.740919" lon="-111.830339"/>
      <trkpt lat="41.740917" lon="-111.830474"/>
      <trkpt lat="41.740926" lon="-111.831418"/>
      <trkpt lat="41.740904" lon="-111.831468"/>
      <trkpt lat="41.740877" lon="-111.831496"/>
      <trkpt lat="41.740852" lon="-111.831502"/>
      <trkpt lat="41.740807" lon="-111.831507"/>
      <trkpt lat="41.740740" lon="-111.831494"/>
      <trkpt lat="41.740643" lon="-111.831406"/>
      <trkpt lat="41.740514" lon="-111.831218"/>
      <trkpt lat="41.740435" lon="-111.830874"/>
    </trkseg></trk>
</gpx>
