<?xml version="1.0" encoding="UTF-8"?>
<gpx version="1.1" creator="flagstop" xmlns="http://www.topografix.com/GPX/1/1">
  <trk><name>B </name><desc>GTFS shape 32000</desc><trkseg>
      <trkpt lat="41.732188" lon="-111.835070"/>
      <trkpt lat="41.732193" lon="-111.835067"/>
      <trkpt lat="41.731515" lon="-111.835070"/>
      <trkpt lat="41.724821" lon="-111.835241"/>
      <trkpt lat="41.724815" lon="-111.835264"/>
      <trkpt lat="41.724309" lon="-111.835284"/>
      <trkpt lat="41.723284" lon="-111.835327"/>
      <trkpt lat="41.723267" lon="-111.835319"/>
      <trkpt lat="41.722355" lon="-111.835327"/>
      <trkpt lat="41.718191" lon="-111.835456"/>
      <trkpt lat="41.717385" lon="-111.835307"/>
      <trkpt lat="41.716394" lon="-111.834991"/>
      <trkpt lat="41.715609" lon="-111.834878"/>
      <trkpt lat="41.714063" lon="-111.834921"/>
      <trkpt lat="41.712581" lon="-111.834745"/>
      <trkpt lat="41.711851" lon="-111.834648"/>
      <trkpt lat="41.710206" lon="-111.834662"/>
      <trkpt lat="41.710147" lon="-111.833490"/>
      <trkpt lat="41.710112" lon="-111.832255"/>
      <trkpt lat="41.710101" lon="-111.830038"/>
      <trkpt lat="41.710068" lon="-111.829681"/>
      <trkpt lat="41.710028" lon="-111.829415"/>
      <trkpt lat="41.709939" lon="-111.829220"/>
      <trkpt lat="41.709982" lon="-111.828997"/>
      <trkpt lat="41.710126" lon="-111.828928"/>
      <trkpt lat="41.710227" lon="-111.829011"/>
      <trkpt lat="41.710276" lon="-111.829175"/>
      <trkpt lat="41.710182" lon="-111.829705"/>
      <trkpt lat="41.710165" lon="-111.830576"/>
      <trkpt lat="41.710198" lon="-111.834018"/>
      <trkpt lat="41.710206" lon="-111.834351"/>
      <trkpt lat="41.710214" lon="-111.834513"/>
      <trkpt lat="41.710519" lon="-111.834523"/>
      <trkpt lat="41.711952" lon="-111.834523"/>
      <trkpt lat="41.712945" lon="-111.834630"/>
      <trkpt lat="41.713745" lon="-111.834736"/>
      <trkpt lat="41.715068" lon="-111.834779"/>
      <trkpt lat="41.715804" lon="-111.834790"/>
      <trkpt lat="41.717742" lon="-111.835284"/>
      <trkpt lat="41.719824" lon="-111.835198"/>
      <trkpt lat="41.719811" lon="-111.835184"/>
      <trkpt lat="41.720081" lon="-111.835198"/>
      <trkpt lat="41.724437" lon="-111.835070"/>
      <trkpt lat="41.724431" lon="-111.835056"/>
      <trkpt lat="41.724981" lon="-111.835070"/>
      <trkpt lat="41.732380" lon="-111.834855"/>
      <trkpt lat="41.732392" lon="-111.834858"/>
      <trkpt lat="41.732924" lon="-111.834855"/>
      <trkpt lat="41.736703" lon="-111.834726"/>
      <trkpt lat="41.736706" lon="-111.834711"/>
      <trkpt lat="41.736959" lon="-111.834726"/>
      <trkpt lat="41.738945" lon="-111.834641"/>
      <trkpt lat="41.738913" lon="-111.830564"/>
      <trkpt lat="41.738911" lon="-111.830580"/>
      <trkpt lat="41.738913" lon="-111.829233"/>
      <trkpt lat="41.738785" lon="-111.823311"/>
      <trkpt lat="41.738794" lon="-111.823298"/>
      <trkpt lat="41.738785" lon="-111.821251"/>
      <trkpt lat="41.738721" lon="-111.818633"/>
      <trkpt lat="41.738711" lon="-111.818620"/>
      <trkpt lat="41.738721" lon="-111.817560"/>
      <trkpt lat="41.738496" lon="-111.815372"/>
      <trkpt lat="41.738625" lon="-111.814299"/>
      <trkpt lat="41.739873" lon="-111.811166"/>
      <trkpt lat="41.740866" lon="-111.807218"/>
      <trkpt lat="41.741667" lon="-111.805630"/>
      <trkpt lat="41.742595" lon="-111.804214"/>
      <trkpt lat="41.743428" lon="-111.804256"/>
      <trkpt lat="41.743430" lon="-111.804256"/>
      <trkpt lat="41.743430" lon="-111.804290"/>
      <trkpt lat="41.744200" lon="-111.804300"/>
      <trkpt lat="41.744330" lon="-111.804300"/>
      <trkpt lat="41.744340" lon="-111.804995"/>
      <trkpt lat="41.744372" lon="-111.806399"/>
      <trkpt lat="41.744435" lon="-111.807223"/>
      <trkpt lat="41.744396" lon="-111.807791"/>
      <trkpt lat="41.744495" lon="-111.810989"/>
      <trkpt lat="41.744473" lon="-111.812064"/>
      <trkpt lat="41.744531" lon="-111.814153"/>
      <trkpt lat="41.744845" lon="-111.814122"/>
      <trkpt lat="41.745990" lon="-111.814099"/>
      <trkpt lat="41.747765" lon="-111.814014"/>
      <trkpt lat="41.749458" lon="-111.813935"/>
      <trkpt lat="41.750150" lon="-111.813920"/>
      <trkpt lat="41.750150" lon="-111.814130"/>
      <trkpt lat="41.750150" lon="-111.814790"/>
      <trkpt lat="41.750160" lon="-111.815030"/>
      <trkpt lat="41.750160" lon="-111.815160"/>
      <trkpt lat="41.750160" lon="-111.815490"/>
      <trkpt lat="41.750160" lon="-111.815740"/>
      <trkpt lat="41.750160" lon="-111.815910"/>
      <trkpt lat="41.750140" lon="-111.816090"/>
      <trkpt lat="41.750140" lon="-111.816090"/>
      <trkpt lat="41.750024" lon="-111.816874"/>
      <trkpt lat="41.750015" lon="-111.816894"/>
      <trkpt lat="41.749992" lon="-111.817002"/>
      <trkpt lat="41.749896" lon="-111.819019"/>
      <trkpt lat="41.749415" lon="-111.819105"/>
      <trkpt lat="41.749425" lon="-111.819110"/>
      <trkpt lat="41.749223" lon="-111.819105"/>
      <trkpt lat="41.747302" lon="-111.819148"/>
      <trkpt lat="41.747305" lon="-111.819164"/>
      <trkpt lat="41.746886" lon="-111.819148"/>
      <trkpt lat="41.745157" lon="-111.819234"/>
      <trkpt lat="41.745168" lon="-111.819227"/>
      <trkpt lat="41.744645" lon="-111.819234"/>
      <trkpt lat="41.742115" lon="-111.819320"/>
      <trkpt lat="41.742112" lon="-111.819300"/>
      <trkpt lat="41.741122" lon="-111.819320"/>
      <trkpt lat="41.740834" lon="-111.819406"/>
      <trkpt lat="41.740738" lon="-111.819749"/>
      <trkpt lat="41.740802" lon="-111.822152"/>
      <trkpt lat="41.740788" lon="-111.822173"/>
      <trkpt lat="41.740770" lon="-111.822796"/>
      <trkpt lat="41.740866" lon="-111.827302"/>
      <trkpt lat="41.740871" lon="-111.827304"/>
      <trkpt lat="41.740898" lon="-111.829019"/>
      <trkpt lat="41.740994" lon="-111.829705"/>
      <trkpt lat="41.740322" lon="-111.829662"/>
      <trkpt lat="41.740354" lon="-111.830821"/>
      <trkpt lat="41.740352" lon="-111.830816"/>
      <trkpt lat="41.740354" lon="-111.831980"/>
      <trkpt lat="41.740350" lon="-111.831990"/>
      <trkpt lat="41.740386" lon="-111.832108"/>
      <trkpt lat="41.740930" lon="-111.832151"/>
      <trkpt lat="41.740962" lon="-111.833911"/>
      <trkpt lat="41.741026" lon="-111.834555"/>
      <trkpt lat="41.741030" lon="-111.834560"/>
      <trkpt lat="41.741122" lon="-111.834641"/>
      <trkpt lat="41.745861" lon="-111.834469"/>
      <trkpt lat="41.745855" lon="-111.834482"/>
      <trkpt lat="41.746854" lon="-111.834469"/>
      <trkpt lat="41.751817" lon="-111.834383"/>
      <trkpt lat="41.751809" lon="-111.834366"/>
      <trkpt lat="41.751945" lon="-111.834383"/>
      <trkpt lat="41.755338" lon="-111.834340"/>
      <trkpt lat="41.755340" lon="-111.834318"/>
      <trkpt lat="41.756075" lon="-111.834340"/>
      <trkpt lat="41.757483" lon="-111.834168"/>
      <trkpt lat="41.757419" lon="-111.830049"/>
      <trkpt lat="41.757451" lon="-111.829233"/>
      <trkpt lat="41.757579" lon="-111.829019"/>
      <trkpt lat="41.760781" lon="-111.828890"/>
      <trkpt lat="41.760771" lon="-111.828873"/>
      <trkpt lat="41.761101" lon="-111.828890"/>
      <trkpt lat="41.761229" lon="-111.829062"/>
      <trkpt lat="41.761261" lon="-111.831894"/>
      <trkpt lat="41.761251" lon="-111.831914"/>
      <trkpt lat="41.761261" lon="-111.832280"/>
      <trkpt lat="41.761229" lon="-111.834340"/>
      <trkpt lat="41.756107" lon="-111.834512"/>
      <trkpt lat="41.756109" lon="-111.834514"/>
      <trkpt lat="41.754794" lon="-111.834512"/>
      <trkpt lat="41.751496" lon="-111.834598"/>
      <trkpt lat="41.751512" lon="-111.834579"/>
      <trkpt lat="41.751048" lon="-111.834598"/>
      <trkpt lat="41.745509" lon="-111.834683"/>
      <trkpt lat="41.745500" lon="-111.834705"/>
      <trkpt lat="41.744388" lon="-111.834726"/>
      <trkpt lat="41.737856" lon="-111.834941"/>
      <trkpt lat="41.737855" lon="-111.834933"/>
      <trkpt lat="41.737728" lon="-111.834898"/>
      <trkpt lat="41.732188" lon="-111.835070"/>
    </trkseg></trk>
</gpx>
