<?xml version="1.0" encoding="UTF-8"?>
<gpx version="1.1" creator="flagstop" xmlns="http://www.topografix.com/GPX/1/1">
  <trk><name>16 AM Southbound</name><desc>GTFS shape 27488</desc><trkseg>
      <trkpt lat="42.094759" lon="-111.874098"/>
      <trkpt lat="42.092197" lon="-111.874048"/>
      <trkpt lat="42.092157" lon="-111.874075"/>
      <trkpt lat="42.092124" lon="-111.874146"/>
      <trkpt lat="42.092122" lon="-111.876101"/>
      <trkpt lat="42.092101" lon="-111.876375"/>
      <trkpt lat="42.092095" lon="-111.876543"/>
      <trkpt lat="42.092084" lon="-111.876608"/>
      <trkpt lat="42.092058" lon="-111.876650"/>
      <trkpt lat="42.092007" lon="-111.876666"/>
      <trkpt lat="42.091564" lon="-111.876674"/>
      <trkpt lat="42.091373" lon="-111.876667"/>
      <trkpt lat="42.091244" lon="-111.876650"/>
      <trkpt lat="42.091159" lon="-111.876623"/>
      <trkpt lat="42.091090" lon="-111.876589"/>
      <trkpt lat="42.091023" lon="-111.876545"/>
      <trkpt lat="42.090916" lon="-111.876453"/>
      <trkpt lat="42.090445" lon="-111.875939"/>
      <trkpt lat="42.089954" lon="-111.875345"/>
      <trkpt lat="42.089014" lon="-111.874214"/>
      <trkpt lat="42.086762" lon="-111.871491"/>
      <trkpt lat="42.085895" lon="-111.870440"/>
      <trkpt lat="42.084273" lon="-111.868494"/>
      <trkpt lat="42.082946" lon="-111.866911"/>
      <trkpt lat="42.082071" lon="-111.865847"/>
      <trkpt lat="42.081867" lon="-111.865568"/>
      <trkpt lat="42.081604" lon="-111.865194"/>
      <trkpt lat="42.081305" lon="-111.864712"/>
      <trkpt lat="42.080919" lon="-111.864026"/>
      <trkpt lat="42.080334" lon="-111.862934"/>
      <trkpt lat="42.076913" lon="-111.856658"/>
      <trkpt lat="42.075614" lon="-111.854324"/>
      <trkpt lat="42.074853" lon="-111.853034"/>
      <trkpt lat="42.074254" lon="-111.851971"/>
      <trkpt lat="42.073525" lon="-111.850683"/>
      <trkpt lat="42.072064" lon="-111.848031"/>
      <trkpt lat="42.069879" lon="-111.844029"/>
      <trkpt lat="42.068478" lon="-111.841605"/>
      <trkpt lat="42.067429" lon="-111.839925"/>
      <trkpt lat="42.065731" lon="-111.837243"/>
      <trkpt lat="42.064432" lon="-111.835091"/>
      <trkpt lat="42.063334" lon="-111.833301"/>
      <trkpt lat="42.062178" lon="-111.831402"/>
      <trkpt lat="42.060928" lon="-111.829367"/>
      <trkpt lat="42.059743" lon="-111.827436"/>
      <trkpt lat="42.058589" lon="-111.825535"/>
      <trkpt lat="42.056984" lon="-111.822925"/>
      <trkpt lat="42.055856" lon="-111.821072"/>
      <trkpt lat="42.054013" lon="-111.818093"/>
      <trkpt lat="42.053556" lon="-111.817421"/>
      <trkpt lat="42.053090" lon="-111.816869"/>
      <trkpt lat="42.052621" lon="-111.816425"/>
      <trkpt lat="42.052141" lon="-111.816079"/>
      <trkpt lat="42.051709" lon="-111.815813"/>
      <trkpt lat="42.051243" lon="-111.815587"/>
      <trkpt lat="42.050765" lon="-111.815426"/>
      <trkpt lat="42.050262" lon="-111.815335"/>
      <trkpt lat="42.049729" lon="-111.815299"/>
      <trkpt lat="42.048828" lon="-111.815219"/>
      <trkpt lat="42.047297" lon="-111.815057"/>
      <trkpt lat="42.046385" lon="-111.814925"/>
      <trkpt lat="42.045119" lon="-111.814702"/>
      <trkpt lat="42.043556" lon="-111.814402"/>
      <trkpt lat="42.042299" lon="-111.814174"/>
      <trkpt lat="42.040583" lon="-111.813805"/>
      <trkpt lat="42.038377" lon="-111.813364"/>
      <trkpt lat="42.036199" lon="-111.812934"/>
      <trkpt lat="42.034285" lon="-111.812555"/>
      <trkpt lat="42.033612" lon="-111.812416"/>
      <trkpt lat="42.032919" lon="-111.812185"/>
      <trkpt lat="42.032077" lon="-111.811792"/>
      <trkpt lat="42.031464" lon="-111.811423"/>
      <trkpt lat="42.030352" lon="-111.810747"/>
      <trkpt lat="42.029527" lon="-111.810248"/>
      <trkpt lat="42.028951" lon="-111.809926"/>
      <trkpt lat="42.027753" lon="-111.809307"/>
      <trkpt lat="42.026538" lon="-111.808612"/>
      <trkpt lat="42.025060" lon="-111.807709"/>
      <trkpt lat="42.022267" lon="-111.806028"/>
      <trkpt lat="42.021205" lon="-111.805396"/>
      <trkpt lat="42.020360" lon="-111.804902"/>
      <trkpt lat="42.019886" lon="-111.804654"/>
      <trkpt lat="42.019234" lon="-111.804442"/>
      <trkpt lat="42.018789" lon="-111.804367"/>
      <trkpt lat="42.018505" lon="-111.804338"/>
      <trkpt lat="42.016776" lon="-111.804425"/>
      <trkpt lat="42.015884" lon="-111.804440"/>
      <trkpt lat="42.015105" lon="-111.804472"/>
      <trkpt lat="42.014288" lon="-111.804500"/>
      <trkpt lat="42.014062" lon="-111.804538"/>
      <trkpt lat="42.013693" lon="-111.804646"/>
      <trkpt lat="42.013290" lon="-111.804813"/>
      <trkpt lat="42.012920" lon="-111.805013"/>
      <trkpt lat="42.012225" lon="-111.805572"/>
      <trkpt lat="42.011117" lon="-111.806589"/>
      <trkpt lat="42.008083" lon="-111.809330"/>
      <trkpt lat="42.007741" lon="-111.809584"/>
      <trkpt lat="42.006870" lon="-111.810238"/>
      <trkpt lat="42.004600" lon="-111.811919"/>
      <trkpt lat="42.004334" lon="-111.812093"/>
      <trkpt lat="42.003977" lon="-111.812295"/>
      <trkpt lat="42.003520" lon="-111.812510"/>
      <trkpt lat="42.003087" lon="-111.812671"/>
      <trkpt lat="42.002582" lon="-111.812791"/>
      <trkpt lat="42.001871" lon="-111.812894"/>
      <trkpt lat="42.001277" lon="-111.812899"/>
      <trkpt lat="41.999897" lon="-111.812893"/>
      <trkpt lat="41.992222" lon="-111.812867"/>
      <trkpt lat="41.985549" lon="-111.812858"/>
      <trkpt lat="41.976147" lon="-111.812931"/>
      <trkpt lat="41.976098" lon="-111.812956"/>
      <trkpt lat="41.976058" lon="-111.813032"/>
      <trkpt lat="41.976069" lon="-111.813982"/>
      <trkpt lat="41.976080" lon="-111.814872"/>
      <trkpt lat="41.976099" lon="-111.815610"/>
      <trkpt lat="41.976116" lon="-111.816400"/>
      <trkpt lat="41.976129" lon="-111.818416"/>
      <trkpt lat="41.976135" lon="-111.820652"/>
      <trkpt lat="41.976143" lon="-111.823131"/>
      <trkpt lat="41.976153" lon="-111.825741"/>
      <trkpt lat="41.976150" lon="-111.826756"/>
      <trkpt lat="41.976133" lon="-111.828402"/>
      <trkpt lat="41.976111" lon="-111.830971"/>
      <trkpt lat="41.976084" lon="-111.833575"/>
      <trkpt lat="41.976060" lon="-111.836137"/>
      <trkpt lat="41.976035" lon="-111.838744"/>
      <trkpt lat="41.976015" lon="-111.841281"/>
      <trkpt lat="41.975998" lon="-111.843874"/>
      <trkpt lat="41.975977" lon="-111.846445"/>
      <trkpt lat="41.975960" lon="-111.848973"/>
      <trkpt lat="41.975955" lon="-111.851103"/>
      <trkpt lat="41.975953" lon="-111.851378"/>
      <trkpt lat="41.975942" lon="-111.853900"/>
      <trkpt lat="41.975935" lon="-111.856609"/>
      <trkpt lat="41.975912" lon="-111.856689"/>
      <trkpt lat="41.975867" lon="-111.856724"/>
      <trkpt lat="41.973863" lon="-111.856727"/>
      <trkpt lat="41.973834" lon="-111.856762"/>
      <trkpt lat="41.973826" lon="-111.856833"/>
      <trkpt lat="41.973809" lon="-111.859374"/>
      <trkpt lat="41.973821" lon="-111.859421"/>
      <trkpt lat="41.973856" lon="-111.859451"/>
      <trkpt lat="41.974436" lon="-111.859462"/>
      <trkpt lat="41.975801" lon="-111.859479"/>
      <trkpt lat="41.975837" lon="-111.859470"/>
      <trkpt lat="41.975870" lon="-111.859408"/>
      <trkpt lat="41.975880" lon="-111.857975"/>
      <trkpt lat="41.975874" lon="-111.856767"/>
      <trkpt lat="41.975914" lon="-111.852103"/>
      <trkpt lat="41.975934" lon="-111.848850"/>
      <trkpt lat="41.975946" lon="-111.846079"/>
      <trkpt lat="41.975966" lon="-111.843530"/>
      <trkpt lat="41.975987" lon="-111.841232"/>
      <trkpt lat="41.976010" lon="-111.838829"/>
      <trkpt lat="41.976019" lon="-111.837493"/>
      <trkpt lat="41.976009" lon="-111.837327"/>
      <trkpt lat="41.975955" lon="-111.837287"/>
      <trkpt lat="41.975875" lon="-111.837271"/>
      <trkpt lat="41.971993" lon="-111.837240"/>
      <trkpt lat="41.971914" lon="-111.837239"/>
      <trkpt lat="41.971880" lon="-111.837214"/>
      <trkpt lat="41.971864" lon="-111.837150"/>
      <trkpt lat="41.971914" lon="-111.831070"/>
      <trkpt lat="41.971920" lon="-111.830850"/>
      <trkpt lat="41.971924" lon="-111.830634"/>
      <trkpt lat="41.971934" lon="-111.830567"/>
      <trkpt lat="41.971960" lon="-111.830532"/>
      <trkpt lat="41.972622" lon="-111.830532"/>
      <trkpt lat="41.975970" lon="-111.830575"/>
      <trkpt lat="41.976030" lon="-111.830575"/>
      <trkpt lat="41.976068" lon="-111.830554"/>
      <trkpt lat="41.976089" lon="-111.830504"/>
      <trkpt lat="41.976093" lon="-111.830449"/>
      <trkpt lat="41.976111" lon="-111.828056"/>
      <trkpt lat="41.976119" lon="-111.826496"/>
      <trkpt lat="41.976117" lon="-111.824899"/>
      <trkpt lat="41.976117" lon="-111.823251"/>
      <trkpt lat="41.976100" lon="-111.820116"/>
      <trkpt lat="41.976093" lon="-111.817861"/>
      <trkpt lat="41.976079" lon="-111.816226"/>
      <trkpt lat="41.975998" lon="-111.814240"/>
      <trkpt lat="41.975986" lon="-111.813064"/>
      <trkpt lat="41.975956" lon="-111.812986"/>
      <trkpt lat="41.975901" lon="-111.812951"/>
      <trkpt lat="41.975841" lon="-111.812933"/>
      <trkpt lat="41.974677" lon="-111.812940"/>
      <trkpt lat="41.973556" lon="-111.812938"/>
      <trkpt lat="41.970572" lon="-111.812900"/>
      <trkpt lat="41.967209" lon="-111.812923"/>
      <trkpt lat="41.964683" lon="-111.812933"/>
      <trkpt lat="41.962410" lon="-111.812942"/>
      <trkpt lat="41.960194" lon="-111.812951"/>
      <trkpt lat="41.958361" lon="-111.812993"/>
      <trkpt lat="41.956838" lon="-111.813049"/>
      <trkpt lat="41.955039" lon="-111.813173"/>
      <trkpt lat="41.953149" lon="-111.813334"/>
      <trkpt lat="41.952159" lon="-111.813385"/>
      <trkpt lat="41.949895" lon="-111.813468"/>
      <trkpt lat="41.947761" lon="-111.813579"/>
      <trkpt lat="41.945416" lon="-111.813720"/>
      <trkpt lat="41.942954" lon="-111.813866"/>
      <trkpt lat="41.941351" lon="-111.813957"/>
      <trkpt lat="41.941231" lon="-111.813989"/>
      <trkpt lat="41.941207" lon="-111.814124"/>
      <trkpt lat="41.941159" lon="-111.814242"/>
      <trkpt lat="41.941046" lon="-111.814317"/>
      <trkpt lat="41.940488" lon="-111.814328"/>
      <trkpt lat="41.939939" lon="-111.814333"/>
      <trkpt lat="41.938755" lon="-111.814370"/>
      <trkpt lat="41.938710" lon="-111.814297"/>
      <trkpt lat="41.938703" lon="-111.814187"/>
      <trkpt lat="41.938679" lon="-111.814131"/>
      <trkpt lat="41.938653" lon="-111.814069"/>
      <trkpt lat="41.938621" lon="-111.814029"/>
      <trkpt lat="41.938493" lon="-111.814000"/>
      <trkpt lat="41.938187" lon="-111.814004"/>
      <trkpt lat="41.935730" lon="-111.814038"/>
      <trkpt lat="41.933288" lon="-111.814109"/>
      <trkpt lat="41.930877" lon="-111.814179"/>
      <trkpt lat="41.928513" lon="-111.814245"/>
      <trkpt lat="41.926125" lon="-111.814335"/>
      <trkpt lat="41.923825" lon="-111.814389"/>
      <trkpt lat="41.922831" lon="-111.814446"/>
      <trkpt lat="41.919978" lon="-111.814514"/>
      <trkpt lat="41.917063" lon="-111.814538"/>
      <trkpt lat="41.914726" lon="-111.814608"/>
      <trkpt lat="41.912437" lon="-111.814660"/>
      <trkpt lat="41.910016" lon="-111.814712"/>
      <trkpt lat="41.908304" lon="-111.814735"/>
      <trkpt lat="41.906002" lon="-111.814763"/>
      <trkpt lat="41.903670" lon="-111.814823"/>
      <trkpt lat="41.901309" lon="-111.814863"/>
      <trkpt lat="41.898890" lon="-111.814890"/>
      <trkpt lat="41.896598" lon="-111.814906"/>
      <trkpt lat="41.894706" lon="-111.814947"/>
      <trkpt lat="41.892425" lon="-111.814998"/>
      <trkpt lat="41.891868" lon="-111.815037"/>
      <trkpt lat="41.890977" lon="-111.815173"/>
      <trkpt lat="41.890441" lon="-111.815298"/>
      <trkpt lat="41.889798" lon="-111.815492"/>
      <trkpt lat="41.889118" lon="-111.815774"/>
      <trkpt lat="41.888310" lon="-111.816186"/>
      <trkpt lat="41.885741" lon="-111.817893"/>
      <trkpt lat="41.883436" lon="-111.819425"/>
      <trkpt lat="41.881098" lon="-111.820948"/>
      <trkpt lat="41.878829" lon="-111.822400"/>
      <trkpt lat="41.876484" lon="-111.823894"/>
      <trkpt lat="41.874112" lon="-111.825398"/>
      <trkpt lat="41.872408" lon="-111.826512"/>
      <trkpt lat="41.871834" lon="-111.826864"/>
      <trkpt lat="41.870837" lon="-111.827421"/>
      <trkpt lat="41.870013" lon="-111.827808"/>
      <trkpt lat="41.869628" lon="-111.827979"/>
      <trkpt lat="41.868980" lon="-111.828217"/>
      <trkpt lat="41.866707" lon="-111.828957"/>
      <trkpt lat="41.865733" lon="-111.829258"/>
      <trkpt lat="41.864883" lon="-111.829501"/>
      <trkpt lat="41.862583" lon="-111.830102"/>
      <trkpt lat="41.861528" lon="-111.830365"/>
      <trkpt lat="41.859299" lon="-111.830824"/>
      <trkpt lat="41.856996" lon="-111.831278"/>
      <trkpt lat="41.855871" lon="-111.831497"/>
      <trkpt lat="41.854994" lon="-111.831664"/>
      <trkpt lat="41.854003" lon="-111.831793"/>
      <trkpt lat="41.852024" lon="-111.831981"/>
      <trkpt lat="41.849957" lon="-111.832190"/>
      <trkpt lat="41.849258" lon="-111.832230"/>
      <trkpt lat="41.847703" lon="-111.832406"/>
      <trkpt lat="41.845847" lon="-111.832528"/>
      <trkpt lat="41.844152" lon="-111.832575"/>
      <trkpt lat="41.841808" lon="-111.832631"/>
      <trkpt lat="41.840411" lon="-111.832712"/>
      <trkpt lat="41.839455" lon="-111.832675"/>
      <trkpt lat="41.837088" lon="-111.832753"/>
      <trkpt lat="41.834766" lon="-111.832805"/>
      <trkpt lat="41.832471" lon="-111.832861"/>
      <trkpt lat="41.830385" lon="-111.832925"/>
      <trkpt lat="41.828046" lon="-111.832988"/>
      <trkpt lat="41.825704" lon="-111.833036"/>
      <trkpt lat="41.823256" lon="-111.833081"/>
      <trkpt lat="41.820501" lon="-111.833190"/>
      <trkpt lat="41.818883" lon="-111.833142"/>
      <trkpt lat="41.815340" lon="-111.833224"/>
      <trkpt lat="41.812688" lon="-111.833286"/>
      <trkpt lat="41.809943" lon="-111.833347"/>
      <trkpt lat="41.807253" lon="-111.833403"/>
      <trkpt lat="41.803484" lon="-111.833504"/>
      <trkpt lat="41.801304" lon="-111.833544"/>
      <trkpt lat="41.799441" lon="-111.833576"/>
      <trkpt lat="41.796626" lon="-111.833621"/>
      <trkpt lat="41.793857" lon="-111.833692"/>
      <trkpt lat="41.790960" lon="-111.833745"/>
      <trkpt lat="41.788166" lon="-111.833814"/>
      <trkpt lat="41.785380" lon="-111.833858"/>
      <trkpt lat="41.782628" lon="-111.833928"/>
      <trkpt lat="41.780014" lon="-111.833986"/>
      <trkpt lat="41.777321" lon="-111.834060"/>
      <trkpt lat="41.777071" lon="-111.834070"/>
      <trkpt lat="41.773637" lon="-111.834140"/>
      <trkpt lat="41.771966" lon="-111.834159"/>
      <trkpt lat="41.769236" lon="-111.834210"/>
      <trkpt lat="41.766445" lon="-111.834273"/>
      <trkpt lat="41.764282" lon="-111.834335"/>
      <trkpt lat="41.760943" lon="-111.834387"/>
      <trkpt lat="41.758262" lon="-111.834444"/>
      <trkpt lat="41.756109" lon="-111.834514"/>
      <trkpt lat="41.752866" lon="-111.834534"/>
      <trkpt lat="41.751512" lon="-111.834579"/>
      <trkpt lat="41.750286" lon="-111.834569"/>
      <trkpt lat="41.747653" lon="-111.834616"/>
      <trkpt lat="41.745500" lon="-111.834705"/>
      <trkpt lat="41.742898" lon="-111.834743"/>
      <trkpt lat="41.742428" lon="-111.834749"/>
      <trkpt lat="41.742257" lon="-111.834711"/>
      <trkpt lat="41.741557" lon="-111.834731"/>
      <trkpt lat="41.741512" lon="-111.834710"/>
      <trkpt lat="41.741385" lon="-111.834700"/>
      <trkpt lat="41.741162" lon="-111.834712"/>
      <trkpt lat="41.741087" lon="-111.834713"/>
      <trkpt lat="41.741029" lon="-111.834708"/>
      <trkpt lat="41.740993" lon="-111.834696"/>
      <trkpt lat="41.740967" lon="-111.834669"/>
      <trkpt lat="41.740951" lon="-111.834641"/>
      <trkpt lat="41.740937" lon="-111.834548"/>
      <trkpt lat="41.740933" lon="-111.834424"/>
      <trkpt lat="41.740930" lon="-111.834043"/>
      <trkpt lat="41.740942" lon="-111.833875"/>
      <trkpt lat="41.740934" lon="-111.833580"/>
      <trkpt lat="41.740916" lon="-111.832886"/>
      <trkpt lat="41.740903" lon="-111.832458"/>
      <trkpt lat="41.740898" lon="-111.832284"/>
      <trkpt lat="41.740896" lon="-111.831873"/>
      <trkpt lat="41.740889" lon="-111.831709"/>
      <trkpt lat="41.740878" lon="-111.831616"/>
      <trkpt lat="41.740850" lon="-111.831553"/>
      <trkpt lat="41.740814" lon="-111.831526"/>
      <trkpt lat="41.740773" lon="-111.831511"/>
      <trkpt lat="41.740716" lon="-111.831498"/>
      <trkpt lat="41.740641" lon="-111.831510"/>
      <trkpt lat="41.740619" lon="-111.831409"/>
      <trkpt lat="41.740597" lon="-111.831335"/>
      <trkpt lat="41.740507" lon="-111.831178"/>
      <trkpt lat="41.740482" lon="-111.830963"/>
      <trkpt lat="41.740512" lon="-111.830682"/>
      <trkpt lat="41.740572" lon="-111.830522"/>
      <trkpt lat="41.740682" lon="-111.830400"/>
      <trkpt lat="41.740794" lon="-111.830292"/>
      <trkpt lat="41.740840" lon="-111.830264"/>
      <trkpt lat="41.740850" lon="-111.830222"/>
      <trkpt lat="41.740856" lon="-111.830193"/>
      <trkpt lat="41.740861" lon="-111.830117"/>
      <trkpt lat="41.740856" lon="-111.830014"/>
      <trkpt lat="41.740858" lon="-111.829947"/>
      <trkpt lat="41.740838" lon="-111.829855"/>
      <trkpt lat="41.740822" lon="-111.829769"/>
      <trkpt lat="41.740743" lon="-111.829635"/>
      <trkpt lat="41.740732" lon="-111.829522"/>
      <trkpt lat="41.740760" lon="-111.829415"/>
      <trkpt lat="41.740796" lon="-111.829336"/>
      <trkpt lat="41.740830" lon="-111.829182"/>
      <trkpt lat="41.740845" lon="-111.829022"/>
      <trkpt lat="41.740847" lon="-111.828697"/>
      <trkpt lat="41.740829" lon="-111.827117"/>
      <trkpt lat="41.740822" lon="-111.826607"/>
      <trkpt lat="41.740784" lon="-111.824579"/>
      <trkpt lat="41.740727" lon="-111.821491"/>
      <trkpt lat="41.740704" lon="-111.820023"/>
      <trkpt lat="41.740688" lon="-111.819805"/>
      <trkpt lat="41.740656" lon="-111.819565"/>
      <trkpt lat="41.740589" lon="-111.819427"/>
      <trkpt lat="41.740559" lon="-111.819298"/>
      <trkpt lat="41.740592" lon="-111.819175"/>
      <trkpt lat="41.740646" lon="-111.819062"/>
      <trkpt lat="41.740663" lon="-111.818911"/>
      <trkpt lat="41.740678" lon="-111.818678"/>
      <trkpt lat="41.740660" lon="-111.817700"/>
      <trkpt lat="41.740652" lon="-111.817330"/>
      <trkpt lat="41.740662" lon="-111.817210"/>
      <trkpt lat="41.740662" lon="-111.817195"/>
      <trkpt lat="41.740661" lon="-111.817182"/>
      <trkpt lat="41.740659" lon="-111.816957"/>
      <trkpt lat="41.740661" lon="-111.816881"/>
      <trkpt lat="41.740665" lon="-111.816806"/>
      <trkpt lat="41.740709" lon="-111.816773"/>
      <trkpt lat="41.740760" lon="-111.816754"/>
      <trkpt lat="41.740923" lon="-111.816746"/>
      <trkpt lat="41.742750" lon="-111.816694"/>
      <trkpt lat="41.743621" lon="-111.816660"/>
      <trkpt lat="41.743703" lon="-111.816637"/>
      <trkpt lat="41.743824" lon="-111.816593"/>
      <trkpt lat="41.743912" lon="-111.816550"/>
      <trkpt lat="41.744014" lon="-111.816488"/>
      <trkpt lat="41.744105" lon="-111.816430"/>
      <trkpt lat="41.744202" lon="-111.816352"/>
      <trkpt lat="41.744313" lon="-111.816234"/>
      <trkpt lat="41.744367" lon="-111.816141"/>
      <trkpt lat="41.744416" lon="-111.816021"/>
      <trkpt lat="41.744431" lon="-111.815979"/>
      <trkpt lat="41.744455" lon="-111.815878"/>
      <trkpt lat="41.744484" lon="-111.815478"/>
      <trkpt lat="41.744488" lon="-111.814909"/>
      <trkpt lat="41.744487" lon="-111.814751"/>
      <trkpt lat="41.744481" lon="-111.814600"/>
      <trkpt lat="41.744480" lon="-111.814338"/>
      <trkpt lat="41.744454" lon="-111.812620"/>
      <trkpt lat="41.744448" lon="-111.812401"/>
      <trkpt lat="41.744412" lon="-111.810206"/>
      <trkpt lat="41.744412" lon="-111.809280"/>
    </trkseg></trk>
</gpx>
