<?xml version="1.0" encoding="UTF-8"?>
<gpx version="1.1" creator="flagstop" xmlns="http://www.topografix.com/GPX/1/1">
  <trk><name>16 PM Northbound</name><desc>GTFS shape 27490</desc><trkseg>
      <trkpt lat="41.744435" lon="-111.807223"/>
      <trkpt lat="41.744495" lon="-111.810989"/>
      <trkpt lat="41.744500" lon="-111.811198"/>
      <trkpt lat="41.744507" lon="-111.811355"/>
      <trkpt lat="41.744517" lon="-111.811665"/>
      <trkpt lat="41.744527" lon="-111.812213"/>
      <trkpt lat="41.744546" lon="-111.812845"/>
      <trkpt lat="41.744540" lon="-111.813954"/>
      <trkpt lat="41.744546" lon="-111.814317"/>
      <trkpt lat="41.744559" lon="-111.815270"/>
      <trkpt lat="41.744548" lon="-111.815673"/>
      <trkpt lat="41.744509" lon="-111.815943"/>
      <trkpt lat="41.744420" lon="-111.816199"/>
      <trkpt lat="41.744418" lon="-111.816207"/>
      <trkpt lat="41.744291" lon="-111.816412"/>
      <trkpt lat="41.744164" lon="-111.816522"/>
      <trkpt lat="41.744018" lon="-111.816603"/>
      <trkpt lat="41.743851" lon="-111.816677"/>
      <trkpt lat="41.743640" lon="-111.816722"/>
      <trkpt lat="41.743408" lon="-111.816727"/>
      <trkpt lat="41.743134" lon="-111.816740"/>
      <trkpt lat="41.742822" lon="-111.816750"/>
      <trkpt lat="41.742729" lon="-111.816760"/>
      <trkpt lat="41.742470" lon="-111.816772"/>
      <trkpt lat="41.741039" lon="-111.816801"/>
      <trkpt lat="41.740921" lon="-111.816848"/>
      <trkpt lat="41.740807" lon="-111.816848"/>
      <trkpt lat="41.740773" lon="-111.816849"/>
      <trkpt lat="41.740741" lon="-111.816867"/>
      <trkpt lat="41.740717" lon="-111.816891"/>
      <trkpt lat="41.740709" lon="-111.816949"/>
      <trkpt lat="41.740707" lon="-111.817000"/>
      <trkpt lat="41.740700" lon="-111.817099"/>
      <trkpt lat="41.740714" lon="-111.818636"/>
      <trkpt lat="41.740721" lon="-111.818746"/>
      <trkpt lat="41.740733" lon="-111.818922"/>
      <trkpt lat="41.740747" lon="-111.819019"/>
      <trkpt lat="41.740768" lon="-111.819079"/>
      <trkpt lat="41.740807" lon="-111.819132"/>
      <trkpt lat="41.740840" lon="-111.819207"/>
      <trkpt lat="41.740850" lon="-111.819254"/>
      <trkpt lat="41.740852" lon="-111.819316"/>
      <trkpt lat="41.740848" lon="-111.819397"/>
      <trkpt lat="41.740820" lon="-111.819454"/>
      <trkpt lat="41.740799" lon="-111.819492"/>
      <trkpt lat="41.740776" lon="-111.819539"/>
      <trkpt lat="41.740759" lon="-111.819597"/>
      <trkpt lat="41.740752" lon="-111.819695"/>
      <trkpt lat="41.740745" lon="-111.819886"/>
      <trkpt lat="41.740739" lon="-111.819989"/>
      <trkpt lat="41.740739" lon="-111.820168"/>
      <trkpt lat="41.740773" lon="-111.821674"/>
      <trkpt lat="41.740788" lon="-111.822173"/>
      <trkpt lat="41.740814" lon="-111.824221"/>
      <trkpt lat="41.740817" lon="-111.824572"/>
      <trkpt lat="41.740859" lon="-111.826746"/>
      <trkpt lat="41.740871" lon="-111.827304"/>
      <trkpt lat="41.740889" lon="-111.828605"/>
      <trkpt lat="41.740891" lon="-111.828766"/>
      <trkpt lat="41.740897" lon="-111.828952"/>
      <trkpt lat="41.740905" lon="-111.829170"/>
      <trkpt lat="41.740914" lon="-111.829269"/>
      <trkpt lat="41.740942" lon="-111.829347"/>
      <trkpt lat="41.740972" lon="-111.829402"/>
      <trkpt lat="41.741017" lon="-111.829485"/>
      <trkpt lat="41.741022" lon="-111.829603"/>
      <trkpt lat="41.740997" lon="-111.829687"/>
      <trkpt lat="41.740958" lon="-111.829768"/>
      <trkpt lat="41.740933" lon="-111.829876"/>
      <trkpt lat="41.740919" lon="-111.830082"/>
      <trkpt lat="41.740921" lon="-111.830217"/>
      <trkpt lat="41.740923" lon="-111.830306"/>
      <trkpt lat="41.740937" lon="-111.831434"/>
      <trkpt lat="41.740911" lon="-111.831503"/>
      <trkpt lat="41.740866" lon="-111.831521"/>
      <trkpt lat="41.740803" lon="-111.831529"/>
      <trkpt lat="41.740768" lon="-111.831525"/>
      <trkpt lat="41.740726" lon="-111.831518"/>
      <trkpt lat="41.740641" lon="-111.831510"/>
      <trkpt lat="41.740652" lon="-111.831460"/>
      <trkpt lat="41.740603" lon="-111.831306"/>
      <trkpt lat="41.740532" lon="-111.831164"/>
      <trkpt lat="41.740505" lon="-111.830958"/>
      <trkpt lat="41.740526" lon="-111.830705"/>
      <trkpt lat="41.740565" lon="-111.830595"/>
      <trkpt lat="41.740609" lon="-111.830515"/>
      <trkpt lat="41.740689" lon="-111.830429"/>
      <trkpt lat="41.740759" lon="-111.830423"/>
      <trkpt lat="41.740866" lon="-111.830460"/>
      <trkpt lat="41.740887" lon="-111.830520"/>
      <trkpt lat="41.740922" lon="-111.830711"/>
      <trkpt lat="41.740940" lon="-111.831208"/>
      <trkpt lat="41.740958" lon="-111.831895"/>
      <trkpt lat="41.740964" lon="-111.832220"/>
      <trkpt lat="41.740972" lon="-111.832719"/>
      <trkpt lat="41.741000" lon="-111.833629"/>
      <trkpt lat="41.741014" lon="-111.834096"/>
      <trkpt lat="41.741026" lon="-111.834263"/>
      <trkpt lat="41.741031" lon="-111.834338"/>
      <trkpt lat="41.741039" lon="-111.834557"/>
      <trkpt lat="41.741093" lon="-111.834601"/>
      <trkpt lat="41.742921" lon="-111.834559"/>
      <trkpt lat="41.745518" lon="-111.834496"/>
      <trkpt lat="41.745855" lon="-111.834482"/>
      <trkpt lat="41.750012" lon="-111.834396"/>
      <trkpt lat="41.751208" lon="-111.834383"/>
      <trkpt lat="41.751809" lon="-111.834366"/>
      <trkpt lat="41.754215" lon="-111.834341"/>
      <trkpt lat="41.755340" lon="-111.834318"/>
      <trkpt lat="41.756344" lon="-111.834313"/>
      <trkpt lat="41.757370" lon="-111.834283"/>
      <trkpt lat="41.757742" lon="-111.834260"/>
      <trkpt lat="41.758537" lon="-111.834251"/>
      <trkpt lat="41.759520" lon="-111.834252"/>
      <trkpt lat="41.760072" lon="-111.834238"/>
      <trkpt lat="41.762581" lon="-111.834192"/>
      <trkpt lat="41.763602" lon="-111.834140"/>
      <trkpt lat="41.764825" lon="-111.834143"/>
      <trkpt lat="41.766531" lon="-111.834108"/>
      <trkpt lat="41.768159" lon="-111.834060"/>
      <trkpt lat="41.769762" lon="-111.834040"/>
      <trkpt lat="41.772269" lon="-111.833989"/>
      <trkpt lat="41.772951" lon="-111.833963"/>
      <trkpt lat="41.775508" lon="-111.833925"/>
      <trkpt lat="41.776778" lon="-111.833860"/>
      <trkpt lat="41.777583" lon="-111.833876"/>
      <trkpt lat="41.788577" lon="-111.833631"/>
      <trkpt lat="41.793335" lon="-111.833523"/>
      <trkpt lat="41.799132" lon="-111.833397"/>
      <trkpt lat="41.799921" lon="-111.833378"/>
      <trkpt lat="41.802826" lon="-111.833336"/>
      <trkpt lat="41.806030" lon="-111.833255"/>
      <trkpt lat="41.819598" lon="-111.832966"/>
      <trkpt lat="41.821697" lon="-111.832960"/>
      <trkpt lat="41.824915" lon="-111.832874"/>
      <trkpt lat="41.827028" lon="-111.832825"/>
      <trkpt lat="41.828867" lon="-111.832781"/>
      <trkpt lat="41.831237" lon="-111.832721"/>
      <trkpt lat="41.833550" lon="-111.832661"/>
      <trkpt lat="41.836287" lon="-111.832597"/>
      <trkpt lat="41.840099" lon="-111.832491"/>
      <trkpt lat="41.843467" lon="-111.832412"/>
      <trkpt lat="41.844765" lon="-111.832375"/>
      <trkpt lat="41.845877" lon="-111.832337"/>
      <trkpt lat="41.846426" lon="-111.832318"/>
      <trkpt lat="41.846902" lon="-111.832274"/>
      <trkpt lat="41.847278" lon="-111.832242"/>
      <trkpt lat="41.847736" lon="-111.832205"/>
      <trkpt lat="41.848910" lon="-111.832086"/>
      <trkpt lat="41.849645" lon="-111.832029"/>
      <trkpt lat="41.850078" lon="-111.831988"/>
      <trkpt lat="41.852054" lon="-111.831798"/>
      <trkpt lat="41.853682" lon="-111.831651"/>
      <trkpt lat="41.854875" lon="-111.831497"/>
      <trkpt lat="41.855580" lon="-111.831374"/>
      <trkpt lat="41.856720" lon="-111.831158"/>
      <trkpt lat="41.860800" lon="-111.830340"/>
      <trkpt lat="41.862250" lon="-111.830007"/>
      <trkpt lat="41.863828" lon="-111.829590"/>
      <trkpt lat="41.864943" lon="-111.829303"/>
      <trkpt lat="41.865883" lon="-111.829036"/>
      <trkpt lat="41.867011" lon="-111.828681"/>
      <trkpt lat="41.869097" lon="-111.828010"/>
      <trkpt lat="41.870126" lon="-111.827588"/>
      <trkpt lat="41.870761" lon="-111.827280"/>
      <trkpt lat="41.871462" lon="-111.826905"/>
      <trkpt lat="41.871859" lon="-111.826680"/>
      <trkpt lat="41.872856" lon="-111.826031"/>
      <trkpt lat="41.874327" lon="-111.825083"/>
      <trkpt lat="41.877593" lon="-111.823004"/>
      <trkpt lat="41.878676" lon="-111.822319"/>
      <trkpt lat="41.881782" lon="-111.820337"/>
      <trkpt lat="41.882848" lon="-111.819644"/>
      <trkpt lat="41.887936" lon="-111.816251"/>
      <trkpt lat="41.888392" lon="-111.815988"/>
      <trkpt lat="41.888757" lon="-111.815788"/>
      <trkpt lat="41.889050" lon="-111.815638"/>
      <trkpt lat="41.889512" lon="-111.815436"/>
      <trkpt lat="41.890112" lon="-111.815224"/>
      <trkpt lat="41.890462" lon="-111.815124"/>
      <trkpt lat="41.890950" lon="-111.815016"/>
      <trkpt lat="41.891612" lon="-111.814899"/>
      <trkpt lat="41.892186" lon="-111.814845"/>
      <trkpt lat="41.894183" lon="-111.814787"/>
      <trkpt lat="41.896957" lon="-111.814750"/>
      <trkpt lat="41.899448" lon="-111.814721"/>
      <trkpt lat="41.901374" lon="-111.814705"/>
      <trkpt lat="41.903092" lon="-111.814677"/>
      <trkpt lat="41.904384" lon="-111.814645"/>
      <trkpt lat="41.905676" lon="-111.814618"/>
      <trkpt lat="41.908167" lon="-111.814574"/>
      <trkpt lat="41.909874" lon="-111.814563"/>
      <trkpt lat="41.911131" lon="-111.814532"/>
      <trkpt lat="41.920058" lon="-111.814325"/>
      <trkpt lat="41.922525" lon="-111.814279"/>
      <trkpt lat="41.923294" lon="-111.814254"/>
      <trkpt lat="41.924166" lon="-111.814218"/>
      <trkpt lat="41.925280" lon="-111.814194"/>
      <trkpt lat="41.926782" lon="-111.814148"/>
      <trkpt lat="41.928449" lon="-111.814082"/>
      <trkpt lat="41.930115" lon="-111.814050"/>
      <trkpt lat="41.931223" lon="-111.814017"/>
      <trkpt lat="41.938567" lon="-111.813822"/>
      <trkpt lat="41.940694" lon="-111.813834"/>
      <trkpt lat="41.940967" lon="-111.813860"/>
      <trkpt lat="41.941117" lon="-111.813857"/>
      <trkpt lat="41.941167" lon="-111.813878"/>
      <trkpt lat="41.941182" lon="-111.813958"/>
      <trkpt lat="41.941177" lon="-111.814171"/>
      <trkpt lat="41.941166" lon="-111.814217"/>
      <trkpt lat="41.941121" lon="-111.814272"/>
      <trkpt lat="41.940961" lon="-111.814301"/>
      <trkpt lat="41.939939" lon="-111.814333"/>
      <trkpt lat="41.938759" lon="-111.814352"/>
      <trkpt lat="41.938701" lon="-111.814290"/>
      <trkpt lat="41.938684" lon="-111.814121"/>
      <trkpt lat="41.938701" lon="-111.813936"/>
      <trkpt lat="41.938718" lon="-111.813891"/>
      <trkpt lat="41.938743" lon="-111.813848"/>
      <trkpt lat="41.938855" lon="-111.813813"/>
      <trkpt lat="41.941232" lon="-111.813748"/>
      <trkpt lat="41.943346" lon="-111.813671"/>
      <trkpt lat="41.943830" lon="-111.813644"/>
      <trkpt lat="41.945757" lon="-111.813528"/>
      <trkpt lat="41.947084" lon="-111.813438"/>
      <trkpt lat="41.949875" lon="-111.813294"/>
      <trkpt lat="41.952020" lon="-111.813207"/>
      <trkpt lat="41.953629" lon="-111.813121"/>
      <trkpt lat="41.955725" lon="-111.812939"/>
      <trkpt lat="41.957216" lon="-111.812853"/>
      <trkpt lat="41.958582" lon="-111.812815"/>
      <trkpt lat="41.960575" lon="-111.812775"/>
      <trkpt lat="41.963544" lon="-111.812765"/>
      <trkpt lat="41.972376" lon="-111.812727"/>
      <trkpt lat="41.974036" lon="-111.812764"/>
      <trkpt lat="41.974688" lon="-111.812804"/>
      <trkpt lat="41.975317" lon="-111.812802"/>
      <trkpt lat="41.975590" lon="-111.812842"/>
      <trkpt lat="41.976017" lon="-111.812855"/>
      <trkpt lat="41.976049" lon="-111.812892"/>
      <trkpt lat="41.976062" lon="-111.812948"/>
      <trkpt lat="41.976058" lon="-111.813038"/>
      <trkpt lat="41.976084" lon="-111.815051"/>
      <trkpt lat="41.976113" lon="-111.816231"/>
      <trkpt lat="41.976127" lon="-111.818138"/>
      <trkpt lat="41.976136" lon="-111.821067"/>
      <trkpt lat="41.976148" lon="-111.825028"/>
      <trkpt lat="41.976153" lon="-111.826239"/>
      <trkpt lat="41.976126" lon="-111.829549"/>
      <trkpt lat="41.976100" lon="-111.832268"/>
      <trkpt lat="41.976069" lon="-111.835193"/>
      <trkpt lat="41.976048" lon="-111.837187"/>
      <trkpt lat="41.976005" lon="-111.842741"/>
      <trkpt lat="41.975966" lon="-111.847988"/>
      <trkpt lat="41.975935" lon="-111.856612"/>
      <trkpt lat="41.975918" lon="-111.856670"/>
      <trkpt lat="41.975910" lon="-111.856691"/>
      <trkpt lat="41.975866" lon="-111.856724"/>
      <trkpt lat="41.975731" lon="-111.856726"/>
      <trkpt lat="41.975470" lon="-111.856724"/>
      <trkpt lat="41.973862" lon="-111.856727"/>
      <trkpt lat="41.973834" lon="-111.856761"/>
      <trkpt lat="41.973826" lon="-111.856835"/>
      <trkpt lat="41.973809" lon="-111.859374"/>
      <trkpt lat="41.973821" lon="-111.859422"/>
      <trkpt lat="41.973854" lon="-111.859450"/>
      <trkpt lat="41.975800" lon="-111.859480"/>
      <trkpt lat="41.975836" lon="-111.859471"/>
      <trkpt lat="41.975851" lon="-111.859442"/>
      <trkpt lat="41.975880" lon="-111.857975"/>
      <trkpt lat="41.975874" lon="-111.856878"/>
      <trkpt lat="41.975920" lon="-111.851239"/>
      <trkpt lat="41.975946" lon="-111.846175"/>
      <trkpt lat="41.975995" lon="-111.840384"/>
      <trkpt lat="41.976018" lon="-111.837544"/>
      <trkpt lat="41.976012" lon="-111.837369"/>
      <trkpt lat="41.975989" lon="-111.837316"/>
      <trkpt lat="41.975949" lon="-111.837284"/>
      <trkpt lat="41.971970" lon="-111.837238"/>
      <trkpt lat="41.971919" lon="-111.837227"/>
      <trkpt lat="41.971879" lon="-111.837183"/>
      <trkpt lat="41.971862" lon="-111.837094"/>
      <trkpt lat="41.971921" lon="-111.831038"/>
      <trkpt lat="41.971920" lon="-111.830850"/>
      <trkpt lat="41.971930" lon="-111.830670"/>
      <trkpt lat="41.971939" lon="-111.830580"/>
      <trkpt lat="41.971964" lon="-111.830534"/>
      <trkpt lat="41.972041" lon="-111.830520"/>
      <trkpt lat="41.975950" lon="-111.830572"/>
      <trkpt lat="41.976015" lon="-111.830572"/>
      <trkpt lat="41.976056" lon="-111.830563"/>
      <trkpt lat="41.976085" lon="-111.830529"/>
      <trkpt lat="41.976096" lon="-111.830483"/>
      <trkpt lat="41.976104" lon="-111.829247"/>
      <trkpt lat="41.976118" lon="-111.827296"/>
      <trkpt lat="41.976124" lon="-111.825647"/>
      <trkpt lat="41.976115" lon="-111.822602"/>
      <trkpt lat="41.976102" lon="-111.820270"/>
      <trkpt lat="41.976095" lon="-111.818208"/>
      <trkpt lat="41.976088" lon="-111.817185"/>
      <trkpt lat="41.976080" lon="-111.816242"/>
      <trkpt lat="41.976010" lon="-111.814554"/>
      <trkpt lat="41.975999" lon="-111.814271"/>
      <trkpt lat="41.975999" lon="-111.813909"/>
      <trkpt lat="41.976027" lon="-111.813632"/>
      <trkpt lat="41.976026" lon="-111.812868"/>
      <trkpt lat="41.976059" lon="-111.812809"/>
      <trkpt lat="41.976123" lon="-111.812787"/>
      <trkpt lat="41.976551" lon="-111.812784"/>
      <trkpt lat="41.976757" lon="-111.812744"/>
      <trkpt lat="41.986822" lon="-111.812691"/>
      <trkpt lat="41.990754" lon="-111.812697"/>
      <trkpt lat="41.994317" lon="-111.812697"/>
      <trkpt lat="41.998744" lon="-111.812700"/>
      <trkpt lat="42.001856" lon="-111.812670"/>
      <trkpt lat="42.002229" lon="-111.812652"/>
      <trkpt lat="42.002764" lon="-111.812546"/>
      <trkpt lat="42.003524" lon="-111.812303"/>
      <trkpt lat="42.004426" lon="-111.811821"/>
      <trkpt lat="42.005182" lon="-111.811255"/>
      <trkpt lat="42.006198" lon="-111.810505"/>
      <trkpt lat="42.007552" lon="-111.809443"/>
      <trkpt lat="42.007984" lon="-111.809121"/>
      <trkpt lat="42.008644" lon="-111.808508"/>
      <trkpt lat="42.009966" lon="-111.807320"/>
      <trkpt lat="42.010712" lon="-111.806650"/>
      <trkpt lat="42.011983" lon="-111.805535"/>
      <trkpt lat="42.012513" lon="-111.805083"/>
      <trkpt lat="42.013063" lon="-111.804699"/>
      <trkpt lat="42.013721" lon="-111.804451"/>
      <trkpt lat="42.014137" lon="-111.804323"/>
      <trkpt lat="42.014802" lon="-111.804277"/>
      <trkpt lat="42.017681" lon="-111.804204"/>
      <trkpt lat="42.018392" lon="-111.804172"/>
      <trkpt lat="42.018803" lon="-111.804210"/>
      <trkpt lat="42.019204" lon="-111.804305"/>
      <trkpt lat="42.019609" lon="-111.804411"/>
      <trkpt lat="42.019970" lon="-111.804548"/>
      <trkpt lat="42.020334" lon="-111.804722"/>
      <trkpt lat="42.020781" lon="-111.804990"/>
      <trkpt lat="42.021624" lon="-111.805492"/>
      <trkpt lat="42.022690" lon="-111.806133"/>
      <trkpt lat="42.023966" lon="-111.806873"/>
      <trkpt lat="42.024916" lon="-111.807444"/>
      <trkpt lat="42.026491" lon="-111.808409"/>
      <trkpt lat="42.027903" lon="-111.809172"/>
      <trkpt lat="42.029692" lon="-111.810198"/>
      <trkpt lat="42.031591" lon="-111.811340"/>
      <trkpt lat="42.032443" lon="-111.811831"/>
      <trkpt lat="42.032876" lon="-111.812028"/>
      <trkpt lat="42.033649" lon="-111.812284"/>
      <trkpt lat="42.034900" lon="-111.812528"/>
      <trkpt lat="42.037072" lon="-111.812970"/>
      <trkpt lat="42.038569" lon="-111.813270"/>
      <trkpt lat="42.040315" lon="-111.813623"/>
      <trkpt lat="42.042350" lon="-111.813998"/>
      <trkpt lat="42.044373" lon="-111.814412"/>
      <trkpt lat="42.046435" lon="-111.814766"/>
      <trkpt lat="42.047417" lon="-111.814905"/>
      <trkpt lat="42.048622" lon="-111.815030"/>
      <trkpt lat="42.049630" lon="-111.815072"/>
      <trkpt lat="42.050040" lon="-111.815109"/>
      <trkpt lat="42.050336" lon="-111.815142"/>
      <trkpt lat="42.050805" lon="-111.815267"/>
      <trkpt lat="42.051316" lon="-111.815449"/>
      <trkpt lat="42.051951" lon="-111.815769"/>
      <trkpt lat="42.052472" lon="-111.816132"/>
      <trkpt lat="42.052876" lon="-111.816458"/>
      <trkpt lat="42.053248" lon="-111.816830"/>
      <trkpt lat="42.053543" lon="-111.817177"/>
      <trkpt lat="42.054058" lon="-111.817914"/>
      <trkpt lat="42.054472" lon="-111.818591"/>
      <trkpt lat="42.055052" lon="-111.819544"/>
      <trkpt lat="42.055985" lon="-111.821057"/>
      <trkpt lat="42.057535" lon="-111.823620"/>
      <trkpt lat="42.058789" lon="-111.825679"/>
      <trkpt lat="42.060140" lon="-111.827855"/>
      <trkpt lat="42.061396" lon="-111.829914"/>
      <trkpt lat="42.062547" lon="-111.831803"/>
      <trkpt lat="42.064137" lon="-111.834384"/>
      <trkpt lat="42.066350" lon="-111.837997"/>
      <trkpt lat="42.068303" lon="-111.841053"/>
      <trkpt lat="42.069987" lon="-111.843922"/>
      <trkpt lat="42.071138" lon="-111.846068"/>
      <trkpt lat="42.072206" lon="-111.848020"/>
      <trkpt lat="42.074818" lon="-111.852733"/>
      <trkpt lat="42.076625" lon="-111.855856"/>
      <trkpt lat="42.078731" lon="-111.859744"/>
      <trkpt lat="42.080993" lon="-111.863876"/>
      <trkpt lat="42.081417" lon="-111.864610"/>
      <trkpt lat="42.081715" lon="-111.865095"/>
      <trkpt lat="42.082119" lon="-111.865656"/>
      <trkpt lat="42.083336" lon="-111.867139"/>
      <trkpt lat="42.085248" lon="-111.869401"/>
      <trkpt lat="42.086733" lon="-111.871228"/>
      <trkpt lat="42.088165" lon="-111.873004"/>
      <trkpt lat="42.089450" lon="-111.874612"/>
      <trkpt lat="42.090825" lon="-111.876282"/>
      <trkpt lat="42.090980" lon="-111.876442"/>
      <trkpt lat="42.091081" lon="-111.876517"/>
      <trkpt lat="42.091166" lon="-111.876570"/>
      <trkpt lat="42.091294" lon="-111.876589"/>
      <trkpt lat="42.091434" lon="-111.876597"/>
      <trkpt lat="42.096216" lon="-111.876574"/>
      <trkpt lat="42.096230" lon="-111.876559"/>
      <trkpt lat="42.096240" lon="-111.876532"/>
      <trkpt lat="42.096228" lon="-111.874206"/>
      <trkpt lat="42.096209" lon="-111.874116"/>
      <trkpt lat="42.096146" lon="-111.874072"/>
      <trkpt lat="42.095971" lon="-111.874079"/>
      <trkpt lat="42.094759" lon="-111.874098"/>
    </trkseg></trk>
</gpx>
