<?xml version="1.0" encoding="UTF-8"?>
<gpx version="1.1" creator="flagstop" xmlns="http://www.topografix.com/GPX/1/1">
  <trk><name>3 </name><desc>GTFS shape 31200</desc><trkseg>
      <trkpt lat="41.740808" lon="-111.831052"/>
      <trkpt lat="41.740854" lon="-111.830822"/>
      <trkpt lat="41.740852" lon="-111.830602"/>
      <trkpt lat="41.740848" lon="-111.830312"/>
      <trkpt lat="41.740858" lon="-111.830130"/>
      <trkpt lat="41.740858" lon="-111.829996"/>
      <trkpt lat="41.740846" lon="-111.829899"/>
      <trkpt lat="41.740822" lon="-111.829797"/>
      <trkpt lat="41.740776" lon="-111.829720"/>
      <trkpt lat="41.740716" lon="-111.829658"/>
      <trkpt lat="41.740618" lon="-111.829612"/>
      <trkpt lat="41.740488" lon="-111.829601"/>
      <trkpt lat="41.739127" lon="-111.829620"/>
      <trkpt lat="41.738569" lon="-111.829643"/>
      <trkpt lat="41.737138" lon="-111.829683"/>
      <trkpt lat="41.737076" lon="-111.829675"/>
      <trkpt lat="41.737040" lon="-111.829610"/>
      <trkpt lat="41.737016" lon="-111.829522"/>
      <trkpt lat="41.737006" lon="-111.829436"/>
      <trkpt lat="41.736990" lon="-111.829323"/>
      <trkpt lat="41.737008" lon="-111.828867"/>
      <trkpt lat="41.736982" lon="-111.826724"/>
      <trkpt lat="41.736942" lon="-111.826358"/>
      <trkpt lat="41.736964" lon="-111.825971"/>
      <trkpt lat="41.736932" lon="-111.824732"/>
      <trkpt lat="41.736924" lon="-111.824651"/>
      <trkpt lat="41.736892" lon="-111.824595"/>
      <trkpt lat="41.736850" lon="-111.824571"/>
      <trkpt lat="41.736798" lon="-111.824571"/>
      <trkpt lat="41.736226" lon="-111.824581"/>
      <trkpt lat="41.736127" lon="-111.824578"/>
      <trkpt lat="41.735181" lon="-111.824631"/>
      <trkpt lat="41.735117" lon="-111.824631"/>
      <trkpt lat="41.735089" lon="-111.824650"/>
      <trkpt lat="41.735065" lon="-111.824714"/>
      <trkpt lat="41.735065" lon="-111.824795"/>
      <trkpt lat="41.735077" lon="-111.825605"/>
      <trkpt lat="41.735105" lon="-111.826148"/>
      <trkpt lat="41.735087" lon="-111.826442"/>
      <trkpt lat="41.735097" lon="-111.826941"/>
      <trkpt lat="41.735085" lon="-111.827010"/>
      <trkpt lat="41.735071" lon="-111.827072"/>
      <trkpt lat="41.735027" lon="-111.827120"/>
      <trkpt lat="41.734987" lon="-111.827136"/>
      <trkpt lat="41.734927" lon="-111.827136"/>
      <trkpt lat="41.734873" lon="-111.827107"/>
      <trkpt lat="41.734803" lon="-111.827064"/>
      <trkpt lat="41.734675" lon="-111.826991"/>
      <trkpt lat="41.734575" lon="-111.826949"/>
      <trkpt lat="41.734483" lon="-111.826922"/>
      <trkpt lat="41.734371" lon="-111.826884"/>
      <trkpt lat="41.734074" lon="-111.826858"/>
      <trkpt lat="41.734099" lon="-111.826870"/>
      <trkpt lat="41.733918" lon="-111.826883"/>
      <trkpt lat="41.733794" lon="-111.826904"/>
      <trkpt lat="41.733716" lon="-111.826942"/>
      <trkpt lat="41.733644" lon="-111.826971"/>
      <trkpt lat="41.733506" lon="-111.827057"/>
      <trkpt lat="41.733338" lon="-111.827167"/>
      <trkpt lat="41.733274" lon="-111.827213"/>
      <trkpt lat="41.733228" lon="-111.827277"/>
      <trkpt lat="41.733208" lon="-111.827334"/>
      <trkpt lat="41.733200" lon="-111.827422"/>
      <trkpt lat="41.733198" lon="-111.827567"/>
      <trkpt lat="41.733224" lon="-111.829538"/>
      <trkpt lat="41.733273" lon="-111.832102"/>
      <trkpt lat="41.733273" lon="-111.832271"/>
      <trkpt lat="41.733263" lon="-111.832333"/>
      <trkpt lat="41.733229" lon="-111.832359"/>
      <trkpt lat="41.733189" lon="-111.832381"/>
      <trkpt lat="41.733147" lon="-111.832384"/>
      <trkpt lat="41.732490" lon="-111.832384"/>
      <trkpt lat="41.732256" lon="-111.832428"/>
      <trkpt lat="41.732012" lon="-111.832400"/>
      <trkpt lat="41.731798" lon="-111.832351"/>
      <trkpt lat="41.731482" lon="-111.832359"/>
      <trkpt lat="41.731421" lon="-111.832362"/>
      <trkpt lat="41.731365" lon="-111.832351"/>
      <trkpt lat="41.731327" lon="-111.832322"/>
      <trkpt lat="41.731297" lon="-111.832244"/>
      <trkpt lat="41.731291" lon="-111.832134"/>
      <trkpt lat="41.731270" lon="-111.830633"/>
      <trkpt lat="41.731284" lon="-111.830018"/>
      <trkpt lat="41.731276" lon="-111.829418"/>
      <trkpt lat="41.731281" lon="-111.828992"/>
      <trkpt lat="41.731277" lon="-111.828716"/>
      <trkpt lat="41.731265" lon="-111.827804"/>
      <trkpt lat="41.731183" lon="-111.827586"/>
      <trkpt lat="41.731253" lon="-111.827478"/>
      <trkpt lat="41.731261" lon="-111.827255"/>
      <trkpt lat="41.731245" lon="-111.826113"/>
      <trkpt lat="41.731221" lon="-111.824890"/>
      <trkpt lat="41.731213" lon="-111.824332"/>
      <trkpt lat="41.731196" lon="-111.823952"/>
      <trkpt lat="41.731201" lon="-111.823715"/>
      <trkpt lat="41.731179" lon="-111.822708"/>
      <trkpt lat="41.731205" lon="-111.822344"/>
      <trkpt lat="41.731207" lon="-111.822252"/>
      <trkpt lat="41.731221" lon="-111.822210"/>
      <trkpt lat="41.731259" lon="-111.822191"/>
      <trkpt lat="41.731321" lon="-111.822183"/>
      <trkpt lat="41.732162" lon="-111.822165"/>
      <trkpt lat="41.732363" lon="-111.822132"/>
      <trkpt lat="41.732488" lon="-111.822161"/>
      <trkpt lat="41.733517" lon="-111.822108"/>
      <trkpt lat="41.734924" lon="-111.822060"/>
      <trkpt lat="41.734978" lon="-111.822060"/>
      <trkpt lat="41.734990" lon="-111.821959"/>
      <trkpt lat="41.734988" lon="-111.821797"/>
      <trkpt lat="41.734975" lon="-111.821126"/>
      <trkpt lat="41.734958" lon="-111.820473"/>
      <trkpt lat="41.734926" lon="-111.820124"/>
      <trkpt lat="41.734957" lon="-111.819749"/>
      <trkpt lat="41.734929" lon="-111.818626"/>
      <trkpt lat="41.734888" lon="-111.817379"/>
      <trkpt lat="41.734856" lon="-111.815488"/>
      <trkpt lat="41.734824" lon="-111.813213"/>
      <trkpt lat="41.734817" lon="-111.812723"/>
      <trkpt lat="41.734781" lon="-111.812691"/>
      <trkpt lat="41.734743" lon="-111.812635"/>
      <trkpt lat="41.734263" lon="-111.811962"/>
      <trkpt lat="41.734227" lon="-111.811921"/>
      <trkpt lat="41.734161" lon="-111.811887"/>
      <trkpt lat="41.734103" lon="-111.811860"/>
      <trkpt lat="41.734029" lon="-111.811849"/>
      <trkpt lat="41.733920" lon="-111.811860"/>
      <trkpt lat="41.733570" lon="-111.811911"/>
      <trkpt lat="41.733165" lon="-111.812007"/>
      <trkpt lat="41.732862" lon="-111.812159"/>
      <trkpt lat="41.732617" lon="-111.812361"/>
      <trkpt lat="41.732555" lon="-111.812433"/>
      <trkpt lat="41.732511" lon="-111.812516"/>
      <trkpt lat="41.732477" lon="-111.812597"/>
      <trkpt lat="41.732445" lon="-111.812693"/>
      <trkpt lat="41.732423" lon="-111.812784"/>
      <trkpt lat="41.732407" lon="-111.812932"/>
      <trkpt lat="41.732363" lon="-111.813243"/>
      <trkpt lat="41.732315" lon="-111.813519"/>
      <trkpt lat="41.732287" lon="-111.813640"/>
      <trkpt lat="41.732245" lon="-111.813782"/>
      <trkpt lat="41.732209" lon="-111.813876"/>
      <trkpt lat="41.732147" lon="-111.814032"/>
      <trkpt lat="41.731885" lon="-111.814486"/>
      <trkpt lat="41.731623" lon="-111.814740"/>
      <trkpt lat="41.731398" lon="-111.814986"/>
      <trkpt lat="41.731174" lon="-111.815153"/>
      <trkpt lat="41.731130" lon="-111.815166"/>
      <trkpt lat="41.731110" lon="-111.815204"/>
      <trkpt lat="41.731104" lon="-111.815292"/>
      <trkpt lat="41.731136" lon="-111.816777"/>
      <trkpt lat="41.731190" lon="-111.819679"/>
      <trkpt lat="41.731190" lon="-111.819880"/>
      <trkpt lat="41.731230" lon="-111.822052"/>
      <trkpt lat="41.731239" lon="-111.822689"/>
      <trkpt lat="41.731266" lon="-111.824646"/>
      <trkpt lat="41.731291" lon="-111.825582"/>
      <trkpt lat="41.731290" lon="-111.827160"/>
      <trkpt lat="41.731288" lon="-111.827257"/>
      <trkpt lat="41.731278" lon="-111.827300"/>
      <trkpt lat="41.731238" lon="-111.827324"/>
      <trkpt lat="41.731184" lon="-111.827327"/>
      <trkpt lat="41.730120" lon="-111.827378"/>
      <trkpt lat="41.730024" lon="-111.827391"/>
      <trkpt lat="41.729542" lon="-111.827388"/>
      <trkpt lat="41.728453" lon="-111.827428"/>
      <trkpt lat="41.727670" lon="-111.827477"/>
      <trkpt lat="41.726308" lon="-111.827531"/>
      <trkpt lat="41.726141" lon="-111.827530"/>
      <trkpt lat="41.725894" lon="-111.827547"/>
      <trkpt lat="41.725844" lon="-111.827563"/>
      <trkpt lat="41.725830" lon="-111.827598"/>
      <trkpt lat="41.725830" lon="-111.827686"/>
      <trkpt lat="41.725872" lon="-111.829808"/>
      <trkpt lat="41.725894" lon="-111.831168"/>
      <trkpt lat="41.725932" lon="-111.832399"/>
      <trkpt lat="41.725936" lon="-111.832450"/>
      <trkpt lat="41.725960" lon="-111.832485"/>
      <trkpt lat="41.726000" lon="-111.832498"/>
      <trkpt lat="41.726052" lon="-111.832495"/>
      <trkpt lat="41.726160" lon="-111.832448"/>
      <trkpt lat="41.726285" lon="-111.832495"/>
      <trkpt lat="41.727613" lon="-111.832438"/>
      <trkpt lat="41.728917" lon="-111.832404"/>
      <trkpt lat="41.730352" lon="-111.832358"/>
      <trkpt lat="41.730782" lon="-111.832306"/>
      <trkpt lat="41.731073" lon="-111.832334"/>
      <trkpt lat="41.731759" lon="-111.832304"/>
      <trkpt lat="41.731907" lon="-111.832315"/>
      <trkpt lat="41.732186" lon="-111.832315"/>
      <trkpt lat="41.733157" lon="-111.832272"/>
      <trkpt lat="41.734536" lon="-111.832240"/>
      <trkpt lat="41.735606" lon="-111.832212"/>
      <trkpt lat="41.735913" lon="-111.832166"/>
      <trkpt lat="41.736092" lon="-111.832202"/>
      <trkpt lat="41.736963" lon="-111.832183"/>
      <trkpt lat="41.738114" lon="-111.832140"/>
      <trkpt lat="41.738868" lon="-111.832117"/>
      <trkpt lat="41.739432" lon="-111.832093"/>
      <trkpt lat="41.739552" lon="-111.832109"/>
      <trkpt lat="41.739796" lon="-111.832103"/>
      <trkpt lat="41.740325" lon="-111.832077"/>
      <trkpt lat="41.740617" lon="-111.832061"/>
      <trkpt lat="41.740771" lon="-111.832015"/>
      <trkpt lat="41.740823" lon="-111.832015"/>
      <trkpt lat="41.740867" lon="-111.831999"/>
      <trkpt lat="41.740901" lon="-111.831942"/>
      <trkpt lat="41.740903" lon="-111.831851"/>
      <trkpt lat="41.740905" lon="-111.831444"/>
      <trkpt lat="41.740808" lon="-111.831069"/>
      <trkpt lat="41.740808" lon="-111.831052"/>
    </trkseg></trk>
</gpx>
