<?xml version="1.0" encoding="UTF-8"?>
<gpx version="1.1" creator="flagstop" xmlns="http://www.topografix.com/GPX/1/1">
  <trk><name>16 AM Northbound</name><desc>GTFS shape 27487</desc><trkseg>
      <trkpt lat="41.740641" lon="-111.831510"/>
      <trkpt lat="41.740601" lon="-111.831365"/>
      <trkpt lat="41.740556" lon="-111.831251"/>
      <trkpt lat="41.740532" lon="-111.831164"/>
      <trkpt lat="41.740505" lon="-111.830958"/>
      <trkpt lat="41.740526" lon="-111.830705"/>
      <trkpt lat="41.740565" lon="-111.830595"/>
      <trkpt lat="41.740609" lon="-111.830515"/>
      <trkpt lat="41.740689" lon="-111.830429"/>
      <trkpt lat="41.740759" lon="-111.830423"/>
      <trkpt lat="41.740866" lon="-111.830460"/>
      <trkpt lat="41.740887" lon="-111.830520"/>
      <trkpt lat="41.740922" lon="-111.830711"/>
      <trkpt lat="41.740930" lon="-111.831225"/>
      <trkpt lat="41.740958" lon="-111.831895"/>
      <trkpt lat="41.740964" lon="-111.832220"/>
      <trkpt lat="41.740972" lon="-111.832719"/>
      <trkpt lat="41.741000" lon="-111.833629"/>
      <trkpt lat="41.741014" lon="-111.834096"/>
      <trkpt lat="41.741026" lon="-111.834263"/>
      <trkpt lat="41.741031" lon="-111.834338"/>
      <trkpt lat="41.741039" lon="-111.834557"/>
      <trkpt lat="41.741093" lon="-111.834601"/>
      <trkpt lat="41.742921" lon="-111.834559"/>
      <trkpt lat="41.745855" lon="-111.834482"/>
      <trkpt lat="41.749986" lon="-111.834394"/>
      <trkpt lat="41.751809" lon="-111.834366"/>
      <trkpt lat="41.755340" lon="-111.834318"/>
      <trkpt lat="41.757381" lon="-111.834266"/>
      <trkpt lat="41.758157" lon="-111.834246"/>
      <trkpt lat="41.758537" lon="-111.834257"/>
      <trkpt lat="41.760078" lon="-111.834227"/>
      <trkpt lat="41.762593" lon="-111.834177"/>
      <trkpt lat="41.763602" lon="-111.834140"/>
      <trkpt lat="41.766529" lon="-111.834113"/>
      <trkpt lat="41.768159" lon="-111.834060"/>
      <trkpt lat="41.769755" lon="-111.834041"/>
      <trkpt lat="41.772254" lon="-111.833995"/>
      <trkpt lat="41.772951" lon="-111.833963"/>
      <trkpt lat="41.775512" lon="-111.833923"/>
      <trkpt lat="41.776778" lon="-111.833860"/>
      <trkpt lat="41.777596" lon="-111.833877"/>
      <trkpt lat="41.778018" lon="-111.833866"/>
      <trkpt lat="41.788577" lon="-111.833631"/>
      <trkpt lat="41.793335" lon="-111.833523"/>
      <trkpt lat="41.799124" lon="-111.833405"/>
      <trkpt lat="41.799921" lon="-111.833378"/>
      <trkpt lat="41.806030" lon="-111.833255"/>
      <trkpt lat="41.807100" lon="-111.833248"/>
      <trkpt lat="41.812319" lon="-111.833137"/>
      <trkpt lat="41.819598" lon="-111.832966"/>
      <trkpt lat="41.820705" lon="-111.832948"/>
      <trkpt lat="41.821566" lon="-111.832954"/>
      <trkpt lat="41.824451" lon="-111.832884"/>
      <trkpt lat="41.825821" lon="-111.832861"/>
      <trkpt lat="41.828571" lon="-111.832802"/>
      <trkpt lat="41.836166" lon="-111.832602"/>
      <trkpt lat="41.839254" lon="-111.832526"/>
      <trkpt lat="41.840099" lon="-111.832491"/>
      <trkpt lat="41.844774" lon="-111.832378"/>
      <trkpt lat="41.845877" lon="-111.832337"/>
      <trkpt lat="41.846558" lon="-111.832302"/>
      <trkpt lat="41.846902" lon="-111.832274"/>
      <trkpt lat="41.847278" lon="-111.832242"/>
      <trkpt lat="41.847736" lon="-111.832205"/>
      <trkpt lat="41.848912" lon="-111.832082"/>
      <trkpt lat="41.850078" lon="-111.831988"/>
      <trkpt lat="41.852054" lon="-111.831805"/>
      <trkpt lat="41.853682" lon="-111.831651"/>
      <trkpt lat="41.854875" lon="-111.831497"/>
      <trkpt lat="41.855580" lon="-111.831374"/>
      <trkpt lat="41.856720" lon="-111.831158"/>
      <trkpt lat="41.860800" lon="-111.830340"/>
      <trkpt lat="41.862250" lon="-111.830007"/>
      <trkpt lat="41.863828" lon="-111.829590"/>
      <trkpt lat="41.864943" lon="-111.829303"/>
      <trkpt lat="41.865883" lon="-111.829036"/>
      <trkpt lat="41.867011" lon="-111.828681"/>
      <trkpt lat="41.869096" lon="-111.827993"/>
      <trkpt lat="41.870140" lon="-111.827568"/>
      <trkpt lat="41.870961" lon="-111.827166"/>
      <trkpt lat="41.871861" lon="-111.826662"/>
      <trkpt lat="41.872839" lon="-111.826029"/>
      <trkpt lat="41.874321" lon="-111.825071"/>
      <trkpt lat="41.877579" lon="-111.822999"/>
      <trkpt lat="41.881778" lon="-111.820325"/>
      <trkpt lat="41.882841" lon="-111.819630"/>
      <trkpt lat="41.887937" lon="-111.816236"/>
      <trkpt lat="41.888397" lon="-111.815965"/>
      <trkpt lat="41.888747" lon="-111.815771"/>
      <trkpt lat="41.889054" lon="-111.815622"/>
      <trkpt lat="41.889513" lon="-111.815424"/>
      <trkpt lat="41.890110" lon="-111.815216"/>
      <trkpt lat="41.890467" lon="-111.815109"/>
      <trkpt lat="41.890956" lon="-111.814994"/>
      <trkpt lat="41.891614" lon="-111.814882"/>
      <trkpt lat="41.892184" lon="-111.814848"/>
      <trkpt lat="41.896497" lon="-111.814744"/>
      <trkpt lat="41.903177" lon="-111.814681"/>
      <trkpt lat="41.911111" lon="-111.814531"/>
      <trkpt lat="41.912027" lon="-111.814506"/>
      <trkpt lat="41.920058" lon="-111.814325"/>
      <trkpt lat="41.922537" lon="-111.814258"/>
      <trkpt lat="41.923306" lon="-111.814231"/>
      <trkpt lat="41.940179" lon="-111.813817"/>
      <trkpt lat="41.940596" lon="-111.813835"/>
      <trkpt lat="41.940722" lon="-111.813827"/>
      <trkpt lat="41.940881" lon="-111.813862"/>
      <trkpt lat="41.941099" lon="-111.813855"/>
      <trkpt lat="41.941144" lon="-111.813916"/>
      <trkpt lat="41.941173" lon="-111.814032"/>
      <trkpt lat="41.941191" lon="-111.814212"/>
      <trkpt lat="41.941153" lon="-111.814268"/>
      <trkpt lat="41.941085" lon="-111.814296"/>
      <trkpt lat="41.939939" lon="-111.814333"/>
      <trkpt lat="41.938825" lon="-111.814359"/>
      <trkpt lat="41.938745" lon="-111.814338"/>
      <trkpt lat="41.938705" lon="-111.814252"/>
      <trkpt lat="41.938658" lon="-111.813900"/>
      <trkpt lat="41.938665" lon="-111.813862"/>
      <trkpt lat="41.938685" lon="-111.813838"/>
      <trkpt lat="41.941240" lon="-111.813761"/>
      <trkpt lat="41.943346" lon="-111.813671"/>
      <trkpt lat="41.943830" lon="-111.813644"/>
      <trkpt lat="41.945757" lon="-111.813528"/>
      <trkpt lat="41.947084" lon="-111.813438"/>
      <trkpt lat="41.949875" lon="-111.813294"/>
      <trkpt lat="41.952020" lon="-111.813207"/>
      <trkpt lat="41.953629" lon="-111.813121"/>
      <trkpt lat="41.955725" lon="-111.812939"/>
      <trkpt lat="41.957216" lon="-111.812853"/>
      <trkpt lat="41.958582" lon="-111.812815"/>
      <trkpt lat="41.960575" lon="-111.812775"/>
      <trkpt lat="41.963544" lon="-111.812765"/>
      <trkpt lat="41.972376" lon="-111.812727"/>
      <trkpt lat="41.974036" lon="-111.812764"/>
      <trkpt lat="41.974688" lon="-111.812804"/>
      <trkpt lat="41.975317" lon="-111.812802"/>
      <trkpt lat="41.975590" lon="-111.812842"/>
      <trkpt lat="41.976017" lon="-111.812855"/>
      <trkpt lat="41.976049" lon="-111.812892"/>
      <trkpt lat="41.976053" lon="-111.812959"/>
      <trkpt lat="41.976058" lon="-111.813038"/>
      <trkpt lat="41.976084" lon="-111.815051"/>
      <trkpt lat="41.976113" lon="-111.816231"/>
      <trkpt lat="41.976127" lon="-111.818138"/>
      <trkpt lat="41.976136" lon="-111.821067"/>
      <trkpt lat="41.976148" lon="-111.825028"/>
      <trkpt lat="41.976153" lon="-111.826239"/>
      <trkpt lat="41.976126" lon="-111.829549"/>
      <trkpt lat="41.976100" lon="-111.832268"/>
      <trkpt lat="41.976069" lon="-111.835193"/>
      <trkpt lat="41.976048" lon="-111.837187"/>
      <trkpt lat="41.976005" lon="-111.842741"/>
      <trkpt lat="41.975966" lon="-111.847988"/>
      <trkpt lat="41.975935" lon="-111.856612"/>
      <trkpt lat="41.975918" lon="-111.856670"/>
      <trkpt lat="41.975910" lon="-111.856691"/>
      <trkpt lat="41.975866" lon="-111.856724"/>
      <trkpt lat="41.975731" lon="-111.856726"/>
      <trkpt lat="41.975470" lon="-111.856724"/>
      <trkpt lat="41.973862" lon="-111.856727"/>
      <trkpt lat="41.973834" lon="-111.856761"/>
      <trkpt lat="41.973826" lon="-111.856835"/>
      <trkpt lat="41.973809" lon="-111.859374"/>
      <trkpt lat="41.973821" lon="-111.859422"/>
      <trkpt lat="41.973854" lon="-111.859450"/>
      <trkpt lat="41.975800" lon="-111.859480"/>
      <trkpt lat="41.975836" lon="-111.859471"/>
      <trkpt lat="41.975857" lon="-111.859410"/>
      <trkpt lat="41.975880" lon="-111.857975"/>
      <trkpt lat="41.975874" lon="-111.856878"/>
      <trkpt lat="41.975920" lon="-111.851239"/>
      <trkpt lat="41.975946" lon="-111.846175"/>
      <trkpt lat="41.975995" lon="-111.840384"/>
      <trkpt lat="41.976015" lon="-111.837403"/>
      <trkpt lat="41.975992" lon="-111.837311"/>
      <trkpt lat="41.975947" lon="-111.837289"/>
      <trkpt lat="41.971933" lon="-111.837239"/>
      <trkpt lat="41.971891" lon="-111.837231"/>
      <trkpt lat="41.971864" lon="-111.837204"/>
      <trkpt lat="41.971865" lon="-111.837054"/>
      <trkpt lat="41.971916" lon="-111.831846"/>
      <trkpt lat="41.971926" lon="-111.831040"/>
      <trkpt lat="41.971920" lon="-111.830850"/>
      <trkpt lat="41.971931" lon="-111.830674"/>
      <trkpt lat="41.971940" lon="-111.830595"/>
      <trkpt lat="41.971978" lon="-111.830547"/>
      <trkpt lat="41.972048" lon="-111.830535"/>
      <trkpt lat="41.976007" lon="-111.830575"/>
      <trkpt lat="41.976052" lon="-111.830562"/>
      <trkpt lat="41.976076" lon="-111.830533"/>
      <trkpt lat="41.976096" lon="-111.830471"/>
      <trkpt lat="41.976099" lon="-111.829244"/>
      <trkpt lat="41.976120" lon="-111.827292"/>
      <trkpt lat="41.976123" lon="-111.825647"/>
      <trkpt lat="41.976115" lon="-111.822602"/>
      <trkpt lat="41.976102" lon="-111.820270"/>
      <trkpt lat="41.976095" lon="-111.818208"/>
      <trkpt lat="41.976088" lon="-111.817185"/>
      <trkpt lat="41.976080" lon="-111.816242"/>
      <trkpt lat="41.976010" lon="-111.814554"/>
      <trkpt lat="41.975999" lon="-111.814271"/>
      <trkpt lat="41.975999" lon="-111.813909"/>
      <trkpt lat="41.976027" lon="-111.813632"/>
      <trkpt lat="41.976026" lon="-111.812868"/>
      <trkpt lat="41.976059" lon="-111.812809"/>
      <trkpt lat="41.976123" lon="-111.812787"/>
      <trkpt lat="41.976551" lon="-111.812784"/>
      <trkpt lat="41.976757" lon="-111.812744"/>
      <trkpt lat="41.986822" lon="-111.812691"/>
      <trkpt lat="41.990754" lon="-111.812697"/>
      <trkpt lat="41.994317" lon="-111.812697"/>
      <trkpt lat="41.998744" lon="-111.812700"/>
      <trkpt lat="42.001856" lon="-111.812670"/>
      <trkpt lat="42.002229" lon="-111.812652"/>
      <trkpt lat="42.002764" lon="-111.812546"/>
      <trkpt lat="42.003524" lon="-111.812303"/>
      <trkpt lat="42.004426" lon="-111.811821"/>
      <trkpt lat="42.005182" lon="-111.811255"/>
      <trkpt lat="42.006198" lon="-111.810505"/>
      <trkpt lat="42.007552" lon="-111.809443"/>
      <trkpt lat="42.007984" lon="-111.809121"/>
      <trkpt lat="42.008644" lon="-111.808508"/>
      <trkpt lat="42.009966" lon="-111.807320"/>
      <trkpt lat="42.010712" lon="-111.806650"/>
      <trkpt lat="42.011983" lon="-111.805535"/>
      <trkpt lat="42.012513" lon="-111.805083"/>
      <trkpt lat="42.013063" lon="-111.804699"/>
      <trkpt lat="42.013721" lon="-111.804451"/>
      <trkpt lat="42.014137" lon="-111.804323"/>
      <trkpt lat="42.014802" lon="-111.804277"/>
      <trkpt lat="42.017681" lon="-111.804204"/>
      <trkpt lat="42.018392" lon="-111.804172"/>
      <trkpt lat="42.018803" lon="-111.804210"/>
      <trkpt lat="42.019204" lon="-111.804305"/>
      <trkpt lat="42.019609" lon="-111.804411"/>
      <trkpt lat="42.019970" lon="-111.804548"/>
      <trkpt lat="42.020334" lon="-111.804722"/>
      <trkpt lat="42.020781" lon="-111.804990"/>
      <trkpt lat="42.021624" lon="-111.805492"/>
      <trkpt lat="42.022690" lon="-111.806133"/>
      <trkpt lat="42.023966" lon="-111.806873"/>
      <trkpt lat="42.024916" lon="-111.807444"/>
      <trkpt lat="42.026491" lon="-111.808409"/>
      <trkpt lat="42.027903" lon="-111.809172"/>
      <trkpt lat="42.029692" lon="-111.810198"/>
      <trkpt lat="42.031591" lon="-111.811340"/>
      <trkpt lat="42.032443" lon="-111.811831"/>
      <trkpt lat="42.032876" lon="-111.812028"/>
      <trkpt lat="42.033649" lon="-111.812284"/>
      <trkpt lat="42.034900" lon="-111.812528"/>
      <trkpt lat="42.037072" lon="-111.812970"/>
      <trkpt lat="42.038569" lon="-111.813270"/>
      <trkpt lat="42.040315" lon="-111.813623"/>
      <trkpt lat="42.042350" lon="-111.813998"/>
      <trkpt lat="42.044373" lon="-111.814412"/>
      <trkpt lat="42.046435" lon="-111.814766"/>
      <trkpt lat="42.047417" lon="-111.814905"/>
      <trkpt lat="42.048622" lon="-111.815030"/>
      <trkpt lat="42.049630" lon="-111.815072"/>
      <trkpt lat="42.050040" lon="-111.815109"/>
      <trkpt lat="42.050336" lon="-111.815142"/>
      <trkpt lat="42.050805" lon="-111.815267"/>
      <trkpt lat="42.051316" lon="-111.815449"/>
      <trkpt lat="42.051951" lon="-111.815769"/>
      <trkpt lat="42.052472" lon="-111.816132"/>
      <trkpt lat="42.052876" lon="-111.816458"/>
      <trkpt lat="42.053248" lon="-111.816830"/>
      <trkpt lat="42.053543" lon="-111.817177"/>
      <trkpt lat="42.054058" lon="-111.817914"/>
      <trkpt lat="42.054472" lon="-111.818591"/>
      <trkpt lat="42.055052" lon="-111.819544"/>
      <trkpt lat="42.055985" lon="-111.821057"/>
      <trkpt lat="42.057535" lon="-111.823620"/>
      <trkpt lat="42.058789" lon="-111.825679"/>
      <trkpt lat="42.060140" lon="-111.827855"/>
      <trkpt lat="42.061396" lon="-111.829914"/>
      <trkpt lat="42.062547" lon="-111.831803"/>
      <trkpt lat="42.064137" lon="-111.834384"/>
      <trkpt lat="42.066350" lon="-111.837997"/>
      <trkpt lat="42.068303" lon="-111.841053"/>
      <trkpt lat="42.069987" lon="-111.843922"/>
      <trkpt lat="42.071138" lon="-111.846068"/>
      <trkpt lat="42.072206" lon="-111.848020"/>
      <trkpt lat="42.074818" lon="-111.852733"/>
      <trkpt lat="42.076625" lon="-111.855856"/>
      <trkpt lat="42.078731" lon="-111.859744"/>
      <trkpt lat="42.080993" lon="-111.863876"/>
      <trkpt lat="42.081417" lon="-111.864610"/>
      <trkpt lat="42.081715" lon="-111.865095"/>
      <trkpt lat="42.082119" lon="-111.865656"/>
      <trkpt lat="42.083336" lon="-111.867139"/>
      <trkpt lat="42.085248" lon="-111.869401"/>
      <trkpt lat="42.086733" lon="-111.871228"/>
      <trkpt lat="42.088165" lon="-111.873004"/>
      <trkpt lat="42.089450" lon="-111.874612"/>
      <trkpt lat="42.090825" lon="-111.876282"/>
      <trkpt lat="42.090980" lon="-111.876442"/>
      <trkpt lat="42.091081" lon="-111.876517"/>
      <trkpt lat="42.091166" lon="-111.876570"/>
      <trkpt lat="42.091294" lon="-111.876589"/>
      <trkpt lat="42.091434" lon="-111.876597"/>
      <trkpt lat="42.096216" lon="-111.876574"/>
      <trkpt lat="42.096230" lon="-111.876559"/>
      <trkpt lat="42.096240" lon="-111.876532"/>
      <trkpt lat="42.096228" lon="-111.874206"/>
      <trkpt lat="42.096209" lon="-111.874116"/>
      <trkpt lat="42.096147" lon="-111.874077"/>
      <trkpt lat="42.095699" lon="-111.874072"/>
      <trkpt lat="42.094759" lon="-111.874098"/>
    </trkseg></trk>
</gpx>
